{
"type": "FeatureCollection",
"name": "Bihar",
"crs": { "type": "name", "properties": { "name": "urn:ogc:def:crs:OGC:1.3:CRS84" } },
"features": [
{ "type": "Feature", "properties": { "POLYGON.ID": 16.0, "subregion": "India--Bihar_CL29797", "FILTER": "Bihar", "POLYGON": "India--Bihar_CL29797", "COUNTY": "spl_region", "STATE": "Bihar", "OWNER": null }, "geometry": { "type": "MultiPolygon", "coordinates": [ [ [ [ 87.936, 26.463 ], [ 87.922, 26.465 ], [ 87.918, 26.477 ], [ 87.903, 26.48 ], [ 87.899, 26.492 ], [ 87.885, 26.494 ], [ 87.875, 26.485 ], [ 87.861, 26.487 ], [ 87.851, 26.478 ], [ 87.855, 26.466 ], [ 87.845, 26.456 ], [ 87.83, 26.459 ], [ 87.826, 26.471 ], [ 87.812, 26.473 ], [ 87.808, 26.485 ], [ 87.794, 26.488 ], [ 87.784, 26.478 ], [ 87.77, 26.481 ], [ 87.759, 26.471 ], [ 87.764, 26.459 ], [ 87.753, 26.45 ], [ 87.758, 26.437 ], [ 87.747, 26.428 ], [ 87.733, 26.43 ], [ 87.729, 26.442 ], [ 87.715, 26.445 ], [ 87.705, 26.435 ], [ 87.691, 26.438 ], [ 87.687, 26.45 ], [ 87.672, 26.452 ], [ 87.662, 26.443 ], [ 87.666, 26.431 ], [ 87.656, 26.421 ], [ 87.642, 26.424 ], [ 87.632, 26.414 ], [ 87.618, 26.417 ], [ 87.608, 26.407 ], [ 87.612, 26.395 ], [ 87.602, 26.386 ], [ 87.588, 26.388 ], [ 87.584, 26.4 ], [ 87.569, 26.403 ], [ 87.565, 26.415 ], [ 87.551, 26.417 ], [ 87.547, 26.429 ], [ 87.533, 26.432 ], [ 87.529, 26.444 ], [ 87.515, 26.446 ], [ 87.505, 26.436 ], [ 87.49, 26.439 ], [ 87.486, 26.451 ], [ 87.472, 26.453 ], [ 87.462, 26.444 ], [ 87.448, 26.446 ], [ 87.438, 26.437 ], [ 87.424, 26.439 ], [ 87.414, 26.43 ], [ 87.399, 26.432 ], [ 87.389, 26.423 ], [ 87.375, 26.425 ], [ 87.365, 26.415 ], [ 87.351, 26.418 ], [ 87.341, 26.408 ], [ 87.345, 26.396 ], [ 87.335, 26.387 ], [ 87.339, 26.375 ], [ 87.329, 26.365 ], [ 87.315, 26.368 ], [ 87.311, 26.38 ], [ 87.296, 26.382 ], [ 87.292, 26.394 ], [ 87.278, 26.397 ], [ 87.274, 26.409 ], [ 87.26, 26.411 ], [ 87.256, 26.423 ], [ 87.242, 26.425 ], [ 87.232, 26.416 ], [ 87.217, 26.418 ], [ 87.213, 26.43 ], [ 87.199, 26.433 ], [ 87.189, 26.423 ], [ 87.175, 26.426 ], [ 87.165, 26.416 ], [ 87.151, 26.418 ], [ 87.147, 26.43 ], [ 87.133, 26.433 ], [ 87.128, 26.445 ], [ 87.114, 26.447 ], [ 87.11, 26.459 ], [ 87.096, 26.462 ], [ 87.092, 26.474 ], [ 87.102, 26.483 ], [ 87.098, 26.495 ], [ 87.108, 26.505 ], [ 87.104, 26.517 ], [ 87.09, 26.519 ], [ 87.086, 26.531 ], [ 87.096, 26.541 ], [ 87.092, 26.553 ], [ 87.077, 26.555 ], [ 87.073, 26.567 ], [ 87.083, 26.576 ], [ 87.079, 26.588 ], [ 87.065, 26.591 ], [ 87.061, 26.603 ], [ 87.047, 26.605 ], [ 87.037, 26.596 ], [ 87.041, 26.584 ], [ 87.031, 26.574 ], [ 87.035, 26.562 ], [ 87.025, 26.553 ], [ 87.011, 26.555 ], [ 87.001, 26.545 ], [ 87.005, 26.534 ], [ 86.995, 26.524 ], [ 86.981, 26.526 ], [ 86.976, 26.538 ], [ 86.962, 26.541 ], [ 86.952, 26.531 ], [ 86.938, 26.534 ], [ 86.928, 26.524 ], [ 86.914, 26.526 ], [ 86.904, 26.517 ], [ 86.908, 26.505 ], [ 86.898, 26.495 ], [ 86.884, 26.498 ], [ 86.874, 26.488 ], [ 86.878, 26.476 ], [ 86.868, 26.467 ], [ 86.854, 26.469 ], [ 86.844, 26.459 ], [ 86.83, 26.462 ], [ 86.82, 26.452 ], [ 86.806, 26.455 ], [ 86.801, 26.467 ], [ 86.787, 26.469 ], [ 86.777, 26.459 ], [ 86.763, 26.462 ], [ 86.753, 26.452 ], [ 86.739, 26.455 ], [ 86.729, 26.445 ], [ 86.715, 26.447 ], [ 86.711, 26.459 ], [ 86.697, 26.462 ], [ 86.693, 26.474 ], [ 86.678, 26.476 ], [ 86.668, 26.466 ], [ 86.654, 26.469 ], [ 86.65, 26.481 ], [ 86.636, 26.483 ], [ 86.632, 26.495 ], [ 86.618, 26.497 ], [ 86.614, 26.509 ], [ 86.6, 26.512 ], [ 86.59, 26.502 ], [ 86.575, 26.505 ], [ 86.571, 26.516 ], [ 86.557, 26.519 ], [ 86.553, 26.531 ], [ 86.563, 26.54 ], [ 86.559, 26.552 ], [ 86.545, 26.555 ], [ 86.535, 26.545 ], [ 86.521, 26.547 ], [ 86.517, 26.559 ], [ 86.503, 26.562 ], [ 86.493, 26.552 ], [ 86.478, 26.554 ], [ 86.474, 26.566 ], [ 86.46, 26.569 ], [ 86.456, 26.581 ], [ 86.442, 26.583 ], [ 86.438, 26.595 ], [ 86.424, 26.597 ], [ 86.414, 26.588 ], [ 86.4, 26.59 ], [ 86.395, 26.602 ], [ 86.381, 26.604 ], [ 86.377, 26.616 ], [ 86.363, 26.618 ], [ 86.359, 26.63 ], [ 86.345, 26.633 ], [ 86.335, 26.623 ], [ 86.321, 26.625 ], [ 86.317, 26.637 ], [ 86.303, 26.64 ], [ 86.293, 26.63 ], [ 86.279, 26.632 ], [ 86.269, 26.623 ], [ 86.254, 26.625 ], [ 86.244, 26.616 ], [ 86.23, 26.618 ], [ 86.22, 26.608 ], [ 86.206, 26.611 ], [ 86.202, 26.622 ], [ 86.188, 26.625 ], [ 86.184, 26.637 ], [ 86.17, 26.639 ], [ 86.16, 26.629 ], [ 86.146, 26.632 ], [ 86.142, 26.644 ], [ 86.128, 26.646 ], [ 86.118, 26.636 ], [ 86.104, 26.639 ], [ 86.099, 26.651 ], [ 86.085, 26.653 ], [ 86.081, 26.665 ], [ 86.067, 26.667 ], [ 86.063, 26.679 ], [ 86.049, 26.681 ], [ 86.039, 26.672 ], [ 86.025, 26.674 ], [ 86.015, 26.664 ], [ 86.001, 26.667 ], [ 85.991, 26.657 ], [ 85.977, 26.659 ], [ 85.973, 26.671 ], [ 85.959, 26.673 ], [ 85.949, 26.664 ], [ 85.953, 26.652 ], [ 85.943, 26.642 ], [ 85.947, 26.63 ], [ 85.937, 26.621 ], [ 85.923, 26.623 ], [ 85.913, 26.614 ], [ 85.899, 26.616 ], [ 85.889, 26.606 ], [ 85.875, 26.609 ], [ 85.871, 26.62 ], [ 85.857, 26.623 ], [ 85.847, 26.613 ], [ 85.833, 26.615 ], [ 85.828, 26.627 ], [ 85.814, 26.63 ], [ 85.81, 26.641 ], [ 85.796, 26.644 ], [ 85.786, 26.634 ], [ 85.772, 26.636 ], [ 85.768, 26.648 ], [ 85.754, 26.65 ], [ 85.75, 26.662 ], [ 85.736, 26.665 ], [ 85.732, 26.676 ], [ 85.742, 26.686 ], [ 85.737, 26.698 ], [ 85.747, 26.707 ], [ 85.743, 26.719 ], [ 85.753, 26.729 ], [ 85.749, 26.741 ], [ 85.735, 26.743 ], [ 85.731, 26.755 ], [ 85.741, 26.765 ], [ 85.737, 26.776 ], [ 85.747, 26.786 ], [ 85.742, 26.798 ], [ 85.752, 26.807 ], [ 85.748, 26.819 ], [ 85.734, 26.822 ], [ 85.73, 26.833 ], [ 85.716, 26.836 ], [ 85.712, 26.847 ], [ 85.698, 26.85 ], [ 85.694, 26.862 ], [ 85.68, 26.864 ], [ 85.67, 26.854 ], [ 85.656, 26.856 ], [ 85.651, 26.868 ], [ 85.637, 26.87 ], [ 85.633, 26.882 ], [ 85.619, 26.885 ], [ 85.609, 26.875 ], [ 85.595, 26.877 ], [ 85.585, 26.868 ], [ 85.571, 26.87 ], [ 85.561, 26.86 ], [ 85.547, 26.862 ], [ 85.537, 26.853 ], [ 85.541, 26.841 ], [ 85.531, 26.831 ], [ 85.517, 26.834 ], [ 85.507, 26.824 ], [ 85.493, 26.826 ], [ 85.484, 26.817 ], [ 85.469, 26.819 ], [ 85.46, 26.809 ], [ 85.464, 26.797 ], [ 85.454, 26.788 ], [ 85.44, 26.79 ], [ 85.436, 26.802 ], [ 85.422, 26.804 ], [ 85.412, 26.795 ], [ 85.398, 26.797 ], [ 85.388, 26.787 ], [ 85.374, 26.789 ], [ 85.364, 26.78 ], [ 85.35, 26.782 ], [ 85.34, 26.772 ], [ 85.344, 26.76 ], [ 85.334, 26.751 ], [ 85.32, 26.753 ], [ 85.316, 26.765 ], [ 85.302, 26.767 ], [ 85.292, 26.758 ], [ 85.278, 26.76 ], [ 85.274, 26.772 ], [ 85.26, 26.774 ], [ 85.25, 26.764 ], [ 85.236, 26.766 ], [ 85.232, 26.778 ], [ 85.218, 26.78 ], [ 85.213, 26.792 ], [ 85.199, 26.794 ], [ 85.195, 26.806 ], [ 85.205, 26.816 ], [ 85.201, 26.828 ], [ 85.211, 26.837 ], [ 85.207, 26.849 ], [ 85.217, 26.859 ], [ 85.213, 26.87 ], [ 85.198, 26.873 ], [ 85.194, 26.884 ], [ 85.18, 26.887 ], [ 85.17, 26.877 ], [ 85.156, 26.879 ], [ 85.152, 26.891 ], [ 85.138, 26.893 ], [ 85.128, 26.884 ], [ 85.114, 26.886 ], [ 85.104, 26.876 ], [ 85.09, 26.878 ], [ 85.081, 26.869 ], [ 85.067, 26.871 ], [ 85.062, 26.883 ], [ 85.072, 26.892 ], [ 85.068, 26.904 ], [ 85.054, 26.906 ], [ 85.044, 26.897 ], [ 85.03, 26.899 ], [ 85.026, 26.911 ], [ 85.012, 26.913 ], [ 85.008, 26.925 ], [ 84.994, 26.927 ], [ 84.99, 26.938 ], [ 85.0, 26.948 ], [ 84.995, 26.96 ], [ 84.981, 26.962 ], [ 84.977, 26.974 ], [ 84.963, 26.976 ], [ 84.953, 26.966 ], [ 84.939, 26.968 ], [ 84.935, 26.98 ], [ 84.921, 26.982 ], [ 84.911, 26.973 ], [ 84.897, 26.975 ], [ 84.893, 26.987 ], [ 84.879, 26.989 ], [ 84.875, 27.001 ], [ 84.861, 27.003 ], [ 84.857, 27.015 ], [ 84.843, 27.017 ], [ 84.839, 27.028 ], [ 84.825, 27.031 ], [ 84.815, 27.021 ], [ 84.801, 27.023 ], [ 84.797, 27.035 ], [ 84.783, 27.037 ], [ 84.773, 27.027 ], [ 84.759, 27.03 ], [ 84.749, 27.02 ], [ 84.735, 27.022 ], [ 84.731, 27.034 ], [ 84.717, 27.036 ], [ 84.712, 27.048 ], [ 84.698, 27.05 ], [ 84.689, 27.04 ], [ 84.675, 27.042 ], [ 84.67, 27.054 ], [ 84.656, 27.056 ], [ 84.652, 27.068 ], [ 84.662, 27.078 ], [ 84.676, 27.075 ], [ 84.686, 27.085 ], [ 84.682, 27.097 ], [ 84.692, 27.106 ], [ 84.688, 27.118 ], [ 84.697, 27.128 ], [ 84.693, 27.139 ], [ 84.703, 27.149 ], [ 84.699, 27.161 ], [ 84.709, 27.17 ], [ 84.705, 27.182 ], [ 84.691, 27.184 ], [ 84.686, 27.196 ], [ 84.696, 27.206 ], [ 84.692, 27.217 ], [ 84.702, 27.227 ], [ 84.698, 27.239 ], [ 84.684, 27.241 ], [ 84.68, 27.252 ], [ 84.689, 27.262 ], [ 84.685, 27.274 ], [ 84.671, 27.276 ], [ 84.667, 27.288 ], [ 84.653, 27.29 ], [ 84.649, 27.301 ], [ 84.659, 27.311 ], [ 84.655, 27.323 ], [ 84.641, 27.325 ], [ 84.636, 27.336 ], [ 84.622, 27.339 ], [ 84.618, 27.35 ], [ 84.604, 27.352 ], [ 84.594, 27.343 ], [ 84.58, 27.345 ], [ 84.576, 27.357 ], [ 84.562, 27.359 ], [ 84.552, 27.349 ], [ 84.538, 27.351 ], [ 84.534, 27.363 ], [ 84.52, 27.365 ], [ 84.51, 27.355 ], [ 84.496, 27.357 ], [ 84.492, 27.369 ], [ 84.478, 27.371 ], [ 84.474, 27.383 ], [ 84.46, 27.385 ], [ 84.45, 27.375 ], [ 84.436, 27.377 ], [ 84.432, 27.389 ], [ 84.418, 27.391 ], [ 84.408, 27.382 ], [ 84.394, 27.384 ], [ 84.39, 27.395 ], [ 84.376, 27.397 ], [ 84.366, 27.388 ], [ 84.352, 27.39 ], [ 84.342, 27.38 ], [ 84.328, 27.382 ], [ 84.324, 27.394 ], [ 84.31, 27.396 ], [ 84.306, 27.408 ], [ 84.292, 27.41 ], [ 84.288, 27.421 ], [ 84.298, 27.431 ], [ 84.294, 27.443 ], [ 84.28, 27.445 ], [ 84.275, 27.456 ], [ 84.261, 27.458 ], [ 84.257, 27.47 ], [ 84.243, 27.472 ], [ 84.234, 27.463 ], [ 84.22, 27.465 ], [ 84.215, 27.476 ], [ 84.201, 27.478 ], [ 84.197, 27.49 ], [ 84.183, 27.492 ], [ 84.179, 27.504 ], [ 84.165, 27.506 ], [ 84.161, 27.517 ], [ 84.147, 27.519 ], [ 84.143, 27.531 ], [ 84.129, 27.533 ], [ 84.119, 27.523 ], [ 84.105, 27.525 ], [ 84.095, 27.516 ], [ 84.081, 27.518 ], [ 84.071, 27.508 ], [ 84.076, 27.497 ], [ 84.066, 27.487 ], [ 84.052, 27.489 ], [ 84.042, 27.479 ], [ 84.046, 27.468 ], [ 84.036, 27.458 ], [ 84.022, 27.46 ], [ 84.013, 27.451 ], [ 83.999, 27.453 ], [ 83.995, 27.464 ], [ 83.981, 27.466 ], [ 83.971, 27.457 ], [ 83.957, 27.459 ], [ 83.947, 27.449 ], [ 83.933, 27.451 ], [ 83.929, 27.463 ], [ 83.922, 27.464 ], [ 83.915, 27.465 ], [ 83.905, 27.455 ], [ 83.891, 27.457 ], [ 83.881, 27.447 ], [ 83.867, 27.449 ], [ 83.863, 27.461 ], [ 83.848, 27.463 ], [ 83.839, 27.453 ], [ 83.825, 27.455 ], [ 83.815, 27.445 ], [ 83.819, 27.434 ], [ 83.81, 27.424 ], [ 83.814, 27.413 ], [ 83.821, 27.412 ], [ 83.828, 27.411 ], [ 83.833, 27.399 ], [ 83.847, 27.397 ], [ 83.851, 27.386 ], [ 83.865, 27.384 ], [ 83.869, 27.372 ], [ 83.859, 27.362 ], [ 83.863, 27.351 ], [ 83.853, 27.341 ], [ 83.858, 27.329 ], [ 83.848, 27.32 ], [ 83.852, 27.308 ], [ 83.866, 27.306 ], [ 83.876, 27.316 ], [ 83.89, 27.314 ], [ 83.899, 27.323 ], [ 83.913, 27.321 ], [ 83.918, 27.31 ], [ 83.932, 27.308 ], [ 83.936, 27.296 ], [ 83.926, 27.286 ], [ 83.912, 27.288 ], [ 83.902, 27.279 ], [ 83.906, 27.267 ], [ 83.897, 27.258 ], [ 83.901, 27.246 ], [ 83.915, 27.244 ], [ 83.919, 27.232 ], [ 83.933, 27.23 ], [ 83.943, 27.24 ], [ 83.957, 27.238 ], [ 83.961, 27.226 ], [ 83.975, 27.224 ], [ 83.979, 27.212 ], [ 83.969, 27.203 ], [ 83.973, 27.191 ], [ 83.987, 27.189 ], [ 83.991, 27.177 ], [ 83.982, 27.168 ], [ 83.986, 27.156 ], [ 83.976, 27.146 ], [ 83.962, 27.148 ], [ 83.952, 27.139 ], [ 83.956, 27.127 ], [ 83.947, 27.117 ], [ 83.951, 27.106 ], [ 83.941, 27.096 ], [ 83.945, 27.084 ], [ 83.959, 27.082 ], [ 83.969, 27.092 ], [ 83.983, 27.09 ], [ 83.993, 27.1 ], [ 84.007, 27.098 ], [ 84.016, 27.107 ], [ 84.03, 27.105 ], [ 84.035, 27.094 ], [ 84.025, 27.084 ], [ 84.011, 27.086 ], [ 84.001, 27.076 ], [ 84.005, 27.065 ], [ 84.019, 27.063 ], [ 84.023, 27.051 ], [ 84.037, 27.049 ], [ 84.041, 27.037 ], [ 84.055, 27.035 ], [ 84.06, 27.023 ], [ 84.05, 27.014 ], [ 84.054, 27.002 ], [ 84.044, 26.992 ], [ 84.048, 26.981 ], [ 84.062, 26.979 ], [ 84.066, 26.967 ], [ 84.057, 26.957 ], [ 84.043, 26.959 ], [ 84.033, 26.95 ], [ 84.037, 26.938 ], [ 84.051, 26.936 ], [ 84.055, 26.924 ], [ 84.045, 26.914 ], [ 84.05, 26.903 ], [ 84.064, 26.901 ], [ 84.068, 26.889 ], [ 84.082, 26.887 ], [ 84.086, 26.875 ], [ 84.1, 26.873 ], [ 84.11, 26.883 ], [ 84.105, 26.894 ], [ 84.115, 26.904 ], [ 84.129, 26.902 ], [ 84.133, 26.89 ], [ 84.147, 26.888 ], [ 84.151, 26.877 ], [ 84.142, 26.867 ], [ 84.146, 26.855 ], [ 84.136, 26.845 ], [ 84.14, 26.834 ], [ 84.154, 26.832 ], [ 84.164, 26.841 ], [ 84.178, 26.839 ], [ 84.188, 26.849 ], [ 84.183, 26.861 ], [ 84.193, 26.87 ], [ 84.207, 26.868 ], [ 84.217, 26.878 ], [ 84.231, 26.876 ], [ 84.235, 26.864 ], [ 84.249, 26.862 ], [ 84.253, 26.85 ], [ 84.267, 26.848 ], [ 84.271, 26.836 ], [ 84.262, 26.827 ], [ 84.266, 26.815 ], [ 84.256, 26.805 ], [ 84.26, 26.794 ], [ 84.25, 26.784 ], [ 84.254, 26.772 ], [ 84.245, 26.762 ], [ 84.249, 26.751 ], [ 84.239, 26.741 ], [ 84.243, 26.729 ], [ 84.257, 26.727 ], [ 84.267, 26.737 ], [ 84.281, 26.735 ], [ 84.291, 26.744 ], [ 84.305, 26.742 ], [ 84.309, 26.731 ], [ 84.323, 26.728 ], [ 84.327, 26.717 ], [ 84.317, 26.707 ], [ 84.321, 26.695 ], [ 84.335, 26.693 ], [ 84.339, 26.681 ], [ 84.353, 26.679 ], [ 84.363, 26.689 ], [ 84.377, 26.687 ], [ 84.381, 26.675 ], [ 84.395, 26.673 ], [ 84.399, 26.661 ], [ 84.413, 26.659 ], [ 84.417, 26.647 ], [ 84.408, 26.638 ], [ 84.412, 26.626 ], [ 84.402, 26.616 ], [ 84.388, 26.618 ], [ 84.378, 26.609 ], [ 84.364, 26.611 ], [ 84.36, 26.623 ], [ 84.346, 26.625 ], [ 84.336, 26.615 ], [ 84.322, 26.617 ], [ 84.313, 26.607 ], [ 84.299, 26.61 ], [ 84.289, 26.6 ], [ 84.275, 26.602 ], [ 84.271, 26.614 ], [ 84.257, 26.616 ], [ 84.247, 26.606 ], [ 84.233, 26.608 ], [ 84.229, 26.62 ], [ 84.215, 26.622 ], [ 84.205, 26.613 ], [ 84.191, 26.615 ], [ 84.187, 26.626 ], [ 84.173, 26.629 ], [ 84.163, 26.619 ], [ 84.15, 26.621 ], [ 84.145, 26.633 ], [ 84.131, 26.635 ], [ 84.122, 26.625 ], [ 84.108, 26.627 ], [ 84.104, 26.639 ], [ 84.09, 26.641 ], [ 84.08, 26.631 ], [ 84.084, 26.62 ], [ 84.074, 26.61 ], [ 84.078, 26.598 ], [ 84.069, 26.589 ], [ 84.073, 26.577 ], [ 84.063, 26.567 ], [ 84.067, 26.555 ], [ 84.057, 26.546 ], [ 84.044, 26.548 ], [ 84.034, 26.538 ], [ 84.02, 26.54 ], [ 84.01, 26.53 ], [ 83.996, 26.533 ], [ 83.986, 26.523 ], [ 83.973, 26.525 ], [ 83.963, 26.515 ], [ 83.949, 26.517 ], [ 83.945, 26.529 ], [ 83.931, 26.531 ], [ 83.921, 26.522 ], [ 83.925, 26.51 ], [ 83.915, 26.5 ], [ 83.92, 26.488 ], [ 83.91, 26.479 ], [ 83.914, 26.467 ], [ 83.904, 26.457 ], [ 83.908, 26.445 ], [ 83.922, 26.443 ], [ 83.932, 26.453 ], [ 83.946, 26.451 ], [ 83.95, 26.439 ], [ 83.964, 26.437 ], [ 83.968, 26.425 ], [ 83.982, 26.423 ], [ 83.992, 26.433 ], [ 83.988, 26.445 ], [ 83.997, 26.454 ], [ 84.011, 26.452 ], [ 84.016, 26.44 ], [ 84.029, 26.438 ], [ 84.034, 26.427 ], [ 84.024, 26.417 ], [ 84.028, 26.405 ], [ 84.042, 26.403 ], [ 84.052, 26.413 ], [ 84.066, 26.411 ], [ 84.07, 26.399 ], [ 84.084, 26.397 ], [ 84.088, 26.385 ], [ 84.102, 26.383 ], [ 84.112, 26.393 ], [ 84.125, 26.39 ], [ 84.13, 26.379 ], [ 84.144, 26.376 ], [ 84.153, 26.386 ], [ 84.167, 26.384 ], [ 84.171, 26.372 ], [ 84.162, 26.363 ], [ 84.166, 26.351 ], [ 84.18, 26.349 ], [ 84.184, 26.337 ], [ 84.174, 26.327 ], [ 84.178, 26.315 ], [ 84.168, 26.306 ], [ 84.173, 26.294 ], [ 84.163, 26.284 ], [ 84.167, 26.272 ], [ 84.157, 26.263 ], [ 84.143, 26.265 ], [ 84.134, 26.255 ], [ 84.12, 26.257 ], [ 84.11, 26.248 ], [ 84.114, 26.236 ], [ 84.104, 26.226 ], [ 84.09, 26.228 ], [ 84.081, 26.218 ], [ 84.067, 26.221 ], [ 84.063, 26.232 ], [ 84.049, 26.234 ], [ 84.039, 26.225 ], [ 84.025, 26.227 ], [ 84.015, 26.217 ], [ 84.019, 26.205 ], [ 84.01, 26.196 ], [ 84.014, 26.184 ], [ 84.004, 26.174 ], [ 84.008, 26.162 ], [ 84.022, 26.16 ], [ 84.026, 26.148 ], [ 84.04, 26.146 ], [ 84.044, 26.134 ], [ 84.058, 26.132 ], [ 84.062, 26.121 ], [ 84.053, 26.111 ], [ 84.057, 26.099 ], [ 84.071, 26.097 ], [ 84.08, 26.107 ], [ 84.094, 26.104 ], [ 84.099, 26.093 ], [ 84.112, 26.09 ], [ 84.117, 26.079 ], [ 84.131, 26.077 ], [ 84.135, 26.065 ], [ 84.125, 26.055 ], [ 84.129, 26.043 ], [ 84.143, 26.041 ], [ 84.147, 26.029 ], [ 84.161, 26.027 ], [ 84.165, 26.015 ], [ 84.179, 26.013 ], [ 84.183, 26.001 ], [ 84.197, 25.999 ], [ 84.201, 25.987 ], [ 84.215, 25.985 ], [ 84.225, 25.995 ], [ 84.239, 25.993 ], [ 84.243, 25.981 ], [ 84.257, 25.979 ], [ 84.261, 25.967 ], [ 84.275, 25.965 ], [ 84.279, 25.953 ], [ 84.293, 25.951 ], [ 84.297, 25.939 ], [ 84.311, 25.937 ], [ 84.321, 25.946 ], [ 84.335, 25.944 ], [ 84.345, 25.954 ], [ 84.358, 25.952 ], [ 84.363, 25.94 ], [ 84.377, 25.938 ], [ 84.386, 25.947 ], [ 84.4, 25.945 ], [ 84.404, 25.933 ], [ 84.418, 25.931 ], [ 84.422, 25.919 ], [ 84.413, 25.909 ], [ 84.417, 25.898 ], [ 84.431, 25.895 ], [ 84.435, 25.884 ], [ 84.449, 25.881 ], [ 84.459, 25.891 ], [ 84.473, 25.889 ], [ 84.477, 25.877 ], [ 84.491, 25.875 ], [ 84.5, 25.885 ], [ 84.514, 25.882 ], [ 84.518, 25.87 ], [ 84.532, 25.868 ], [ 84.537, 25.856 ], [ 84.527, 25.847 ], [ 84.531, 25.835 ], [ 84.545, 25.833 ], [ 84.555, 25.842 ], [ 84.569, 25.84 ], [ 84.573, 25.828 ], [ 84.587, 25.826 ], [ 84.591, 25.814 ], [ 84.605, 25.812 ], [ 84.609, 25.8 ], [ 84.623, 25.798 ], [ 84.627, 25.786 ], [ 84.617, 25.776 ], [ 84.621, 25.764 ], [ 84.611, 25.755 ], [ 84.616, 25.743 ], [ 84.63, 25.74 ], [ 84.634, 25.729 ], [ 84.624, 25.719 ], [ 84.61, 25.721 ], [ 84.606, 25.733 ], [ 84.592, 25.735 ], [ 84.588, 25.747 ], [ 84.574, 25.749 ], [ 84.564, 25.74 ], [ 84.568, 25.728 ], [ 84.558, 25.718 ], [ 84.563, 25.706 ], [ 84.553, 25.696 ], [ 84.539, 25.699 ], [ 84.529, 25.689 ], [ 84.515, 25.691 ], [ 84.505, 25.681 ], [ 84.491, 25.683 ], [ 84.487, 25.695 ], [ 84.473, 25.698 ], [ 84.469, 25.709 ], [ 84.455, 25.712 ], [ 84.446, 25.702 ], [ 84.432, 25.704 ], [ 84.422, 25.694 ], [ 84.408, 25.697 ], [ 84.404, 25.709 ], [ 84.414, 25.718 ], [ 84.409, 25.73 ], [ 84.396, 25.732 ], [ 84.391, 25.744 ], [ 84.377, 25.746 ], [ 84.368, 25.737 ], [ 84.354, 25.739 ], [ 84.35, 25.751 ], [ 84.336, 25.753 ], [ 84.326, 25.743 ], [ 84.33, 25.731 ], [ 84.32, 25.722 ], [ 84.325, 25.71 ], [ 84.315, 25.7 ], [ 84.319, 25.688 ], [ 84.333, 25.686 ], [ 84.337, 25.674 ], [ 84.327, 25.664 ], [ 84.313, 25.666 ], [ 84.309, 25.678 ], [ 84.295, 25.681 ], [ 84.285, 25.671 ], [ 84.29, 25.659 ], [ 84.28, 25.649 ], [ 84.266, 25.651 ], [ 84.262, 25.663 ], [ 84.248, 25.665 ], [ 84.238, 25.656 ], [ 84.224, 25.658 ], [ 84.22, 25.67 ], [ 84.206, 25.672 ], [ 84.202, 25.684 ], [ 84.212, 25.694 ], [ 84.208, 25.705 ], [ 84.194, 25.708 ], [ 84.19, 25.72 ], [ 84.176, 25.722 ], [ 84.166, 25.712 ], [ 84.152, 25.714 ], [ 84.148, 25.726 ], [ 84.134, 25.728 ], [ 84.124, 25.718 ], [ 84.11, 25.721 ], [ 84.101, 25.711 ], [ 84.087, 25.713 ], [ 84.077, 25.703 ], [ 84.081, 25.691 ], [ 84.072, 25.682 ], [ 84.076, 25.67 ], [ 84.09, 25.668 ], [ 84.094, 25.656 ], [ 84.084, 25.646 ], [ 84.088, 25.634 ], [ 84.078, 25.624 ], [ 84.065, 25.627 ], [ 84.055, 25.617 ], [ 84.041, 25.619 ], [ 84.031, 25.609 ], [ 84.017, 25.611 ], [ 84.008, 25.602 ], [ 83.994, 25.604 ], [ 83.984, 25.594 ], [ 83.988, 25.582 ], [ 83.978, 25.572 ], [ 83.965, 25.575 ], [ 83.955, 25.565 ], [ 83.941, 25.567 ], [ 83.931, 25.557 ], [ 83.917, 25.559 ], [ 83.908, 25.55 ], [ 83.912, 25.538 ], [ 83.902, 25.528 ], [ 83.888, 25.53 ], [ 83.879, 25.52 ], [ 83.883, 25.509 ], [ 83.873, 25.499 ], [ 83.877, 25.487 ], [ 83.867, 25.477 ], [ 83.854, 25.479 ], [ 83.844, 25.47 ], [ 83.83, 25.472 ], [ 83.82, 25.462 ], [ 83.824, 25.45 ], [ 83.838, 25.448 ], [ 83.842, 25.436 ], [ 83.833, 25.426 ], [ 83.819, 25.428 ], [ 83.809, 25.419 ], [ 83.813, 25.407 ], [ 83.804, 25.397 ], [ 83.79, 25.399 ], [ 83.78, 25.389 ], [ 83.766, 25.391 ], [ 83.762, 25.403 ], [ 83.748, 25.406 ], [ 83.739, 25.396 ], [ 83.725, 25.398 ], [ 83.715, 25.388 ], [ 83.701, 25.39 ], [ 83.692, 25.381 ], [ 83.696, 25.369 ], [ 83.686, 25.359 ], [ 83.672, 25.361 ], [ 83.663, 25.351 ], [ 83.649, 25.353 ], [ 83.639, 25.344 ], [ 83.625, 25.346 ], [ 83.616, 25.336 ], [ 83.602, 25.338 ], [ 83.592, 25.328 ], [ 83.596, 25.316 ], [ 83.587, 25.307 ], [ 83.573, 25.309 ], [ 83.569, 25.321 ], [ 83.555, 25.323 ], [ 83.545, 25.313 ], [ 83.531, 25.315 ], [ 83.522, 25.305 ], [ 83.526, 25.294 ], [ 83.516, 25.284 ], [ 83.502, 25.286 ], [ 83.493, 25.276 ], [ 83.479, 25.278 ], [ 83.469, 25.268 ], [ 83.473, 25.257 ], [ 83.464, 25.247 ], [ 83.45, 25.249 ], [ 83.446, 25.261 ], [ 83.432, 25.263 ], [ 83.422, 25.253 ], [ 83.408, 25.255 ], [ 83.399, 25.245 ], [ 83.403, 25.234 ], [ 83.393, 25.224 ], [ 83.397, 25.212 ], [ 83.388, 25.202 ], [ 83.374, 25.204 ], [ 83.364, 25.194 ], [ 83.351, 25.197 ], [ 83.341, 25.187 ], [ 83.345, 25.175 ], [ 83.359, 25.173 ], [ 83.363, 25.161 ], [ 83.353, 25.151 ], [ 83.357, 25.139 ], [ 83.371, 25.137 ], [ 83.375, 25.125 ], [ 83.366, 25.115 ], [ 83.352, 25.117 ], [ 83.342, 25.108 ], [ 83.347, 25.096 ], [ 83.337, 25.086 ], [ 83.341, 25.074 ], [ 83.331, 25.064 ], [ 83.336, 25.052 ], [ 83.326, 25.043 ], [ 83.33, 25.031 ], [ 83.32, 25.021 ], [ 83.325, 25.009 ], [ 83.338, 25.007 ], [ 83.342, 24.995 ], [ 83.333, 24.985 ], [ 83.337, 24.973 ], [ 83.351, 24.971 ], [ 83.355, 24.959 ], [ 83.369, 24.957 ], [ 83.373, 24.945 ], [ 83.363, 24.935 ], [ 83.367, 24.923 ], [ 83.358, 24.914 ], [ 83.362, 24.902 ], [ 83.352, 24.892 ], [ 83.356, 24.88 ], [ 83.37, 24.878 ], [ 83.374, 24.866 ], [ 83.388, 24.864 ], [ 83.392, 24.852 ], [ 83.383, 24.842 ], [ 83.387, 24.83 ], [ 83.401, 24.828 ], [ 83.405, 24.816 ], [ 83.395, 24.806 ], [ 83.399, 24.794 ], [ 83.39, 24.784 ], [ 83.394, 24.772 ], [ 83.407, 24.77 ], [ 83.417, 24.78 ], [ 83.431, 24.778 ], [ 83.435, 24.766 ], [ 83.449, 24.764 ], [ 83.453, 24.752 ], [ 83.443, 24.742 ], [ 83.447, 24.73 ], [ 83.461, 24.728 ], [ 83.471, 24.738 ], [ 83.485, 24.736 ], [ 83.489, 24.724 ], [ 83.479, 24.714 ], [ 83.483, 24.702 ], [ 83.497, 24.7 ], [ 83.501, 24.688 ], [ 83.515, 24.686 ], [ 83.519, 24.674 ], [ 83.509, 24.664 ], [ 83.514, 24.652 ], [ 83.527, 24.65 ], [ 83.532, 24.638 ], [ 83.545, 24.635 ], [ 83.549, 24.623 ], [ 83.54, 24.614 ], [ 83.526, 24.616 ], [ 83.516, 24.606 ], [ 83.521, 24.594 ], [ 83.534, 24.592 ], [ 83.538, 24.58 ], [ 83.529, 24.57 ], [ 83.533, 24.558 ], [ 83.523, 24.548 ], [ 83.51, 24.55 ], [ 83.5, 24.541 ], [ 83.504, 24.529 ], [ 83.518, 24.526 ], [ 83.527, 24.536 ], [ 83.541, 24.534 ], [ 83.545, 24.522 ], [ 83.559, 24.52 ], [ 83.563, 24.508 ], [ 83.577, 24.506 ], [ 83.587, 24.516 ], [ 83.601, 24.513 ], [ 83.61, 24.523 ], [ 83.624, 24.521 ], [ 83.628, 24.509 ], [ 83.642, 24.507 ], [ 83.652, 24.517 ], [ 83.665, 24.514 ], [ 83.675, 24.524 ], [ 83.689, 24.522 ], [ 83.693, 24.51 ], [ 83.707, 24.508 ], [ 83.711, 24.496 ], [ 83.725, 24.494 ], [ 83.734, 24.503 ], [ 83.748, 24.501 ], [ 83.758, 24.511 ], [ 83.772, 24.509 ], [ 83.781, 24.519 ], [ 83.795, 24.516 ], [ 83.805, 24.526 ], [ 83.818, 24.524 ], [ 83.828, 24.534 ], [ 83.842, 24.532 ], [ 83.852, 24.541 ], [ 83.865, 24.539 ], [ 83.87, 24.527 ], [ 83.883, 24.525 ], [ 83.893, 24.535 ], [ 83.907, 24.533 ], [ 83.916, 24.542 ], [ 83.93, 24.54 ], [ 83.94, 24.55 ], [ 83.936, 24.562 ], [ 83.946, 24.572 ], [ 83.959, 24.57 ], [ 83.969, 24.579 ], [ 83.965, 24.591 ], [ 83.975, 24.601 ], [ 83.97, 24.613 ], [ 83.98, 24.623 ], [ 83.994, 24.621 ], [ 84.004, 24.631 ], [ 84.017, 24.628 ], [ 84.027, 24.638 ], [ 84.041, 24.636 ], [ 84.045, 24.624 ], [ 84.035, 24.614 ], [ 84.04, 24.602 ], [ 84.053, 24.6 ], [ 84.058, 24.588 ], [ 84.071, 24.586 ], [ 84.075, 24.574 ], [ 84.066, 24.564 ], [ 84.07, 24.552 ], [ 84.084, 24.55 ], [ 84.088, 24.538 ], [ 84.078, 24.528 ], [ 84.082, 24.516 ], [ 84.096, 24.513 ], [ 84.1, 24.501 ], [ 84.091, 24.492 ], [ 84.095, 24.48 ], [ 84.109, 24.477 ], [ 84.118, 24.487 ], [ 84.132, 24.485 ], [ 84.142, 24.495 ], [ 84.138, 24.507 ], [ 84.147, 24.517 ], [ 84.143, 24.529 ], [ 84.153, 24.538 ], [ 84.167, 24.536 ], [ 84.176, 24.546 ], [ 84.19, 24.544 ], [ 84.2, 24.554 ], [ 84.214, 24.551 ], [ 84.218, 24.539 ], [ 84.232, 24.537 ], [ 84.241, 24.547 ], [ 84.255, 24.545 ], [ 84.259, 24.532 ], [ 84.273, 24.53 ], [ 84.283, 24.54 ], [ 84.279, 24.552 ], [ 84.289, 24.562 ], [ 84.302, 24.56 ], [ 84.307, 24.548 ], [ 84.297, 24.538 ], [ 84.301, 24.526 ], [ 84.315, 24.523 ], [ 84.319, 24.511 ], [ 84.333, 24.509 ], [ 84.337, 24.497 ], [ 84.327, 24.487 ], [ 84.313, 24.49 ], [ 84.304, 24.48 ], [ 84.308, 24.468 ], [ 84.298, 24.458 ], [ 84.302, 24.446 ], [ 84.316, 24.444 ], [ 84.32, 24.432 ], [ 84.334, 24.429 ], [ 84.338, 24.417 ], [ 84.328, 24.407 ], [ 84.333, 24.395 ], [ 84.346, 24.393 ], [ 84.351, 24.381 ], [ 84.364, 24.379 ], [ 84.374, 24.389 ], [ 84.388, 24.386 ], [ 84.392, 24.374 ], [ 84.406, 24.372 ], [ 84.41, 24.36 ], [ 84.424, 24.358 ], [ 84.428, 24.346 ], [ 84.418, 24.336 ], [ 84.422, 24.324 ], [ 84.436, 24.321 ], [ 84.446, 24.331 ], [ 84.46, 24.329 ], [ 84.464, 24.317 ], [ 84.478, 24.315 ], [ 84.482, 24.302 ], [ 84.496, 24.3 ], [ 84.505, 24.31 ], [ 84.501, 24.322 ], [ 84.511, 24.332 ], [ 84.525, 24.33 ], [ 84.535, 24.339 ], [ 84.531, 24.351 ], [ 84.54, 24.361 ], [ 84.536, 24.373 ], [ 84.546, 24.383 ], [ 84.56, 24.381 ], [ 84.569, 24.391 ], [ 84.565, 24.403 ], [ 84.575, 24.412 ], [ 84.589, 24.41 ], [ 84.593, 24.398 ], [ 84.607, 24.396 ], [ 84.617, 24.406 ], [ 84.631, 24.403 ], [ 84.635, 24.391 ], [ 84.649, 24.389 ], [ 84.658, 24.399 ], [ 84.672, 24.396 ], [ 84.682, 24.406 ], [ 84.678, 24.418 ], [ 84.688, 24.428 ], [ 84.683, 24.44 ], [ 84.693, 24.45 ], [ 84.689, 24.462 ], [ 84.699, 24.472 ], [ 84.713, 24.469 ], [ 84.722, 24.479 ], [ 84.736, 24.477 ], [ 84.746, 24.487 ], [ 84.742, 24.499 ], [ 84.752, 24.509 ], [ 84.766, 24.506 ], [ 84.775, 24.516 ], [ 84.789, 24.514 ], [ 84.799, 24.524 ], [ 84.813, 24.521 ], [ 84.823, 24.531 ], [ 84.837, 24.529 ], [ 84.841, 24.517 ], [ 84.831, 24.507 ], [ 84.835, 24.495 ], [ 84.825, 24.485 ], [ 84.829, 24.473 ], [ 84.843, 24.471 ], [ 84.847, 24.458 ], [ 84.861, 24.456 ], [ 84.871, 24.466 ], [ 84.885, 24.464 ], [ 84.889, 24.452 ], [ 84.879, 24.442 ], [ 84.883, 24.43 ], [ 84.897, 24.427 ], [ 84.901, 24.415 ], [ 84.892, 24.405 ], [ 84.896, 24.393 ], [ 84.91, 24.391 ], [ 84.914, 24.379 ], [ 84.928, 24.377 ], [ 84.937, 24.386 ], [ 84.951, 24.384 ], [ 84.955, 24.372 ], [ 84.969, 24.37 ], [ 84.979, 24.379 ], [ 84.993, 24.377 ], [ 85.003, 24.387 ], [ 84.999, 24.399 ], [ 85.008, 24.409 ], [ 85.022, 24.406 ], [ 85.032, 24.416 ], [ 85.046, 24.414 ], [ 85.056, 24.424 ], [ 85.07, 24.421 ], [ 85.074, 24.409 ], [ 85.088, 24.407 ], [ 85.092, 24.395 ], [ 85.082, 24.385 ], [ 85.086, 24.373 ], [ 85.1, 24.37 ], [ 85.11, 24.38 ], [ 85.106, 24.392 ], [ 85.116, 24.402 ], [ 85.129, 24.4 ], [ 85.139, 24.41 ], [ 85.153, 24.407 ], [ 85.163, 24.417 ], [ 85.159, 24.429 ], [ 85.169, 24.439 ], [ 85.165, 24.451 ], [ 85.174, 24.461 ], [ 85.188, 24.458 ], [ 85.198, 24.468 ], [ 85.212, 24.466 ], [ 85.222, 24.476 ], [ 85.236, 24.473 ], [ 85.245, 24.483 ], [ 85.259, 24.481 ], [ 85.269, 24.49 ], [ 85.283, 24.488 ], [ 85.293, 24.498 ], [ 85.289, 24.51 ], [ 85.299, 24.52 ], [ 85.313, 24.517 ], [ 85.322, 24.527 ], [ 85.336, 24.525 ], [ 85.346, 24.534 ], [ 85.36, 24.532 ], [ 85.364, 24.52 ], [ 85.378, 24.518 ], [ 85.388, 24.527 ], [ 85.384, 24.54 ], [ 85.394, 24.549 ], [ 85.408, 24.547 ], [ 85.412, 24.535 ], [ 85.426, 24.532 ], [ 85.435, 24.542 ], [ 85.449, 24.54 ], [ 85.459, 24.55 ], [ 85.473, 24.547 ], [ 85.483, 24.557 ], [ 85.497, 24.555 ], [ 85.501, 24.542 ], [ 85.515, 24.54 ], [ 85.519, 24.528 ], [ 85.533, 24.526 ], [ 85.543, 24.535 ], [ 85.539, 24.547 ], [ 85.549, 24.557 ], [ 85.563, 24.555 ], [ 85.572, 24.565 ], [ 85.568, 24.577 ], [ 85.578, 24.586 ], [ 85.574, 24.599 ], [ 85.584, 24.608 ], [ 85.598, 24.606 ], [ 85.602, 24.594 ], [ 85.616, 24.591 ], [ 85.62, 24.579 ], [ 85.634, 24.577 ], [ 85.644, 24.587 ], [ 85.658, 24.584 ], [ 85.668, 24.594 ], [ 85.663, 24.606 ], [ 85.673, 24.616 ], [ 85.669, 24.628 ], [ 85.679, 24.638 ], [ 85.675, 24.65 ], [ 85.661, 24.652 ], [ 85.657, 24.664 ], [ 85.667, 24.674 ], [ 85.663, 24.686 ], [ 85.672, 24.696 ], [ 85.686, 24.694 ], [ 85.696, 24.703 ], [ 85.692, 24.715 ], [ 85.702, 24.725 ], [ 85.698, 24.737 ], [ 85.708, 24.747 ], [ 85.704, 24.759 ], [ 85.714, 24.769 ], [ 85.709, 24.781 ], [ 85.719, 24.791 ], [ 85.715, 24.803 ], [ 85.725, 24.813 ], [ 85.739, 24.81 ], [ 85.749, 24.82 ], [ 85.763, 24.817 ], [ 85.767, 24.805 ], [ 85.781, 24.803 ], [ 85.785, 24.791 ], [ 85.799, 24.788 ], [ 85.809, 24.798 ], [ 85.823, 24.796 ], [ 85.833, 24.806 ], [ 85.847, 24.803 ], [ 85.857, 24.813 ], [ 85.871, 24.81 ], [ 85.875, 24.798 ], [ 85.889, 24.796 ], [ 85.893, 24.784 ], [ 85.907, 24.781 ], [ 85.911, 24.769 ], [ 85.901, 24.76 ], [ 85.905, 24.747 ], [ 85.919, 24.745 ], [ 85.923, 24.733 ], [ 85.937, 24.731 ], [ 85.947, 24.74 ], [ 85.961, 24.738 ], [ 85.971, 24.748 ], [ 85.985, 24.745 ], [ 85.995, 24.755 ], [ 86.009, 24.753 ], [ 86.019, 24.762 ], [ 86.033, 24.76 ], [ 86.043, 24.77 ], [ 86.057, 24.767 ], [ 86.061, 24.755 ], [ 86.075, 24.753 ], [ 86.079, 24.74 ], [ 86.093, 24.738 ], [ 86.097, 24.726 ], [ 86.111, 24.723 ], [ 86.115, 24.711 ], [ 86.129, 24.709 ], [ 86.133, 24.697 ], [ 86.123, 24.687 ], [ 86.127, 24.675 ], [ 86.117, 24.665 ], [ 86.121, 24.653 ], [ 86.112, 24.643 ], [ 86.116, 24.631 ], [ 86.13, 24.629 ], [ 86.134, 24.617 ], [ 86.148, 24.614 ], [ 86.152, 24.602 ], [ 86.166, 24.6 ], [ 86.17, 24.587 ], [ 86.184, 24.585 ], [ 86.194, 24.595 ], [ 86.208, 24.592 ], [ 86.218, 24.602 ], [ 86.232, 24.6 ], [ 86.236, 24.587 ], [ 86.25, 24.585 ], [ 86.254, 24.573 ], [ 86.268, 24.57 ], [ 86.278, 24.58 ], [ 86.292, 24.578 ], [ 86.302, 24.587 ], [ 86.316, 24.585 ], [ 86.32, 24.573 ], [ 86.31, 24.563 ], [ 86.314, 24.551 ], [ 86.304, 24.541 ], [ 86.308, 24.529 ], [ 86.298, 24.519 ], [ 86.302, 24.507 ], [ 86.293, 24.497 ], [ 86.297, 24.485 ], [ 86.287, 24.475 ], [ 86.291, 24.463 ], [ 86.305, 24.461 ], [ 86.309, 24.449 ], [ 86.323, 24.446 ], [ 86.333, 24.456 ], [ 86.347, 24.453 ], [ 86.351, 24.441 ], [ 86.365, 24.439 ], [ 86.369, 24.426 ], [ 86.383, 24.424 ], [ 86.387, 24.412 ], [ 86.401, 24.409 ], [ 86.405, 24.397 ], [ 86.419, 24.395 ], [ 86.423, 24.382 ], [ 86.437, 24.38 ], [ 86.441, 24.368 ], [ 86.455, 24.365 ], [ 86.465, 24.375 ], [ 86.461, 24.387 ], [ 86.471, 24.397 ], [ 86.467, 24.409 ], [ 86.477, 24.419 ], [ 86.473, 24.431 ], [ 86.483, 24.441 ], [ 86.497, 24.438 ], [ 86.507, 24.448 ], [ 86.503, 24.46 ], [ 86.489, 24.463 ], [ 86.484, 24.475 ], [ 86.494, 24.485 ], [ 86.49, 24.497 ], [ 86.5, 24.507 ], [ 86.496, 24.519 ], [ 86.506, 24.528 ], [ 86.52, 24.526 ], [ 86.53, 24.536 ], [ 86.544, 24.533 ], [ 86.554, 24.543 ], [ 86.55, 24.555 ], [ 86.56, 24.565 ], [ 86.574, 24.562 ], [ 86.584, 24.572 ], [ 86.58, 24.584 ], [ 86.59, 24.594 ], [ 86.604, 24.591 ], [ 86.614, 24.601 ], [ 86.628, 24.599 ], [ 86.632, 24.587 ], [ 86.646, 24.584 ], [ 86.65, 24.572 ], [ 86.664, 24.569 ], [ 86.674, 24.579 ], [ 86.688, 24.577 ], [ 86.698, 24.586 ], [ 86.712, 24.584 ], [ 86.722, 24.593 ], [ 86.736, 24.591 ], [ 86.746, 24.601 ], [ 86.742, 24.613 ], [ 86.752, 24.623 ], [ 86.766, 24.62 ], [ 86.77, 24.608 ], [ 86.784, 24.605 ], [ 86.794, 24.615 ], [ 86.808, 24.613 ], [ 86.812, 24.6 ], [ 86.802, 24.591 ], [ 86.806, 24.579 ], [ 86.82, 24.576 ], [ 86.83, 24.586 ], [ 86.844, 24.583 ], [ 86.848, 24.571 ], [ 86.862, 24.569 ], [ 86.872, 24.578 ], [ 86.886, 24.576 ], [ 86.89, 24.563 ], [ 86.904, 24.561 ], [ 86.914, 24.571 ], [ 86.91, 24.583 ], [ 86.92, 24.593 ], [ 86.916, 24.605 ], [ 86.926, 24.614 ], [ 86.922, 24.627 ], [ 86.932, 24.636 ], [ 86.946, 24.634 ], [ 86.956, 24.644 ], [ 86.97, 24.641 ], [ 86.974, 24.629 ], [ 86.988, 24.626 ], [ 86.998, 24.636 ], [ 87.012, 24.633 ], [ 87.016, 24.621 ], [ 87.03, 24.619 ], [ 87.04, 24.628 ], [ 87.036, 24.641 ], [ 87.046, 24.65 ], [ 87.042, 24.663 ], [ 87.052, 24.672 ], [ 87.048, 24.684 ], [ 87.058, 24.694 ], [ 87.072, 24.692 ], [ 87.082, 24.701 ], [ 87.078, 24.713 ], [ 87.088, 24.723 ], [ 87.084, 24.735 ], [ 87.07, 24.738 ], [ 87.066, 24.75 ], [ 87.075, 24.76 ], [ 87.071, 24.772 ], [ 87.081, 24.782 ], [ 87.077, 24.794 ], [ 87.087, 24.803 ], [ 87.083, 24.816 ], [ 87.093, 24.825 ], [ 87.089, 24.838 ], [ 87.099, 24.847 ], [ 87.113, 24.845 ], [ 87.123, 24.854 ], [ 87.137, 24.852 ], [ 87.147, 24.861 ], [ 87.143, 24.874 ], [ 87.153, 24.883 ], [ 87.149, 24.896 ], [ 87.159, 24.905 ], [ 87.155, 24.917 ], [ 87.141, 24.92 ], [ 87.137, 24.932 ], [ 87.147, 24.942 ], [ 87.143, 24.954 ], [ 87.153, 24.964 ], [ 87.149, 24.976 ], [ 87.159, 24.985 ], [ 87.155, 24.998 ], [ 87.14, 25.0 ], [ 87.136, 25.012 ], [ 87.146, 25.022 ], [ 87.16, 25.019 ], [ 87.17, 25.029 ], [ 87.166, 25.041 ], [ 87.176, 25.051 ], [ 87.172, 25.063 ], [ 87.182, 25.073 ], [ 87.196, 25.07 ], [ 87.206, 25.08 ], [ 87.22, 25.077 ], [ 87.23, 25.087 ], [ 87.226, 25.099 ], [ 87.236, 25.109 ], [ 87.25, 25.106 ], [ 87.255, 25.094 ], [ 87.269, 25.092 ], [ 87.279, 25.101 ], [ 87.293, 25.099 ], [ 87.303, 25.108 ], [ 87.299, 25.121 ], [ 87.309, 25.13 ], [ 87.305, 25.142 ], [ 87.315, 25.152 ], [ 87.311, 25.164 ], [ 87.321, 25.174 ], [ 87.316, 25.186 ], [ 87.326, 25.196 ], [ 87.322, 25.208 ], [ 87.332, 25.217 ], [ 87.347, 25.215 ], [ 87.351, 25.203 ], [ 87.365, 25.2 ], [ 87.375, 25.21 ], [ 87.371, 25.222 ], [ 87.381, 25.232 ], [ 87.395, 25.229 ], [ 87.399, 25.217 ], [ 87.413, 25.214 ], [ 87.417, 25.202 ], [ 87.431, 25.2 ], [ 87.441, 25.209 ], [ 87.455, 25.207 ], [ 87.459, 25.195 ], [ 87.473, 25.192 ], [ 87.483, 25.202 ], [ 87.479, 25.214 ], [ 87.465, 25.216 ], [ 87.461, 25.229 ], [ 87.471, 25.238 ], [ 87.467, 25.25 ], [ 87.477, 25.26 ], [ 87.491, 25.257 ], [ 87.501, 25.267 ], [ 87.497, 25.279 ], [ 87.483, 25.282 ], [ 87.479, 25.294 ], [ 87.489, 25.304 ], [ 87.503, 25.301 ], [ 87.507, 25.289 ], [ 87.521, 25.286 ], [ 87.531, 25.296 ], [ 87.546, 25.293 ], [ 87.556, 25.303 ], [ 87.552, 25.315 ], [ 87.562, 25.325 ], [ 87.558, 25.337 ], [ 87.568, 25.347 ], [ 87.582, 25.344 ], [ 87.586, 25.332 ], [ 87.6, 25.329 ], [ 87.604, 25.317 ], [ 87.618, 25.315 ], [ 87.628, 25.324 ], [ 87.642, 25.322 ], [ 87.646, 25.31 ], [ 87.66, 25.307 ], [ 87.671, 25.317 ], [ 87.685, 25.314 ], [ 87.689, 25.302 ], [ 87.703, 25.299 ], [ 87.707, 25.287 ], [ 87.697, 25.278 ], [ 87.701, 25.265 ], [ 87.715, 25.263 ], [ 87.719, 25.251 ], [ 87.733, 25.248 ], [ 87.743, 25.258 ], [ 87.757, 25.255 ], [ 87.768, 25.265 ], [ 87.782, 25.262 ], [ 87.786, 25.25 ], [ 87.8, 25.248 ], [ 87.81, 25.257 ], [ 87.824, 25.255 ], [ 87.834, 25.264 ], [ 87.848, 25.262 ], [ 87.858, 25.271 ], [ 87.854, 25.283 ], [ 87.864, 25.293 ], [ 87.86, 25.305 ], [ 87.846, 25.308 ], [ 87.836, 25.298 ], [ 87.822, 25.301 ], [ 87.818, 25.313 ], [ 87.804, 25.316 ], [ 87.8, 25.328 ], [ 87.785, 25.33 ], [ 87.781, 25.342 ], [ 87.791, 25.352 ], [ 87.787, 25.364 ], [ 87.773, 25.367 ], [ 87.769, 25.379 ], [ 87.779, 25.388 ], [ 87.775, 25.401 ], [ 87.785, 25.41 ], [ 87.781, 25.422 ], [ 87.791, 25.432 ], [ 87.787, 25.444 ], [ 87.797, 25.454 ], [ 87.811, 25.451 ], [ 87.815, 25.439 ], [ 87.83, 25.436 ], [ 87.84, 25.446 ], [ 87.836, 25.458 ], [ 87.846, 25.468 ], [ 87.86, 25.465 ], [ 87.87, 25.475 ], [ 87.866, 25.487 ], [ 87.876, 25.497 ], [ 87.872, 25.509 ], [ 87.882, 25.518 ], [ 87.896, 25.516 ], [ 87.906, 25.525 ], [ 87.92, 25.523 ], [ 87.93, 25.532 ], [ 87.944, 25.53 ], [ 87.954, 25.539 ], [ 87.969, 25.537 ], [ 87.973, 25.525 ], [ 87.987, 25.522 ], [ 87.991, 25.51 ], [ 88.005, 25.507 ], [ 88.009, 25.495 ], [ 88.023, 25.493 ], [ 88.027, 25.481 ], [ 88.042, 25.478 ], [ 88.052, 25.488 ], [ 88.066, 25.485 ], [ 88.076, 25.495 ], [ 88.072, 25.507 ], [ 88.058, 25.509 ], [ 88.054, 25.521 ], [ 88.064, 25.531 ], [ 88.06, 25.543 ], [ 88.045, 25.546 ], [ 88.041, 25.558 ], [ 88.027, 25.561 ], [ 88.023, 25.573 ], [ 88.033, 25.582 ], [ 88.029, 25.594 ], [ 88.039, 25.604 ], [ 88.035, 25.616 ], [ 88.045, 25.626 ], [ 88.041, 25.638 ], [ 88.051, 25.647 ], [ 88.047, 25.66 ], [ 88.057, 25.669 ], [ 88.053, 25.681 ], [ 88.063, 25.691 ], [ 88.059, 25.703 ], [ 88.045, 25.705 ], [ 88.035, 25.696 ], [ 88.021, 25.698 ], [ 88.017, 25.711 ], [ 88.003, 25.713 ], [ 87.999, 25.725 ], [ 87.984, 25.728 ], [ 87.974, 25.718 ], [ 87.96, 25.721 ], [ 87.956, 25.733 ], [ 87.966, 25.743 ], [ 87.962, 25.755 ], [ 87.948, 25.757 ], [ 87.944, 25.769 ], [ 87.93, 25.772 ], [ 87.926, 25.784 ], [ 87.911, 25.786 ], [ 87.907, 25.799 ], [ 87.917, 25.808 ], [ 87.913, 25.82 ], [ 87.899, 25.823 ], [ 87.895, 25.835 ], [ 87.905, 25.844 ], [ 87.901, 25.857 ], [ 87.887, 25.859 ], [ 87.883, 25.871 ], [ 87.869, 25.874 ], [ 87.859, 25.864 ], [ 87.844, 25.867 ], [ 87.84, 25.879 ], [ 87.826, 25.881 ], [ 87.822, 25.893 ], [ 87.832, 25.903 ], [ 87.828, 25.915 ], [ 87.814, 25.918 ], [ 87.81, 25.93 ], [ 87.82, 25.939 ], [ 87.834, 25.937 ], [ 87.844, 25.946 ], [ 87.84, 25.958 ], [ 87.85, 25.968 ], [ 87.846, 25.98 ], [ 87.856, 25.99 ], [ 87.852, 26.002 ], [ 87.862, 26.011 ], [ 87.858, 26.023 ], [ 87.868, 26.033 ], [ 87.882, 26.03 ], [ 87.892, 26.04 ], [ 87.888, 26.052 ], [ 87.898, 26.062 ], [ 87.894, 26.074 ], [ 87.904, 26.083 ], [ 87.919, 26.081 ], [ 87.923, 26.069 ], [ 87.937, 26.066 ], [ 87.947, 26.076 ], [ 87.961, 26.073 ], [ 87.971, 26.083 ], [ 87.967, 26.095 ], [ 87.977, 26.104 ], [ 87.973, 26.116 ], [ 87.983, 26.126 ], [ 87.979, 26.138 ], [ 87.989, 26.147 ], [ 88.004, 26.145 ], [ 88.014, 26.154 ], [ 88.01, 26.167 ], [ 88.02, 26.176 ], [ 88.034, 26.174 ], [ 88.044, 26.183 ], [ 88.058, 26.181 ], [ 88.068, 26.19 ], [ 88.082, 26.188 ], [ 88.093, 26.197 ], [ 88.089, 26.209 ], [ 88.099, 26.219 ], [ 88.113, 26.216 ], [ 88.123, 26.226 ], [ 88.137, 26.223 ], [ 88.147, 26.233 ], [ 88.143, 26.245 ], [ 88.153, 26.254 ], [ 88.167, 26.252 ], [ 88.178, 26.261 ], [ 88.192, 26.259 ], [ 88.202, 26.268 ], [ 88.216, 26.266 ], [ 88.226, 26.275 ], [ 88.222, 26.287 ], [ 88.232, 26.297 ], [ 88.228, 26.309 ], [ 88.238, 26.318 ], [ 88.253, 26.316 ], [ 88.263, 26.325 ], [ 88.277, 26.323 ], [ 88.287, 26.332 ], [ 88.283, 26.344 ], [ 88.293, 26.354 ], [ 88.289, 26.366 ], [ 88.275, 26.368 ], [ 88.271, 26.381 ], [ 88.257, 26.383 ], [ 88.246, 26.374 ], [ 88.232, 26.376 ], [ 88.228, 26.388 ], [ 88.238, 26.398 ], [ 88.252, 26.395 ], [ 88.263, 26.405 ], [ 88.259, 26.417 ], [ 88.269, 26.426 ], [ 88.265, 26.438 ], [ 88.25, 26.441 ], [ 88.246, 26.453 ], [ 88.232, 26.455 ], [ 88.228, 26.467 ], [ 88.214, 26.47 ], [ 88.21, 26.482 ], [ 88.195, 26.485 ], [ 88.191, 26.497 ], [ 88.177, 26.499 ], [ 88.173, 26.511 ], [ 88.183, 26.521 ], [ 88.197, 26.518 ], [ 88.208, 26.528 ], [ 88.222, 26.525 ], [ 88.232, 26.535 ], [ 88.228, 26.547 ], [ 88.238, 26.556 ], [ 88.234, 26.568 ], [ 88.22, 26.571 ], [ 88.21, 26.561 ], [ 88.195, 26.564 ], [ 88.185, 26.554 ], [ 88.171, 26.557 ], [ 88.161, 26.547 ], [ 88.165, 26.535 ], [ 88.155, 26.526 ], [ 88.141, 26.528 ], [ 88.136, 26.54 ], [ 88.122, 26.543 ], [ 88.118, 26.555 ], [ 88.104, 26.557 ], [ 88.094, 26.548 ], [ 88.098, 26.536 ], [ 88.088, 26.526 ], [ 88.092, 26.514 ], [ 88.082, 26.505 ], [ 88.086, 26.493 ], [ 88.076, 26.483 ], [ 88.08, 26.471 ], [ 88.07, 26.462 ], [ 88.074, 26.45 ], [ 88.064, 26.44 ], [ 88.068, 26.428 ], [ 88.058, 26.419 ], [ 88.043, 26.421 ], [ 88.033, 26.412 ], [ 88.037, 26.399 ], [ 88.027, 26.39 ], [ 88.013, 26.392 ], [ 88.009, 26.405 ], [ 87.995, 26.407 ], [ 87.985, 26.397 ], [ 87.97, 26.4 ], [ 87.966, 26.412 ], [ 87.952, 26.415 ], [ 87.948, 26.427 ], [ 87.934, 26.429 ], [ 87.93, 26.441 ], [ 87.94, 26.451 ], [ 87.936, 26.463 ] ] ], [ [ [ 84.171, 24.524 ], [ 84.161, 24.514 ], [ 84.165, 24.502 ], [ 84.179, 24.5 ], [ 84.189, 24.51 ], [ 84.185, 24.522 ], [ 84.171, 24.524 ] ] ] ] } }
]
}
