{
"type": "FeatureCollection",
"name": "Chandigarh",
"crs": { "type": "name", "properties": { "name": "urn:ogc:def:crs:OGC:1.3:CRS84" } },
"features": [
{ "type": "Feature", "properties": { "POLYGON.ID": 4.0, "subregion": "India--Chandigarh_CL25583", "FILTER": "Chandigarh", "POLYGON": "India--Chandigarh_CL25583", "STATE": "Chandigarh", "COUNTY": "Chandigarh", "OWNER": null }, "geometry": { "type": "MultiPolygon", "coordinates": [ [ [ [ 76.885, 30.657 ], [ 76.879, 30.669 ], [ 76.888, 30.679 ], [ 76.882, 30.691 ], [ 76.891, 30.701 ], [ 76.885, 30.713 ], [ 76.87, 30.714 ], [ 76.864, 30.726 ], [ 76.848, 30.727 ], [ 76.842, 30.739 ], [ 76.827, 30.74 ], [ 76.82, 30.752 ], [ 76.805, 30.753 ], [ 76.799, 30.765 ], [ 76.808, 30.776 ], [ 76.802, 30.788 ], [ 76.787, 30.789 ], [ 76.78, 30.801 ], [ 76.765, 30.802 ], [ 76.756, 30.791 ], [ 76.762, 30.78 ], [ 76.752, 30.769 ], [ 76.737, 30.77 ], [ 76.728, 30.76 ], [ 76.712, 30.761 ], [ 76.703, 30.751 ], [ 76.709, 30.739 ], [ 76.725, 30.738 ], [ 76.731, 30.726 ], [ 76.721, 30.715 ], [ 76.728, 30.704 ], [ 76.743, 30.702 ], [ 76.749, 30.691 ], [ 76.765, 30.689 ], [ 76.771, 30.678 ], [ 76.786, 30.676 ], [ 76.792, 30.664 ], [ 76.808, 30.663 ], [ 76.817, 30.674 ], [ 76.833, 30.672 ], [ 76.839, 30.661 ], [ 76.854, 30.659 ], [ 76.86, 30.648 ], [ 76.876, 30.646 ], [ 76.885, 30.657 ] ] ] ] } }
]
}
