{
"type": "FeatureCollection",
"name": "Dadra_and_Nagar_Haveli",
"crs": { "type": "name", "properties": { "name": "urn:ogc:def:crs:OGC:1.3:CRS84" } },
"features": [
{ "type": "Feature", "properties": { "POLYGON.ID": 295.0, "subregion": "IN-DN--pelagic", "POLYGON": "IN-DN--pelagic", "SHOW": "1", "FILTER": "Not-Assigned", "FILTER.ID": null, "OLD.POLYGON": null, "STATE": "Dadra and Nagar Haveli", "COUNTY": "spl_region", "OWNER": null }, "geometry": { "type": "MultiPolygon", "coordinates": [ [ [ [ 72.283, 19.255 ], [ 72.291, 19.265 ], [ 72.303, 19.263 ], [ 72.311, 19.273 ], [ 72.323, 19.272 ], [ 72.331, 19.281 ], [ 72.343, 19.28 ], [ 72.351, 19.29 ], [ 72.363, 19.288 ], [ 72.371, 19.298 ], [ 72.383, 19.296 ], [ 72.391, 19.306 ], [ 72.403, 19.305 ], [ 72.411, 19.315 ], [ 72.423, 19.313 ], [ 72.431, 19.323 ], [ 72.444, 19.321 ], [ 72.452, 19.331 ], [ 72.464, 19.33 ], [ 72.472, 19.34 ], [ 72.484, 19.338 ], [ 72.492, 19.348 ], [ 72.504, 19.346 ], [ 72.508, 19.335 ], [ 72.52, 19.333 ], [ 72.528, 19.343 ], [ 72.54, 19.341 ], [ 72.548, 19.351 ], [ 72.56, 19.35 ], [ 72.568, 19.36 ], [ 72.581, 19.358 ], [ 72.589, 19.368 ], [ 72.585, 19.38 ], [ 72.573, 19.381 ], [ 72.568, 19.393 ], [ 72.556, 19.394 ], [ 72.552, 19.406 ], [ 72.56, 19.416 ], [ 72.556, 19.428 ], [ 72.564, 19.437 ], [ 72.56, 19.449 ], [ 72.548, 19.451 ], [ 72.544, 19.462 ], [ 72.552, 19.472 ], [ 72.548, 19.484 ], [ 72.536, 19.485 ], [ 72.528, 19.475 ], [ 72.516, 19.477 ], [ 72.508, 19.467 ], [ 72.496, 19.469 ], [ 72.488, 19.459 ], [ 72.476, 19.46 ], [ 72.472, 19.472 ], [ 72.46, 19.474 ], [ 72.452, 19.464 ], [ 72.439, 19.465 ], [ 72.431, 19.455 ], [ 72.419, 19.457 ], [ 72.415, 19.468 ], [ 72.403, 19.47 ], [ 72.395, 19.46 ], [ 72.383, 19.462 ], [ 72.375, 19.452 ], [ 72.363, 19.453 ], [ 72.355, 19.443 ], [ 72.343, 19.445 ], [ 72.339, 19.457 ], [ 72.327, 19.458 ], [ 72.319, 19.448 ], [ 72.307, 19.45 ], [ 72.299, 19.44 ], [ 72.287, 19.442 ], [ 72.279, 19.432 ], [ 72.266, 19.433 ], [ 72.262, 19.445 ], [ 72.25, 19.446 ], [ 72.242, 19.436 ], [ 72.23, 19.438 ], [ 72.222, 19.428 ], [ 72.21, 19.43 ], [ 72.202, 19.42 ], [ 72.19, 19.421 ], [ 72.186, 19.433 ], [ 72.174, 19.434 ], [ 72.166, 19.425 ], [ 72.154, 19.426 ], [ 72.146, 19.416 ], [ 72.134, 19.418 ], [ 72.13, 19.429 ], [ 72.118, 19.431 ], [ 72.11, 19.421 ], [ 72.098, 19.423 ], [ 72.09, 19.413 ], [ 72.078, 19.414 ], [ 72.07, 19.404 ], [ 72.058, 19.406 ], [ 72.054, 19.417 ], [ 72.042, 19.419 ], [ 72.034, 19.409 ], [ 72.022, 19.411 ], [ 72.014, 19.401 ], [ 72.002, 19.402 ], [ 71.994, 19.392 ], [ 71.982, 19.394 ], [ 71.978, 19.405 ], [ 71.966, 19.407 ], [ 71.958, 19.397 ], [ 71.946, 19.399 ], [ 71.938, 19.389 ], [ 71.926, 19.39 ], [ 71.918, 19.38 ], [ 71.906, 19.382 ], [ 71.902, 19.394 ], [ 71.89, 19.395 ], [ 71.882, 19.385 ], [ 71.87, 19.387 ], [ 71.862, 19.377 ], [ 71.85, 19.378 ], [ 71.846, 19.39 ], [ 71.834, 19.392 ], [ 71.826, 19.382 ], [ 71.814, 19.383 ], [ 71.806, 19.373 ], [ 71.794, 19.375 ], [ 71.786, 19.365 ], [ 71.774, 19.366 ], [ 71.77, 19.378 ], [ 71.758, 19.38 ], [ 71.75, 19.37 ], [ 71.738, 19.371 ], [ 71.73, 19.361 ], [ 71.718, 19.363 ], [ 71.714, 19.374 ], [ 71.702, 19.376 ], [ 71.694, 19.366 ], [ 71.682, 19.368 ], [ 71.675, 19.358 ], [ 71.663, 19.359 ], [ 71.655, 19.349 ], [ 71.643, 19.351 ], [ 71.639, 19.362 ], [ 71.627, 19.364 ], [ 71.619, 19.354 ], [ 71.607, 19.355 ], [ 71.599, 19.346 ], [ 71.587, 19.347 ], [ 71.579, 19.337 ], [ 71.567, 19.339 ], [ 71.563, 19.35 ], [ 71.551, 19.352 ], [ 71.543, 19.342 ], [ 71.531, 19.343 ], [ 71.523, 19.334 ], [ 71.512, 19.335 ], [ 71.504, 19.325 ], [ 71.492, 19.327 ], [ 71.488, 19.338 ], [ 71.476, 19.34 ], [ 71.468, 19.33 ], [ 71.456, 19.331 ], [ 71.448, 19.321 ], [ 71.436, 19.323 ], [ 71.432, 19.334 ], [ 71.42, 19.336 ], [ 71.412, 19.326 ], [ 71.4, 19.328 ], [ 71.393, 19.318 ], [ 71.381, 19.319 ], [ 71.377, 19.331 ], [ 71.365, 19.332 ], [ 71.357, 19.322 ], [ 71.345, 19.324 ], [ 71.337, 19.314 ], [ 71.341, 19.303 ], [ 71.333, 19.293 ], [ 71.321, 19.294 ], [ 71.313, 19.284 ], [ 71.317, 19.273 ], [ 71.31, 19.263 ], [ 71.298, 19.264 ], [ 71.29, 19.255 ], [ 71.294, 19.243 ], [ 71.286, 19.233 ], [ 71.274, 19.235 ], [ 71.266, 19.225 ], [ 71.27, 19.213 ], [ 71.262, 19.203 ], [ 71.266, 19.192 ], [ 71.259, 19.182 ], [ 71.247, 19.184 ], [ 71.239, 19.174 ], [ 71.243, 19.162 ], [ 71.235, 19.152 ], [ 71.223, 19.154 ], [ 71.215, 19.144 ], [ 71.219, 19.133 ], [ 71.211, 19.123 ], [ 71.215, 19.111 ], [ 71.208, 19.101 ], [ 71.196, 19.103 ], [ 71.188, 19.093 ], [ 71.192, 19.082 ], [ 71.184, 19.072 ], [ 71.172, 19.073 ], [ 71.164, 19.063 ], [ 71.168, 19.052 ], [ 71.18, 19.05 ], [ 71.184, 19.039 ], [ 71.196, 19.037 ], [ 71.204, 19.047 ], [ 71.216, 19.046 ], [ 71.224, 19.056 ], [ 71.235, 19.054 ], [ 71.243, 19.064 ], [ 71.255, 19.062 ], [ 71.259, 19.051 ], [ 71.271, 19.049 ], [ 71.279, 19.059 ], [ 71.291, 19.058 ], [ 71.299, 19.068 ], [ 71.31, 19.066 ], [ 71.318, 19.076 ], [ 71.33, 19.074 ], [ 71.334, 19.063 ], [ 71.346, 19.061 ], [ 71.354, 19.071 ], [ 71.366, 19.07 ], [ 71.374, 19.079 ], [ 71.386, 19.078 ], [ 71.394, 19.088 ], [ 71.405, 19.086 ], [ 71.409, 19.075 ], [ 71.421, 19.073 ], [ 71.429, 19.083 ], [ 71.441, 19.082 ], [ 71.449, 19.091 ], [ 71.461, 19.09 ], [ 71.469, 19.1 ], [ 71.481, 19.098 ], [ 71.485, 19.087 ], [ 71.497, 19.085 ], [ 71.505, 19.095 ], [ 71.516, 19.093 ], [ 71.524, 19.103 ], [ 71.536, 19.102 ], [ 71.544, 19.112 ], [ 71.556, 19.11 ], [ 71.564, 19.12 ], [ 71.576, 19.118 ], [ 71.58, 19.107 ], [ 71.592, 19.105 ], [ 71.6, 19.115 ], [ 71.612, 19.114 ], [ 71.62, 19.124 ], [ 71.632, 19.122 ], [ 71.639, 19.132 ], [ 71.651, 19.13 ], [ 71.659, 19.14 ], [ 71.671, 19.139 ], [ 71.675, 19.127 ], [ 71.687, 19.126 ], [ 71.695, 19.136 ], [ 71.707, 19.134 ], [ 71.715, 19.144 ], [ 71.727, 19.142 ], [ 71.735, 19.152 ], [ 71.747, 19.151 ], [ 71.751, 19.139 ], [ 71.763, 19.138 ], [ 71.771, 19.147 ], [ 71.783, 19.146 ], [ 71.791, 19.156 ], [ 71.803, 19.154 ], [ 71.811, 19.164 ], [ 71.823, 19.163 ], [ 71.831, 19.172 ], [ 71.843, 19.171 ], [ 71.847, 19.159 ], [ 71.859, 19.158 ], [ 71.866, 19.168 ], [ 71.878, 19.166 ], [ 71.886, 19.176 ], [ 71.898, 19.174 ], [ 71.906, 19.184 ], [ 71.918, 19.183 ], [ 71.926, 19.193 ], [ 71.938, 19.191 ], [ 71.942, 19.179 ], [ 71.954, 19.178 ], [ 71.962, 19.188 ], [ 71.974, 19.186 ], [ 71.982, 19.196 ], [ 71.994, 19.195 ], [ 72.002, 19.204 ], [ 72.014, 19.203 ], [ 72.022, 19.213 ], [ 72.034, 19.211 ], [ 72.038, 19.2 ], [ 72.05, 19.198 ], [ 72.058, 19.208 ], [ 72.07, 19.206 ], [ 72.078, 19.216 ], [ 72.09, 19.215 ], [ 72.098, 19.225 ], [ 72.11, 19.223 ], [ 72.114, 19.211 ], [ 72.126, 19.21 ], [ 72.134, 19.22 ], [ 72.146, 19.218 ], [ 72.154, 19.228 ], [ 72.166, 19.226 ], [ 72.174, 19.236 ], [ 72.186, 19.235 ], [ 72.194, 19.245 ], [ 72.206, 19.243 ], [ 72.214, 19.253 ], [ 72.227, 19.251 ], [ 72.235, 19.261 ], [ 72.247, 19.26 ], [ 72.255, 19.27 ], [ 72.267, 19.268 ], [ 72.271, 19.257 ], [ 72.283, 19.255 ] ] ] ] } }
]
}
