{
"type": "FeatureCollection",
"name": "Daman_and_Diu",
"crs": { "type": "name", "properties": { "name": "urn:ogc:def:crs:OGC:1.3:CRS84" } },
"features": [
{ "type": "Feature", "properties": { "POLYGON.ID": 306.0, "subregion": "IN-DD--pelagic", "POLYGON": "IN-DD--pelagic", "SHOW": "1", "FILTER": "Not-Assigned", "FILTER.ID": null, "OLD.POLYGON": null, "STATE": "Daman and Diu", "COUNTY": "spl_region", "OWNER": null }, "geometry": { "type": "MultiPolygon", "coordinates": [ [ [ [ 71.391, 19.678 ], [ 71.387, 19.69 ], [ 71.375, 19.691 ], [ 71.371, 19.703 ], [ 71.379, 19.713 ], [ 71.375, 19.724 ], [ 71.363, 19.726 ], [ 71.359, 19.737 ], [ 71.367, 19.747 ], [ 71.363, 19.758 ], [ 71.351, 19.76 ], [ 71.347, 19.771 ], [ 71.355, 19.781 ], [ 71.351, 19.793 ], [ 71.339, 19.794 ], [ 71.335, 19.806 ], [ 71.343, 19.815 ], [ 71.339, 19.827 ], [ 71.327, 19.828 ], [ 71.323, 19.84 ], [ 71.331, 19.85 ], [ 71.327, 19.861 ], [ 71.315, 19.863 ], [ 71.311, 19.874 ], [ 71.319, 19.884 ], [ 71.315, 19.895 ], [ 71.303, 19.897 ], [ 71.299, 19.908 ], [ 71.307, 19.918 ], [ 71.303, 19.929 ], [ 71.291, 19.931 ], [ 71.287, 19.942 ], [ 71.295, 19.952 ], [ 71.291, 19.964 ], [ 71.279, 19.965 ], [ 71.275, 19.976 ], [ 71.283, 19.986 ], [ 71.279, 19.998 ], [ 71.267, 19.999 ], [ 71.264, 20.007 ], [ 71.262, 20.01 ], [ 71.269, 20.02 ], [ 71.263, 20.03 ], [ 71.27, 20.039 ], [ 71.264, 20.049 ], [ 71.251, 20.05 ], [ 71.245, 20.06 ], [ 71.252, 20.069 ], [ 71.246, 20.079 ], [ 71.253, 20.089 ], [ 71.247, 20.099 ], [ 71.234, 20.099 ], [ 71.227, 20.109 ], [ 71.235, 20.119 ], [ 71.229, 20.129 ], [ 71.236, 20.138 ], [ 71.23, 20.148 ], [ 71.216, 20.149 ], [ 71.21, 20.159 ], [ 71.217, 20.168 ], [ 71.211, 20.178 ], [ 71.218, 20.188 ], [ 71.212, 20.198 ], [ 71.199, 20.198 ], [ 71.193, 20.208 ], [ 71.2, 20.218 ], [ 71.194, 20.228 ], [ 71.201, 20.237 ], [ 71.195, 20.247 ], [ 71.182, 20.248 ], [ 71.175, 20.258 ], [ 71.183, 20.267 ], [ 71.177, 20.277 ], [ 71.184, 20.287 ], [ 71.178, 20.297 ], [ 71.164, 20.297 ], [ 71.158, 20.308 ], [ 71.165, 20.317 ], [ 71.159, 20.327 ], [ 71.166, 20.337 ], [ 71.16, 20.347 ], [ 71.147, 20.347 ], [ 71.141, 20.357 ], [ 71.148, 20.367 ], [ 71.142, 20.377 ], [ 71.149, 20.386 ], [ 71.143, 20.396 ], [ 71.129, 20.397 ], [ 71.123, 20.407 ], [ 71.13, 20.416 ], [ 71.124, 20.427 ], [ 71.132, 20.436 ], [ 71.125, 20.446 ], [ 71.112, 20.447 ], [ 71.106, 20.457 ], [ 71.113, 20.466 ], [ 71.107, 20.476 ], [ 71.114, 20.486 ], [ 71.108, 20.496 ], [ 71.095, 20.496 ], [ 71.088, 20.507 ], [ 71.096, 20.516 ], [ 71.089, 20.526 ], [ 71.097, 20.536 ], [ 71.09, 20.546 ], [ 71.098, 20.555 ], [ 71.091, 20.565 ], [ 71.078, 20.566 ], [ 71.072, 20.576 ], [ 71.058, 20.577 ], [ 71.051, 20.567 ], [ 71.057, 20.557 ], [ 71.05, 20.547 ], [ 71.037, 20.548 ], [ 71.03, 20.538 ], [ 71.016, 20.539 ], [ 71.009, 20.529 ], [ 70.996, 20.53 ], [ 70.989, 20.54 ], [ 70.976, 20.541 ], [ 70.969, 20.531 ], [ 70.955, 20.532 ], [ 70.949, 20.542 ], [ 70.936, 20.542 ], [ 70.93, 20.552 ], [ 70.916, 20.553 ], [ 70.909, 20.543 ], [ 70.896, 20.544 ], [ 70.888, 20.534 ], [ 70.895, 20.524 ], [ 70.887, 20.515 ], [ 70.894, 20.504 ], [ 70.907, 20.504 ], [ 70.913, 20.494 ], [ 70.906, 20.484 ], [ 70.912, 20.474 ], [ 70.905, 20.465 ], [ 70.911, 20.455 ], [ 70.904, 20.445 ], [ 70.91, 20.435 ], [ 70.903, 20.426 ], [ 70.909, 20.415 ], [ 70.923, 20.415 ], [ 70.929, 20.405 ], [ 70.922, 20.395 ], [ 70.928, 20.385 ], [ 70.921, 20.376 ], [ 70.927, 20.366 ], [ 70.92, 20.356 ], [ 70.926, 20.346 ], [ 70.919, 20.337 ], [ 70.925, 20.327 ], [ 70.918, 20.317 ], [ 70.924, 20.307 ], [ 70.937, 20.307 ], [ 70.943, 20.297 ], [ 70.936, 20.287 ], [ 70.942, 20.277 ], [ 70.935, 20.267 ], [ 70.941, 20.257 ], [ 70.934, 20.248 ], [ 70.94, 20.238 ], [ 70.933, 20.228 ], [ 70.939, 20.218 ], [ 70.932, 20.209 ], [ 70.938, 20.199 ], [ 70.952, 20.198 ], [ 70.958, 20.188 ], [ 70.951, 20.179 ], [ 70.957, 20.169 ], [ 70.95, 20.159 ], [ 70.956, 20.149 ], [ 70.949, 20.14 ], [ 70.955, 20.13 ], [ 70.948, 20.12 ], [ 70.954, 20.11 ], [ 70.947, 20.101 ], [ 70.953, 20.091 ], [ 70.966, 20.09 ], [ 70.972, 20.08 ], [ 70.965, 20.071 ], [ 70.971, 20.061 ], [ 70.964, 20.051 ], [ 70.97, 20.041 ], [ 70.963, 20.032 ], [ 70.969, 20.022 ], [ 70.962, 20.013 ], [ 70.968, 20.003 ], [ 70.961, 19.993 ], [ 70.967, 19.983 ], [ 70.981, 19.983 ], [ 70.987, 19.973 ], [ 70.98, 19.963 ], [ 70.986, 19.953 ], [ 70.979, 19.944 ], [ 70.985, 19.934 ], [ 70.978, 19.924 ], [ 70.984, 19.914 ], [ 70.977, 19.905 ], [ 70.983, 19.895 ], [ 70.976, 19.885 ], [ 70.982, 19.875 ], [ 70.995, 19.875 ], [ 71.001, 19.865 ], [ 70.994, 19.856 ], [ 71.0, 19.846 ], [ 70.993, 19.836 ], [ 70.997, 19.83 ], [ 70.998, 19.826 ], [ 70.991, 19.816 ], [ 70.995, 19.804 ], [ 70.987, 19.795 ], [ 70.991, 19.783 ], [ 71.003, 19.782 ], [ 71.007, 19.77 ], [ 70.999, 19.76 ], [ 71.003, 19.749 ], [ 70.995, 19.739 ], [ 70.999, 19.728 ], [ 71.011, 19.726 ], [ 71.015, 19.715 ], [ 71.007, 19.705 ], [ 71.011, 19.694 ], [ 71.003, 19.684 ], [ 71.007, 19.672 ], [ 70.999, 19.662 ], [ 71.003, 19.651 ], [ 71.015, 19.65 ], [ 71.019, 19.638 ], [ 71.011, 19.628 ], [ 71.015, 19.617 ], [ 71.007, 19.607 ], [ 71.012, 19.596 ], [ 71.023, 19.594 ], [ 71.027, 19.583 ], [ 71.02, 19.573 ], [ 71.024, 19.561 ], [ 71.016, 19.552 ], [ 71.02, 19.54 ], [ 71.012, 19.53 ], [ 71.016, 19.519 ], [ 71.028, 19.517 ], [ 71.032, 19.506 ], [ 71.024, 19.496 ], [ 71.028, 19.485 ], [ 71.02, 19.475 ], [ 71.024, 19.463 ], [ 71.036, 19.462 ], [ 71.04, 19.45 ], [ 71.032, 19.441 ], [ 71.036, 19.429 ], [ 71.028, 19.419 ], [ 71.032, 19.408 ], [ 71.044, 19.406 ], [ 71.048, 19.395 ], [ 71.04, 19.385 ], [ 71.044, 19.374 ], [ 71.036, 19.364 ], [ 71.04, 19.352 ], [ 71.033, 19.342 ], [ 71.037, 19.331 ], [ 71.048, 19.329 ], [ 71.052, 19.318 ], [ 71.045, 19.308 ], [ 71.049, 19.297 ], [ 71.041, 19.287 ], [ 71.045, 19.275 ], [ 71.057, 19.274 ], [ 71.061, 19.262 ], [ 71.053, 19.253 ], [ 71.057, 19.241 ], [ 71.049, 19.231 ], [ 71.053, 19.22 ], [ 71.045, 19.21 ], [ 71.049, 19.198 ], [ 71.061, 19.197 ], [ 71.065, 19.185 ], [ 71.057, 19.176 ], [ 71.061, 19.164 ], [ 71.053, 19.154 ], [ 71.057, 19.143 ], [ 71.069, 19.141 ], [ 71.073, 19.13 ], [ 71.065, 19.12 ], [ 71.069, 19.108 ], [ 71.062, 19.099 ], [ 71.066, 19.087 ], [ 71.058, 19.077 ], [ 71.062, 19.066 ], [ 71.074, 19.064 ], [ 71.078, 19.053 ], [ 71.07, 19.043 ], [ 71.074, 19.031 ], [ 71.066, 19.022 ], [ 71.07, 19.01 ], [ 71.082, 19.009 ], [ 71.086, 18.997 ], [ 71.078, 18.987 ], [ 71.082, 18.976 ], [ 71.074, 18.966 ], [ 71.078, 18.954 ], [ 71.09, 18.953 ], [ 71.098, 18.963 ], [ 71.094, 18.974 ], [ 71.102, 18.984 ], [ 71.113, 18.983 ], [ 71.121, 18.992 ], [ 71.117, 19.004 ], [ 71.125, 19.014 ], [ 71.137, 19.012 ], [ 71.145, 19.022 ], [ 71.141, 19.034 ], [ 71.149, 19.044 ], [ 71.16, 19.042 ], [ 71.168, 19.052 ], [ 71.164, 19.063 ], [ 71.172, 19.073 ], [ 71.184, 19.072 ], [ 71.192, 19.082 ], [ 71.188, 19.093 ], [ 71.196, 19.103 ], [ 71.208, 19.101 ], [ 71.215, 19.111 ], [ 71.211, 19.123 ], [ 71.219, 19.133 ], [ 71.215, 19.144 ], [ 71.223, 19.154 ], [ 71.235, 19.152 ], [ 71.243, 19.162 ], [ 71.239, 19.174 ], [ 71.247, 19.184 ], [ 71.259, 19.182 ], [ 71.266, 19.192 ], [ 71.262, 19.203 ], [ 71.27, 19.213 ], [ 71.266, 19.225 ], [ 71.274, 19.235 ], [ 71.286, 19.233 ], [ 71.294, 19.243 ], [ 71.29, 19.255 ], [ 71.298, 19.264 ], [ 71.31, 19.263 ], [ 71.317, 19.273 ], [ 71.313, 19.284 ], [ 71.321, 19.294 ], [ 71.333, 19.293 ], [ 71.341, 19.303 ], [ 71.337, 19.314 ], [ 71.345, 19.324 ], [ 71.357, 19.322 ], [ 71.365, 19.332 ], [ 71.361, 19.344 ], [ 71.369, 19.354 ], [ 71.365, 19.365 ], [ 71.373, 19.375 ], [ 71.384, 19.373 ], [ 71.392, 19.383 ], [ 71.388, 19.395 ], [ 71.396, 19.405 ], [ 71.408, 19.403 ], [ 71.416, 19.413 ], [ 71.412, 19.425 ], [ 71.42, 19.434 ], [ 71.416, 19.446 ], [ 71.424, 19.456 ], [ 71.42, 19.467 ], [ 71.428, 19.477 ], [ 71.44, 19.476 ], [ 71.447, 19.486 ], [ 71.443, 19.497 ], [ 71.451, 19.507 ], [ 71.447, 19.518 ], [ 71.435, 19.52 ], [ 71.431, 19.531 ], [ 71.439, 19.541 ], [ 71.435, 19.553 ], [ 71.423, 19.554 ], [ 71.419, 19.566 ], [ 71.407, 19.567 ], [ 71.403, 19.579 ], [ 71.411, 19.589 ], [ 71.407, 19.6 ], [ 71.415, 19.61 ], [ 71.411, 19.621 ], [ 71.399, 19.623 ], [ 71.395, 19.634 ], [ 71.403, 19.644 ], [ 71.399, 19.656 ], [ 71.387, 19.657 ], [ 71.383, 19.669 ], [ 71.391, 19.678 ] ] ], [ [ [ 71.247, 20.461 ], [ 71.253, 20.451 ], [ 71.246, 20.441 ], [ 71.252, 20.431 ], [ 71.245, 20.422 ], [ 71.251, 20.412 ], [ 71.244, 20.402 ], [ 71.25, 20.392 ], [ 71.263, 20.391 ], [ 71.269, 20.381 ], [ 71.262, 20.372 ], [ 71.268, 20.362 ], [ 71.261, 20.352 ], [ 71.267, 20.342 ], [ 71.281, 20.342 ], [ 71.287, 20.332 ], [ 71.279, 20.322 ], [ 71.286, 20.312 ], [ 71.278, 20.303 ], [ 71.284, 20.293 ], [ 71.277, 20.283 ], [ 71.283, 20.273 ], [ 71.297, 20.272 ], [ 71.303, 20.262 ], [ 71.296, 20.253 ], [ 71.302, 20.243 ], [ 71.295, 20.233 ], [ 71.301, 20.223 ], [ 71.314, 20.223 ], [ 71.32, 20.213 ], [ 71.313, 20.203 ], [ 71.319, 20.193 ], [ 71.312, 20.184 ], [ 71.318, 20.174 ], [ 71.331, 20.173 ], [ 71.337, 20.163 ], [ 71.33, 20.154 ], [ 71.336, 20.144 ], [ 71.329, 20.134 ], [ 71.335, 20.124 ], [ 71.328, 20.115 ], [ 71.334, 20.105 ], [ 71.347, 20.104 ], [ 71.353, 20.094 ], [ 71.346, 20.085 ], [ 71.352, 20.075 ], [ 71.345, 20.065 ], [ 71.347, 20.062 ], [ 71.35, 20.054 ], [ 71.362, 20.053 ], [ 71.366, 20.041 ], [ 71.358, 20.032 ], [ 71.362, 20.02 ], [ 71.374, 20.019 ], [ 71.378, 20.007 ], [ 71.37, 19.997 ], [ 71.374, 19.986 ], [ 71.386, 19.984 ], [ 71.39, 19.973 ], [ 71.382, 19.963 ], [ 71.386, 19.952 ], [ 71.398, 19.95 ], [ 71.402, 19.939 ], [ 71.394, 19.929 ], [ 71.398, 19.918 ], [ 71.39, 19.908 ], [ 71.394, 19.896 ], [ 71.406, 19.895 ], [ 71.41, 19.883 ], [ 71.402, 19.873 ], [ 71.406, 19.862 ], [ 71.418, 19.861 ], [ 71.422, 19.849 ], [ 71.414, 19.839 ], [ 71.418, 19.828 ], [ 71.43, 19.826 ], [ 71.434, 19.815 ], [ 71.426, 19.805 ], [ 71.43, 19.794 ], [ 71.442, 19.792 ], [ 71.446, 19.781 ], [ 71.438, 19.771 ], [ 71.442, 19.759 ], [ 71.454, 19.758 ], [ 71.458, 19.746 ], [ 71.45, 19.736 ], [ 71.454, 19.725 ], [ 71.447, 19.715 ], [ 71.451, 19.704 ], [ 71.462, 19.702 ], [ 71.467, 19.691 ], [ 71.459, 19.681 ], [ 71.463, 19.669 ], [ 71.475, 19.668 ], [ 71.479, 19.656 ], [ 71.471, 19.647 ], [ 71.475, 19.635 ], [ 71.487, 19.634 ], [ 71.491, 19.622 ], [ 71.483, 19.612 ], [ 71.487, 19.601 ], [ 71.499, 19.599 ], [ 71.507, 19.609 ], [ 71.503, 19.621 ], [ 71.51, 19.631 ], [ 71.522, 19.629 ], [ 71.53, 19.639 ], [ 71.526, 19.65 ], [ 71.534, 19.66 ], [ 71.53, 19.672 ], [ 71.538, 19.682 ], [ 71.55, 19.68 ], [ 71.558, 19.69 ], [ 71.554, 19.701 ], [ 71.562, 19.711 ], [ 71.574, 19.71 ], [ 71.582, 19.72 ], [ 71.578, 19.731 ], [ 71.586, 19.741 ], [ 71.582, 19.753 ], [ 71.59, 19.762 ], [ 71.602, 19.761 ], [ 71.609, 19.771 ], [ 71.605, 19.782 ], [ 71.613, 19.792 ], [ 71.609, 19.804 ], [ 71.617, 19.814 ], [ 71.629, 19.812 ], [ 71.637, 19.822 ], [ 71.633, 19.833 ], [ 71.641, 19.843 ], [ 71.637, 19.855 ], [ 71.645, 19.865 ], [ 71.657, 19.863 ], [ 71.665, 19.873 ], [ 71.661, 19.885 ], [ 71.649, 19.886 ], [ 71.645, 19.898 ], [ 71.653, 19.907 ], [ 71.649, 19.919 ], [ 71.637, 19.92 ], [ 71.633, 19.932 ], [ 71.641, 19.942 ], [ 71.637, 19.953 ], [ 71.625, 19.955 ], [ 71.621, 19.966 ], [ 71.609, 19.968 ], [ 71.605, 19.979 ], [ 71.613, 19.989 ], [ 71.609, 20.0 ], [ 71.597, 20.002 ], [ 71.593, 20.013 ], [ 71.601, 20.023 ], [ 71.597, 20.035 ], [ 71.585, 20.036 ], [ 71.581, 20.047 ], [ 71.589, 20.057 ], [ 71.585, 20.069 ], [ 71.573, 20.07 ], [ 71.569, 20.082 ], [ 71.576, 20.092 ], [ 71.572, 20.103 ], [ 71.561, 20.105 ], [ 71.556, 20.116 ], [ 71.545, 20.117 ], [ 71.54, 20.129 ], [ 71.548, 20.139 ], [ 71.544, 20.15 ], [ 71.532, 20.152 ], [ 71.528, 20.163 ], [ 71.536, 20.173 ], [ 71.532, 20.184 ], [ 71.519, 20.185 ], [ 71.513, 20.195 ], [ 71.52, 20.204 ], [ 71.514, 20.214 ], [ 71.501, 20.215 ], [ 71.495, 20.225 ], [ 71.502, 20.234 ], [ 71.496, 20.245 ], [ 71.482, 20.245 ], [ 71.476, 20.255 ], [ 71.484, 20.265 ], [ 71.478, 20.275 ], [ 71.464, 20.275 ], [ 71.458, 20.285 ], [ 71.465, 20.295 ], [ 71.459, 20.305 ], [ 71.446, 20.305 ], [ 71.44, 20.315 ], [ 71.447, 20.325 ], [ 71.441, 20.335 ], [ 71.428, 20.336 ], [ 71.421, 20.346 ], [ 71.429, 20.355 ], [ 71.423, 20.365 ], [ 71.409, 20.366 ], [ 71.403, 20.376 ], [ 71.41, 20.385 ], [ 71.404, 20.395 ], [ 71.391, 20.396 ], [ 71.385, 20.406 ], [ 71.392, 20.416 ], [ 71.386, 20.426 ], [ 71.372, 20.426 ], [ 71.366, 20.436 ], [ 71.374, 20.446 ], [ 71.367, 20.456 ], [ 71.354, 20.456 ], [ 71.348, 20.466 ], [ 71.355, 20.476 ], [ 71.349, 20.486 ], [ 71.336, 20.487 ], [ 71.33, 20.497 ], [ 71.337, 20.506 ], [ 71.331, 20.516 ], [ 71.317, 20.517 ], [ 71.311, 20.527 ], [ 71.318, 20.536 ], [ 71.312, 20.547 ], [ 71.319, 20.556 ], [ 71.313, 20.566 ], [ 71.3, 20.567 ], [ 71.294, 20.577 ], [ 71.28, 20.577 ], [ 71.274, 20.587 ], [ 71.281, 20.597 ], [ 71.275, 20.607 ], [ 71.262, 20.608 ], [ 71.256, 20.618 ], [ 71.263, 20.627 ], [ 71.257, 20.637 ], [ 71.243, 20.638 ], [ 71.236, 20.628 ], [ 71.223, 20.629 ], [ 71.215, 20.619 ], [ 71.202, 20.62 ], [ 71.195, 20.61 ], [ 71.201, 20.6 ], [ 71.194, 20.591 ], [ 71.2, 20.581 ], [ 71.213, 20.58 ], [ 71.219, 20.57 ], [ 71.212, 20.561 ], [ 71.218, 20.55 ], [ 71.211, 20.541 ], [ 71.217, 20.531 ], [ 71.21, 20.521 ], [ 71.216, 20.511 ], [ 71.23, 20.511 ], [ 71.236, 20.501 ], [ 71.228, 20.491 ], [ 71.235, 20.481 ], [ 71.227, 20.471 ], [ 71.234, 20.461 ], [ 71.247, 20.461 ] ] ], [ [ [ 72.556, 20.516 ], [ 72.564, 20.526 ], [ 72.577, 20.525 ], [ 72.581, 20.513 ], [ 72.593, 20.512 ], [ 72.597, 20.5 ], [ 72.609, 20.499 ], [ 72.613, 20.487 ], [ 72.625, 20.486 ], [ 72.629, 20.474 ], [ 72.641, 20.473 ], [ 72.645, 20.461 ], [ 72.658, 20.46 ], [ 72.666, 20.469 ], [ 72.662, 20.481 ], [ 72.67, 20.491 ], [ 72.666, 20.502 ], [ 72.674, 20.512 ], [ 72.686, 20.511 ], [ 72.694, 20.521 ], [ 72.69, 20.532 ], [ 72.698, 20.542 ], [ 72.71, 20.541 ], [ 72.719, 20.551 ], [ 72.714, 20.562 ], [ 72.723, 20.572 ], [ 72.719, 20.584 ], [ 72.706, 20.585 ], [ 72.698, 20.575 ], [ 72.686, 20.577 ], [ 72.682, 20.588 ], [ 72.67, 20.59 ], [ 72.666, 20.601 ], [ 72.654, 20.603 ], [ 72.645, 20.593 ], [ 72.633, 20.594 ], [ 72.629, 20.606 ], [ 72.617, 20.607 ], [ 72.609, 20.597 ], [ 72.597, 20.599 ], [ 72.593, 20.61 ], [ 72.581, 20.612 ], [ 72.573, 20.602 ], [ 72.56, 20.603 ], [ 72.556, 20.615 ], [ 72.544, 20.616 ], [ 72.536, 20.606 ], [ 72.524, 20.608 ], [ 72.52, 20.619 ], [ 72.508, 20.621 ], [ 72.5, 20.611 ], [ 72.487, 20.612 ], [ 72.483, 20.624 ], [ 72.471, 20.625 ], [ 72.463, 20.615 ], [ 72.451, 20.617 ], [ 72.443, 20.607 ], [ 72.431, 20.608 ], [ 72.427, 20.62 ], [ 72.415, 20.621 ], [ 72.407, 20.611 ], [ 72.411, 20.6 ], [ 72.423, 20.598 ], [ 72.427, 20.587 ], [ 72.439, 20.586 ], [ 72.443, 20.574 ], [ 72.455, 20.573 ], [ 72.459, 20.561 ], [ 72.471, 20.56 ], [ 72.479, 20.57 ], [ 72.492, 20.568 ], [ 72.496, 20.557 ], [ 72.508, 20.555 ], [ 72.512, 20.544 ], [ 72.524, 20.542 ], [ 72.528, 20.531 ], [ 72.54, 20.529 ], [ 72.544, 20.518 ], [ 72.556, 20.516 ] ] ] ] } }
]
}
