{
"type": "FeatureCollection",
"name": "Delhi",
"crs": { "type": "name", "properties": { "name": "urn:ogc:def:crs:OGC:1.3:CRS84" } },
"features": [
{ "type": "Feature", "properties": { "POLYGON.ID": 28.0, "subregion": "India--Delhi and surrounds_CL25586", "FILTER": "Delhi", "POLYGON": "India--Delhi and surrounds_CL25586", "STATE": "Delhi", "COUNTY": "spl_region", "OWNER": null }, "geometry": { "type": "MultiPolygon", "coordinates": [ [ [ [ 76.487, 29.182 ], [ 76.493, 29.17 ], [ 76.509, 29.169 ], [ 76.515, 29.157 ], [ 76.506, 29.147 ], [ 76.491, 29.148 ], [ 76.482, 29.138 ], [ 76.488, 29.126 ], [ 76.479, 29.116 ], [ 76.485, 29.104 ], [ 76.476, 29.094 ], [ 76.482, 29.082 ], [ 76.497, 29.081 ], [ 76.506, 29.092 ], [ 76.521, 29.09 ], [ 76.53, 29.101 ], [ 76.545, 29.1 ], [ 76.551, 29.088 ], [ 76.542, 29.078 ], [ 76.548, 29.066 ], [ 76.563, 29.065 ], [ 76.569, 29.053 ], [ 76.584, 29.052 ], [ 76.593, 29.062 ], [ 76.608, 29.061 ], [ 76.614, 29.05 ], [ 76.629, 29.048 ], [ 76.638, 29.059 ], [ 76.653, 29.058 ], [ 76.66, 29.046 ], [ 76.675, 29.045 ], [ 76.681, 29.033 ], [ 76.696, 29.032 ], [ 76.702, 29.02 ], [ 76.717, 29.019 ], [ 76.723, 29.008 ], [ 76.738, 29.007 ], [ 76.744, 28.995 ], [ 76.735, 28.985 ], [ 76.741, 28.973 ], [ 76.756, 28.972 ], [ 76.762, 28.96 ], [ 76.777, 28.959 ], [ 76.783, 28.948 ], [ 76.774, 28.937 ], [ 76.78, 28.926 ], [ 76.795, 28.924 ], [ 76.804, 28.935 ], [ 76.819, 28.934 ], [ 76.825, 28.922 ], [ 76.816, 28.912 ], [ 76.822, 28.9 ], [ 76.813, 28.89 ], [ 76.819, 28.878 ], [ 76.81, 28.868 ], [ 76.816, 28.856 ], [ 76.831, 28.855 ], [ 76.84, 28.866 ], [ 76.855, 28.864 ], [ 76.861, 28.853 ], [ 76.852, 28.842 ], [ 76.858, 28.831 ], [ 76.849, 28.821 ], [ 76.855, 28.809 ], [ 76.846, 28.799 ], [ 76.831, 28.8 ], [ 76.822, 28.79 ], [ 76.827, 28.778 ], [ 76.818, 28.768 ], [ 76.803, 28.769 ], [ 76.794, 28.759 ], [ 76.779, 28.76 ], [ 76.77, 28.75 ], [ 76.755, 28.751 ], [ 76.749, 28.763 ], [ 76.734, 28.764 ], [ 76.725, 28.753 ], [ 76.71, 28.755 ], [ 76.701, 28.744 ], [ 76.686, 28.746 ], [ 76.68, 28.757 ], [ 76.689, 28.767 ], [ 76.704, 28.766 ], [ 76.713, 28.776 ], [ 76.707, 28.788 ], [ 76.692, 28.789 ], [ 76.686, 28.801 ], [ 76.671, 28.802 ], [ 76.665, 28.813 ], [ 76.65, 28.815 ], [ 76.641, 28.804 ], [ 76.626, 28.806 ], [ 76.617, 28.795 ], [ 76.602, 28.796 ], [ 76.593, 28.786 ], [ 76.578, 28.787 ], [ 76.569, 28.777 ], [ 76.575, 28.766 ], [ 76.566, 28.755 ], [ 76.573, 28.744 ], [ 76.564, 28.733 ], [ 76.549, 28.735 ], [ 76.543, 28.746 ], [ 76.528, 28.747 ], [ 76.519, 28.737 ], [ 76.504, 28.738 ], [ 76.497, 28.75 ], [ 76.482, 28.751 ], [ 76.474, 28.741 ], [ 76.459, 28.742 ], [ 76.45, 28.731 ], [ 76.435, 28.733 ], [ 76.426, 28.722 ], [ 76.432, 28.711 ], [ 76.423, 28.7 ], [ 76.429, 28.689 ], [ 76.444, 28.688 ], [ 76.453, 28.698 ], [ 76.468, 28.697 ], [ 76.474, 28.685 ], [ 76.465, 28.675 ], [ 76.471, 28.664 ], [ 76.462, 28.653 ], [ 76.447, 28.654 ], [ 76.438, 28.644 ], [ 76.444, 28.633 ], [ 76.459, 28.631 ], [ 76.465, 28.62 ], [ 76.456, 28.61 ], [ 76.441, 28.611 ], [ 76.432, 28.601 ], [ 76.438, 28.589 ], [ 76.429, 28.579 ], [ 76.435, 28.567 ], [ 76.426, 28.557 ], [ 76.411, 28.558 ], [ 76.405, 28.57 ], [ 76.414, 28.58 ], [ 76.408, 28.591 ], [ 76.393, 28.593 ], [ 76.387, 28.604 ], [ 76.372, 28.605 ], [ 76.366, 28.617 ], [ 76.351, 28.618 ], [ 76.342, 28.608 ], [ 76.348, 28.596 ], [ 76.339, 28.586 ], [ 76.345, 28.574 ], [ 76.336, 28.564 ], [ 76.342, 28.553 ], [ 76.333, 28.542 ], [ 76.339, 28.531 ], [ 76.331, 28.52 ], [ 76.337, 28.509 ], [ 76.328, 28.499 ], [ 76.313, 28.5 ], [ 76.304, 28.49 ], [ 76.289, 28.491 ], [ 76.28, 28.48 ], [ 76.286, 28.469 ], [ 76.301, 28.468 ], [ 76.31, 28.478 ], [ 76.325, 28.477 ], [ 76.331, 28.465 ], [ 76.346, 28.464 ], [ 76.352, 28.453 ], [ 76.367, 28.452 ], [ 76.376, 28.462 ], [ 76.391, 28.461 ], [ 76.4, 28.471 ], [ 76.414, 28.47 ], [ 76.421, 28.458 ], [ 76.435, 28.457 ], [ 76.441, 28.446 ], [ 76.433, 28.435 ], [ 76.439, 28.424 ], [ 76.453, 28.423 ], [ 76.462, 28.433 ], [ 76.477, 28.432 ], [ 76.483, 28.42 ], [ 76.498, 28.419 ], [ 76.507, 28.43 ], [ 76.522, 28.428 ], [ 76.531, 28.439 ], [ 76.546, 28.437 ], [ 76.552, 28.426 ], [ 76.567, 28.425 ], [ 76.576, 28.435 ], [ 76.591, 28.434 ], [ 76.597, 28.422 ], [ 76.612, 28.421 ], [ 76.621, 28.432 ], [ 76.636, 28.43 ], [ 76.642, 28.419 ], [ 76.633, 28.409 ], [ 76.639, 28.397 ], [ 76.653, 28.396 ], [ 76.659, 28.384 ], [ 76.65, 28.374 ], [ 76.656, 28.363 ], [ 76.648, 28.352 ], [ 76.653, 28.341 ], [ 76.645, 28.331 ], [ 76.65, 28.319 ], [ 76.665, 28.318 ], [ 76.671, 28.307 ], [ 76.686, 28.305 ], [ 76.692, 28.294 ], [ 76.683, 28.284 ], [ 76.689, 28.272 ], [ 76.704, 28.271 ], [ 76.71, 28.26 ], [ 76.725, 28.258 ], [ 76.731, 28.247 ], [ 76.746, 28.246 ], [ 76.752, 28.234 ], [ 76.767, 28.233 ], [ 76.772, 28.222 ], [ 76.787, 28.22 ], [ 76.796, 28.231 ], [ 76.79, 28.242 ], [ 76.799, 28.252 ], [ 76.814, 28.251 ], [ 76.82, 28.24 ], [ 76.835, 28.239 ], [ 76.844, 28.249 ], [ 76.859, 28.248 ], [ 76.868, 28.258 ], [ 76.883, 28.257 ], [ 76.892, 28.267 ], [ 76.906, 28.266 ], [ 76.915, 28.276 ], [ 76.91, 28.287 ], [ 76.919, 28.298 ], [ 76.913, 28.309 ], [ 76.898, 28.31 ], [ 76.892, 28.322 ], [ 76.901, 28.332 ], [ 76.895, 28.343 ], [ 76.904, 28.354 ], [ 76.919, 28.352 ], [ 76.928, 28.363 ], [ 76.943, 28.361 ], [ 76.952, 28.372 ], [ 76.966, 28.37 ], [ 76.975, 28.381 ], [ 76.99, 28.379 ], [ 76.996, 28.368 ], [ 77.011, 28.367 ], [ 77.017, 28.355 ], [ 77.032, 28.354 ], [ 77.041, 28.364 ], [ 77.056, 28.363 ], [ 77.062, 28.352 ], [ 77.077, 28.35 ], [ 77.083, 28.339 ], [ 77.074, 28.329 ], [ 77.059, 28.33 ], [ 77.05, 28.32 ], [ 77.056, 28.308 ], [ 77.047, 28.298 ], [ 77.052, 28.286 ], [ 77.043, 28.276 ], [ 77.049, 28.265 ], [ 77.064, 28.264 ], [ 77.07, 28.252 ], [ 77.061, 28.242 ], [ 77.067, 28.23 ], [ 77.082, 28.229 ], [ 77.088, 28.218 ], [ 77.103, 28.216 ], [ 77.112, 28.227 ], [ 77.126, 28.225 ], [ 77.132, 28.214 ], [ 77.147, 28.213 ], [ 77.153, 28.201 ], [ 77.168, 28.2 ], [ 77.177, 28.21 ], [ 77.192, 28.209 ], [ 77.197, 28.198 ], [ 77.188, 28.187 ], [ 77.174, 28.189 ], [ 77.165, 28.178 ], [ 77.17, 28.167 ], [ 77.162, 28.157 ], [ 77.147, 28.158 ], [ 77.138, 28.148 ], [ 77.144, 28.136 ], [ 77.135, 28.126 ], [ 77.14, 28.115 ], [ 77.131, 28.104 ], [ 77.137, 28.093 ], [ 77.128, 28.083 ], [ 77.134, 28.071 ], [ 77.149, 28.07 ], [ 77.155, 28.059 ], [ 77.146, 28.049 ], [ 77.152, 28.037 ], [ 77.143, 28.027 ], [ 77.149, 28.015 ], [ 77.14, 28.005 ], [ 77.145, 27.994 ], [ 77.136, 27.984 ], [ 77.142, 27.972 ], [ 77.157, 27.971 ], [ 77.163, 27.96 ], [ 77.178, 27.958 ], [ 77.184, 27.947 ], [ 77.198, 27.946 ], [ 77.204, 27.934 ], [ 77.219, 27.933 ], [ 77.225, 27.922 ], [ 77.216, 27.911 ], [ 77.222, 27.9 ], [ 77.236, 27.899 ], [ 77.242, 27.887 ], [ 77.257, 27.886 ], [ 77.263, 27.875 ], [ 77.278, 27.873 ], [ 77.287, 27.884 ], [ 77.301, 27.882 ], [ 77.307, 27.871 ], [ 77.322, 27.87 ], [ 77.328, 27.858 ], [ 77.342, 27.857 ], [ 77.348, 27.846 ], [ 77.363, 27.844 ], [ 77.372, 27.854 ], [ 77.387, 27.853 ], [ 77.396, 27.863 ], [ 77.41, 27.862 ], [ 77.419, 27.872 ], [ 77.414, 27.884 ], [ 77.423, 27.894 ], [ 77.437, 27.893 ], [ 77.443, 27.881 ], [ 77.458, 27.88 ], [ 77.467, 27.89 ], [ 77.482, 27.889 ], [ 77.491, 27.899 ], [ 77.485, 27.91 ], [ 77.47, 27.912 ], [ 77.464, 27.923 ], [ 77.473, 27.933 ], [ 77.488, 27.932 ], [ 77.497, 27.942 ], [ 77.491, 27.954 ], [ 77.5, 27.964 ], [ 77.495, 27.975 ], [ 77.504, 27.985 ], [ 77.498, 27.997 ], [ 77.507, 28.007 ], [ 77.501, 28.018 ], [ 77.486, 28.02 ], [ 77.481, 28.031 ], [ 77.466, 28.032 ], [ 77.46, 28.044 ], [ 77.469, 28.054 ], [ 77.463, 28.065 ], [ 77.472, 28.076 ], [ 77.466, 28.087 ], [ 77.475, 28.097 ], [ 77.47, 28.109 ], [ 77.479, 28.119 ], [ 77.473, 28.13 ], [ 77.458, 28.132 ], [ 77.452, 28.143 ], [ 77.461, 28.153 ], [ 77.455, 28.165 ], [ 77.465, 28.175 ], [ 77.459, 28.186 ], [ 77.468, 28.196 ], [ 77.462, 28.208 ], [ 77.447, 28.209 ], [ 77.441, 28.221 ], [ 77.45, 28.231 ], [ 77.445, 28.242 ], [ 77.454, 28.253 ], [ 77.448, 28.264 ], [ 77.457, 28.274 ], [ 77.451, 28.286 ], [ 77.46, 28.296 ], [ 77.454, 28.307 ], [ 77.463, 28.318 ], [ 77.457, 28.329 ], [ 77.467, 28.339 ], [ 77.461, 28.351 ], [ 77.47, 28.361 ], [ 77.464, 28.372 ], [ 77.473, 28.383 ], [ 77.467, 28.394 ], [ 77.452, 28.395 ], [ 77.446, 28.407 ], [ 77.432, 28.408 ], [ 77.426, 28.42 ], [ 77.411, 28.421 ], [ 77.402, 28.411 ], [ 77.387, 28.412 ], [ 77.381, 28.423 ], [ 77.366, 28.425 ], [ 77.36, 28.436 ], [ 77.346, 28.438 ], [ 77.336, 28.427 ], [ 77.322, 28.429 ], [ 77.316, 28.44 ], [ 77.301, 28.441 ], [ 77.292, 28.431 ], [ 77.298, 28.42 ], [ 77.289, 28.409 ], [ 77.294, 28.398 ], [ 77.285, 28.388 ], [ 77.271, 28.389 ], [ 77.262, 28.379 ], [ 77.247, 28.38 ], [ 77.238, 28.37 ], [ 77.223, 28.371 ], [ 77.214, 28.361 ], [ 77.199, 28.362 ], [ 77.19, 28.352 ], [ 77.196, 28.34 ], [ 77.187, 28.33 ], [ 77.193, 28.319 ], [ 77.184, 28.308 ], [ 77.189, 28.297 ], [ 77.18, 28.287 ], [ 77.165, 28.288 ], [ 77.156, 28.278 ], [ 77.162, 28.266 ], [ 77.153, 28.256 ], [ 77.138, 28.257 ], [ 77.133, 28.269 ], [ 77.118, 28.27 ], [ 77.112, 28.282 ], [ 77.121, 28.292 ], [ 77.115, 28.303 ], [ 77.1, 28.304 ], [ 77.094, 28.316 ], [ 77.103, 28.326 ], [ 77.097, 28.338 ], [ 77.106, 28.348 ], [ 77.101, 28.359 ], [ 77.086, 28.361 ], [ 77.08, 28.372 ], [ 77.089, 28.382 ], [ 77.083, 28.394 ], [ 77.092, 28.404 ], [ 77.086, 28.415 ], [ 77.095, 28.426 ], [ 77.089, 28.437 ], [ 77.098, 28.447 ], [ 77.092, 28.459 ], [ 77.101, 28.469 ], [ 77.095, 28.481 ], [ 77.104, 28.491 ], [ 77.098, 28.502 ], [ 77.108, 28.513 ], [ 77.102, 28.524 ], [ 77.111, 28.534 ], [ 77.105, 28.546 ], [ 77.114, 28.556 ], [ 77.129, 28.555 ], [ 77.138, 28.565 ], [ 77.132, 28.577 ], [ 77.141, 28.587 ], [ 77.135, 28.598 ], [ 77.144, 28.609 ], [ 77.138, 28.62 ], [ 77.147, 28.63 ], [ 77.162, 28.629 ], [ 77.171, 28.639 ], [ 77.186, 28.638 ], [ 77.195, 28.648 ], [ 77.21, 28.647 ], [ 77.216, 28.636 ], [ 77.207, 28.625 ], [ 77.213, 28.614 ], [ 77.204, 28.604 ], [ 77.189, 28.605 ], [ 77.18, 28.595 ], [ 77.186, 28.583 ], [ 77.177, 28.573 ], [ 77.183, 28.561 ], [ 77.197, 28.56 ], [ 77.207, 28.57 ], [ 77.221, 28.569 ], [ 77.227, 28.558 ], [ 77.242, 28.556 ], [ 77.248, 28.545 ], [ 77.263, 28.544 ], [ 77.269, 28.532 ], [ 77.284, 28.531 ], [ 77.29, 28.519 ], [ 77.281, 28.509 ], [ 77.286, 28.498 ], [ 77.301, 28.496 ], [ 77.307, 28.485 ], [ 77.322, 28.483 ], [ 77.331, 28.494 ], [ 77.325, 28.505 ], [ 77.334, 28.515 ], [ 77.329, 28.527 ], [ 77.314, 28.528 ], [ 77.308, 28.54 ], [ 77.293, 28.541 ], [ 77.287, 28.553 ], [ 77.272, 28.554 ], [ 77.266, 28.565 ], [ 77.251, 28.567 ], [ 77.245, 28.578 ], [ 77.254, 28.588 ], [ 77.249, 28.6 ], [ 77.234, 28.601 ], [ 77.228, 28.613 ], [ 77.237, 28.623 ], [ 77.231, 28.634 ], [ 77.24, 28.645 ], [ 77.234, 28.656 ], [ 77.219, 28.657 ], [ 77.213, 28.669 ], [ 77.198, 28.67 ], [ 77.192, 28.682 ], [ 77.178, 28.683 ], [ 77.172, 28.694 ], [ 77.181, 28.705 ], [ 77.175, 28.716 ], [ 77.184, 28.727 ], [ 77.199, 28.725 ], [ 77.208, 28.736 ], [ 77.202, 28.747 ], [ 77.211, 28.757 ], [ 77.205, 28.769 ], [ 77.19, 28.77 ], [ 77.184, 28.782 ], [ 77.193, 28.792 ], [ 77.187, 28.803 ], [ 77.197, 28.814 ], [ 77.191, 28.825 ], [ 77.2, 28.836 ], [ 77.194, 28.847 ], [ 77.203, 28.857 ], [ 77.197, 28.869 ], [ 77.206, 28.879 ], [ 77.2, 28.891 ], [ 77.209, 28.901 ], [ 77.203, 28.913 ], [ 77.188, 28.914 ], [ 77.182, 28.925 ], [ 77.192, 28.936 ], [ 77.186, 28.947 ], [ 77.195, 28.958 ], [ 77.189, 28.969 ], [ 77.198, 28.979 ], [ 77.192, 28.991 ], [ 77.177, 28.992 ], [ 77.171, 29.004 ], [ 77.156, 29.005 ], [ 77.15, 29.017 ], [ 77.159, 29.027 ], [ 77.153, 29.038 ], [ 77.162, 29.049 ], [ 77.156, 29.06 ], [ 77.141, 29.062 ], [ 77.135, 29.073 ], [ 77.12, 29.074 ], [ 77.114, 29.086 ], [ 77.124, 29.096 ], [ 77.118, 29.108 ], [ 77.127, 29.118 ], [ 77.121, 29.13 ], [ 77.13, 29.14 ], [ 77.124, 29.152 ], [ 77.109, 29.153 ], [ 77.103, 29.164 ], [ 77.112, 29.175 ], [ 77.106, 29.186 ], [ 77.115, 29.197 ], [ 77.109, 29.208 ], [ 77.118, 29.219 ], [ 77.112, 29.23 ], [ 77.122, 29.241 ], [ 77.116, 29.252 ], [ 77.101, 29.253 ], [ 77.095, 29.265 ], [ 77.104, 29.275 ], [ 77.098, 29.287 ], [ 77.107, 29.297 ], [ 77.122, 29.296 ], [ 77.131, 29.306 ], [ 77.125, 29.318 ], [ 77.11, 29.319 ], [ 77.104, 29.331 ], [ 77.113, 29.341 ], [ 77.107, 29.353 ], [ 77.116, 29.363 ], [ 77.11, 29.375 ], [ 77.12, 29.385 ], [ 77.114, 29.397 ], [ 77.123, 29.407 ], [ 77.117, 29.419 ], [ 77.126, 29.429 ], [ 77.12, 29.44 ], [ 77.105, 29.442 ], [ 77.099, 29.453 ], [ 77.084, 29.455 ], [ 77.075, 29.444 ], [ 77.059, 29.446 ], [ 77.053, 29.457 ], [ 77.038, 29.458 ], [ 77.029, 29.448 ], [ 77.014, 29.449 ], [ 77.008, 29.461 ], [ 76.993, 29.462 ], [ 76.984, 29.452 ], [ 76.969, 29.453 ], [ 76.963, 29.465 ], [ 76.947, 29.466 ], [ 76.941, 29.478 ], [ 76.926, 29.479 ], [ 76.917, 29.469 ], [ 76.902, 29.47 ], [ 76.896, 29.481 ], [ 76.881, 29.483 ], [ 76.875, 29.494 ], [ 76.86, 29.496 ], [ 76.854, 29.507 ], [ 76.839, 29.508 ], [ 76.829, 29.498 ], [ 76.814, 29.499 ], [ 76.805, 29.489 ], [ 76.811, 29.477 ], [ 76.802, 29.467 ], [ 76.787, 29.468 ], [ 76.778, 29.458 ], [ 76.763, 29.459 ], [ 76.754, 29.449 ], [ 76.76, 29.437 ], [ 76.75, 29.427 ], [ 76.735, 29.428 ], [ 76.726, 29.418 ], [ 76.732, 29.406 ], [ 76.723, 29.396 ], [ 76.729, 29.384 ], [ 76.72, 29.374 ], [ 76.705, 29.375 ], [ 76.699, 29.387 ], [ 76.684, 29.388 ], [ 76.675, 29.377 ], [ 76.66, 29.379 ], [ 76.65, 29.368 ], [ 76.657, 29.357 ], [ 76.647, 29.346 ], [ 76.653, 29.335 ], [ 76.644, 29.324 ], [ 76.65, 29.313 ], [ 76.641, 29.302 ], [ 76.647, 29.291 ], [ 76.663, 29.29 ], [ 76.669, 29.278 ], [ 76.66, 29.268 ], [ 76.644, 29.269 ], [ 76.638, 29.28 ], [ 76.623, 29.282 ], [ 76.617, 29.293 ], [ 76.602, 29.294 ], [ 76.593, 29.284 ], [ 76.578, 29.285 ], [ 76.569, 29.275 ], [ 76.554, 29.276 ], [ 76.545, 29.266 ], [ 76.551, 29.254 ], [ 76.566, 29.253 ], [ 76.572, 29.241 ], [ 76.563, 29.231 ], [ 76.569, 29.219 ], [ 76.56, 29.209 ], [ 76.545, 29.21 ], [ 76.539, 29.222 ], [ 76.524, 29.223 ], [ 76.518, 29.235 ], [ 76.502, 29.236 ], [ 76.496, 29.247 ], [ 76.481, 29.249 ], [ 76.472, 29.238 ], [ 76.478, 29.227 ], [ 76.469, 29.216 ], [ 76.475, 29.205 ], [ 76.49, 29.204 ], [ 76.496, 29.192 ], [ 76.487, 29.182 ] ], [ [ 76.895, 28.453 ], [ 76.886, 28.443 ], [ 76.871, 28.444 ], [ 76.865, 28.456 ], [ 76.874, 28.466 ], [ 76.868, 28.477 ], [ 76.877, 28.488 ], [ 76.872, 28.499 ], [ 76.881, 28.509 ], [ 76.875, 28.521 ], [ 76.86, 28.522 ], [ 76.854, 28.534 ], [ 76.863, 28.544 ], [ 76.878, 28.543 ], [ 76.887, 28.553 ], [ 76.902, 28.552 ], [ 76.908, 28.54 ], [ 76.922, 28.539 ], [ 76.931, 28.549 ], [ 76.946, 28.548 ], [ 76.952, 28.537 ], [ 76.967, 28.535 ], [ 76.973, 28.524 ], [ 76.988, 28.523 ], [ 76.994, 28.511 ], [ 76.985, 28.501 ], [ 76.991, 28.489 ], [ 77.006, 28.488 ], [ 77.015, 28.498 ], [ 77.03, 28.497 ], [ 77.039, 28.507 ], [ 77.054, 28.506 ], [ 77.063, 28.516 ], [ 77.078, 28.515 ], [ 77.084, 28.504 ], [ 77.075, 28.493 ], [ 77.08, 28.482 ], [ 77.071, 28.472 ], [ 77.057, 28.473 ], [ 77.047, 28.463 ], [ 77.033, 28.464 ], [ 77.027, 28.475 ], [ 77.012, 28.477 ], [ 77.003, 28.466 ], [ 76.988, 28.468 ], [ 76.979, 28.457 ], [ 76.985, 28.446 ], [ 76.976, 28.436 ], [ 76.961, 28.437 ], [ 76.955, 28.448 ], [ 76.94, 28.45 ], [ 76.934, 28.461 ], [ 76.919, 28.462 ], [ 76.91, 28.452 ], [ 76.895, 28.453 ] ], [ [ 76.818, 28.438 ], [ 76.803, 28.439 ], [ 76.797, 28.45 ], [ 76.782, 28.452 ], [ 76.776, 28.463 ], [ 76.785, 28.473 ], [ 76.8, 28.472 ], [ 76.809, 28.482 ], [ 76.824, 28.481 ], [ 76.83, 28.47 ], [ 76.821, 28.459 ], [ 76.827, 28.448 ], [ 76.818, 28.438 ] ] ], [ [ [ 77.591, 28.714 ], [ 77.606, 28.712 ], [ 77.615, 28.722 ], [ 77.63, 28.721 ], [ 77.639, 28.731 ], [ 77.654, 28.73 ], [ 77.66, 28.719 ], [ 77.675, 28.717 ], [ 77.684, 28.727 ], [ 77.678, 28.739 ], [ 77.687, 28.749 ], [ 77.681, 28.761 ], [ 77.69, 28.771 ], [ 77.685, 28.783 ], [ 77.694, 28.793 ], [ 77.709, 28.791 ], [ 77.718, 28.802 ], [ 77.712, 28.813 ], [ 77.697, 28.815 ], [ 77.691, 28.826 ], [ 77.7, 28.836 ], [ 77.695, 28.848 ], [ 77.704, 28.858 ], [ 77.698, 28.87 ], [ 77.683, 28.871 ], [ 77.677, 28.883 ], [ 77.662, 28.884 ], [ 77.653, 28.874 ], [ 77.638, 28.875 ], [ 77.632, 28.887 ], [ 77.617, 28.888 ], [ 77.608, 28.878 ], [ 77.593, 28.879 ], [ 77.587, 28.891 ], [ 77.572, 28.892 ], [ 77.563, 28.882 ], [ 77.548, 28.883 ], [ 77.542, 28.894 ], [ 77.527, 28.896 ], [ 77.518, 28.885 ], [ 77.503, 28.887 ], [ 77.497, 28.898 ], [ 77.482, 28.9 ], [ 77.477, 28.911 ], [ 77.462, 28.913 ], [ 77.456, 28.924 ], [ 77.441, 28.925 ], [ 77.432, 28.915 ], [ 77.437, 28.904 ], [ 77.428, 28.893 ], [ 77.413, 28.895 ], [ 77.404, 28.884 ], [ 77.41, 28.873 ], [ 77.401, 28.863 ], [ 77.407, 28.851 ], [ 77.398, 28.841 ], [ 77.404, 28.829 ], [ 77.394, 28.819 ], [ 77.4, 28.807 ], [ 77.391, 28.797 ], [ 77.397, 28.786 ], [ 77.388, 28.775 ], [ 77.373, 28.777 ], [ 77.367, 28.788 ], [ 77.352, 28.789 ], [ 77.346, 28.801 ], [ 77.331, 28.802 ], [ 77.322, 28.792 ], [ 77.307, 28.793 ], [ 77.301, 28.805 ], [ 77.286, 28.806 ], [ 77.281, 28.818 ], [ 77.29, 28.828 ], [ 77.284, 28.839 ], [ 77.269, 28.841 ], [ 77.26, 28.83 ], [ 77.245, 28.832 ], [ 77.236, 28.821 ], [ 77.241, 28.81 ], [ 77.232, 28.8 ], [ 77.238, 28.788 ], [ 77.253, 28.787 ], [ 77.259, 28.775 ], [ 77.25, 28.765 ], [ 77.256, 28.754 ], [ 77.247, 28.743 ], [ 77.253, 28.732 ], [ 77.268, 28.73 ], [ 77.274, 28.719 ], [ 77.265, 28.709 ], [ 77.27, 28.697 ], [ 77.261, 28.687 ], [ 77.267, 28.675 ], [ 77.282, 28.674 ], [ 77.288, 28.663 ], [ 77.279, 28.652 ], [ 77.285, 28.641 ], [ 77.276, 28.631 ], [ 77.282, 28.619 ], [ 77.297, 28.618 ], [ 77.302, 28.606 ], [ 77.317, 28.605 ], [ 77.323, 28.593 ], [ 77.314, 28.583 ], [ 77.32, 28.572 ], [ 77.335, 28.57 ], [ 77.341, 28.559 ], [ 77.356, 28.558 ], [ 77.362, 28.546 ], [ 77.376, 28.545 ], [ 77.382, 28.533 ], [ 77.373, 28.523 ], [ 77.379, 28.512 ], [ 77.394, 28.51 ], [ 77.4, 28.499 ], [ 77.415, 28.498 ], [ 77.421, 28.486 ], [ 77.435, 28.485 ], [ 77.441, 28.473 ], [ 77.432, 28.463 ], [ 77.438, 28.452 ], [ 77.453, 28.45 ], [ 77.459, 28.439 ], [ 77.474, 28.437 ], [ 77.479, 28.426 ], [ 77.494, 28.425 ], [ 77.5, 28.413 ], [ 77.515, 28.412 ], [ 77.521, 28.4 ], [ 77.512, 28.39 ], [ 77.518, 28.379 ], [ 77.509, 28.369 ], [ 77.514, 28.357 ], [ 77.505, 28.347 ], [ 77.49, 28.348 ], [ 77.481, 28.338 ], [ 77.487, 28.326 ], [ 77.478, 28.316 ], [ 77.484, 28.305 ], [ 77.499, 28.303 ], [ 77.505, 28.292 ], [ 77.519, 28.291 ], [ 77.525, 28.279 ], [ 77.516, 28.269 ], [ 77.501, 28.27 ], [ 77.492, 28.26 ], [ 77.498, 28.249 ], [ 77.489, 28.238 ], [ 77.495, 28.227 ], [ 77.486, 28.217 ], [ 77.492, 28.205 ], [ 77.483, 28.195 ], [ 77.488, 28.184 ], [ 77.479, 28.174 ], [ 77.485, 28.162 ], [ 77.5, 28.161 ], [ 77.506, 28.149 ], [ 77.497, 28.139 ], [ 77.502, 28.128 ], [ 77.517, 28.126 ], [ 77.523, 28.115 ], [ 77.514, 28.105 ], [ 77.52, 28.093 ], [ 77.535, 28.092 ], [ 77.54, 28.081 ], [ 77.555, 28.079 ], [ 77.564, 28.089 ], [ 77.579, 28.088 ], [ 77.588, 28.098 ], [ 77.582, 28.11 ], [ 77.591, 28.12 ], [ 77.606, 28.119 ], [ 77.612, 28.107 ], [ 77.627, 28.106 ], [ 77.636, 28.116 ], [ 77.651, 28.115 ], [ 77.66, 28.125 ], [ 77.674, 28.124 ], [ 77.68, 28.112 ], [ 77.671, 28.102 ], [ 77.677, 28.091 ], [ 77.692, 28.089 ], [ 77.701, 28.099 ], [ 77.716, 28.098 ], [ 77.725, 28.108 ], [ 77.719, 28.12 ], [ 77.728, 28.13 ], [ 77.722, 28.141 ], [ 77.731, 28.152 ], [ 77.725, 28.163 ], [ 77.711, 28.164 ], [ 77.705, 28.176 ], [ 77.714, 28.186 ], [ 77.708, 28.197 ], [ 77.717, 28.208 ], [ 77.712, 28.219 ], [ 77.721, 28.229 ], [ 77.715, 28.241 ], [ 77.7, 28.242 ], [ 77.694, 28.254 ], [ 77.703, 28.264 ], [ 77.698, 28.275 ], [ 77.707, 28.285 ], [ 77.721, 28.284 ], [ 77.731, 28.294 ], [ 77.725, 28.306 ], [ 77.734, 28.316 ], [ 77.728, 28.327 ], [ 77.713, 28.329 ], [ 77.707, 28.34 ], [ 77.717, 28.35 ], [ 77.711, 28.362 ], [ 77.696, 28.363 ], [ 77.69, 28.375 ], [ 77.675, 28.376 ], [ 77.67, 28.387 ], [ 77.679, 28.398 ], [ 77.673, 28.409 ], [ 77.682, 28.419 ], [ 77.676, 28.431 ], [ 77.661, 28.432 ], [ 77.652, 28.422 ], [ 77.637, 28.423 ], [ 77.632, 28.435 ], [ 77.641, 28.445 ], [ 77.635, 28.456 ], [ 77.644, 28.467 ], [ 77.638, 28.478 ], [ 77.647, 28.488 ], [ 77.662, 28.487 ], [ 77.671, 28.497 ], [ 77.665, 28.509 ], [ 77.675, 28.519 ], [ 77.689, 28.518 ], [ 77.699, 28.528 ], [ 77.693, 28.539 ], [ 77.678, 28.541 ], [ 77.672, 28.552 ], [ 77.681, 28.562 ], [ 77.675, 28.574 ], [ 77.66, 28.575 ], [ 77.655, 28.587 ], [ 77.64, 28.588 ], [ 77.634, 28.6 ], [ 77.619, 28.601 ], [ 77.613, 28.612 ], [ 77.622, 28.623 ], [ 77.617, 28.634 ], [ 77.602, 28.635 ], [ 77.596, 28.647 ], [ 77.581, 28.648 ], [ 77.572, 28.638 ], [ 77.578, 28.627 ], [ 77.569, 28.616 ], [ 77.554, 28.618 ], [ 77.548, 28.629 ], [ 77.557, 28.639 ], [ 77.551, 28.651 ], [ 77.56, 28.661 ], [ 77.554, 28.673 ], [ 77.563, 28.683 ], [ 77.558, 28.694 ], [ 77.567, 28.705 ], [ 77.582, 28.703 ], [ 77.591, 28.714 ] ] ] ] } },
{ "type": "Feature", "properties": { "POLYGON.ID": 1191.0, "subregion": "India--Delhi--Yamuna River", "FILTER": "Delhi", "POLYGON": "India--Delhi--Yamuna River", "STATE": "Delhi", "COUNTY": "Una", "OWNER": null }, "geometry": { "type": "MultiPolygon", "coordinates": [ [ [ [ 77.253, 28.732 ], [ 77.247, 28.743 ], [ 77.256, 28.754 ], [ 77.25, 28.765 ], [ 77.259, 28.775 ], [ 77.253, 28.787 ], [ 77.238, 28.788 ], [ 77.232, 28.8 ], [ 77.241, 28.81 ], [ 77.236, 28.821 ], [ 77.245, 28.832 ], [ 77.239, 28.843 ], [ 77.224, 28.845 ], [ 77.218, 28.856 ], [ 77.203, 28.857 ], [ 77.194, 28.847 ], [ 77.2, 28.836 ], [ 77.191, 28.825 ], [ 77.197, 28.814 ], [ 77.187, 28.803 ], [ 77.193, 28.792 ], [ 77.184, 28.782 ], [ 77.19, 28.77 ], [ 77.205, 28.769 ], [ 77.211, 28.757 ], [ 77.202, 28.747 ], [ 77.208, 28.736 ], [ 77.199, 28.725 ], [ 77.184, 28.727 ], [ 77.175, 28.716 ], [ 77.181, 28.705 ], [ 77.172, 28.694 ], [ 77.178, 28.683 ], [ 77.192, 28.682 ], [ 77.198, 28.67 ], [ 77.213, 28.669 ], [ 77.219, 28.657 ], [ 77.234, 28.656 ], [ 77.24, 28.645 ], [ 77.231, 28.634 ], [ 77.237, 28.623 ], [ 77.252, 28.622 ], [ 77.261, 28.632 ], [ 77.276, 28.631 ], [ 77.285, 28.641 ], [ 77.279, 28.652 ], [ 77.288, 28.663 ], [ 77.282, 28.674 ], [ 77.267, 28.675 ], [ 77.261, 28.687 ], [ 77.27, 28.697 ], [ 77.265, 28.709 ], [ 77.274, 28.719 ], [ 77.268, 28.73 ], [ 77.253, 28.732 ] ] ] ] } },
{ "type": "Feature", "properties": { "POLYGON.ID": 1192.0, "subregion": "India--Delhi--City Forests", "FILTER": "Delhi", "POLYGON": "India--Delhi--City Forests", "STATE": "Delhi", "COUNTY": "spl_region", "OWNER": null }, "geometry": { "type": "MultiPolygon", "coordinates": [ [ [ [ 77.188, 28.495 ], [ 77.197, 28.505 ], [ 77.212, 28.504 ], [ 77.221, 28.514 ], [ 77.236, 28.513 ], [ 77.242, 28.501 ], [ 77.257, 28.5 ], [ 77.266, 28.51 ], [ 77.281, 28.509 ], [ 77.29, 28.519 ], [ 77.284, 28.531 ], [ 77.269, 28.532 ], [ 77.263, 28.544 ], [ 77.248, 28.545 ], [ 77.242, 28.556 ], [ 77.227, 28.558 ], [ 77.221, 28.569 ], [ 77.207, 28.57 ], [ 77.197, 28.56 ], [ 77.183, 28.561 ], [ 77.177, 28.573 ], [ 77.162, 28.574 ], [ 77.153, 28.564 ], [ 77.159, 28.552 ], [ 77.15, 28.542 ], [ 77.155, 28.531 ], [ 77.146, 28.52 ], [ 77.152, 28.509 ], [ 77.143, 28.499 ], [ 77.149, 28.487 ], [ 77.14, 28.477 ], [ 77.146, 28.465 ], [ 77.161, 28.464 ], [ 77.167, 28.453 ], [ 77.182, 28.451 ], [ 77.188, 28.44 ], [ 77.202, 28.439 ], [ 77.211, 28.449 ], [ 77.206, 28.46 ], [ 77.215, 28.471 ], [ 77.209, 28.482 ], [ 77.194, 28.483 ], [ 77.188, 28.495 ] ] ] ] } },
{ "type": "Feature", "properties": { "POLYGON.ID": 1208.0, "subregion": "India--Delhi--Central Ridge Forests", "FILTER": "Delhi", "POLYGON": "India--Delhi--Central Ridge Forests", "STATE": "Delhi", "COUNTY": "spl_region", "OWNER": null }, "geometry": { "type": "MultiPolygon", "coordinates": [ [ [ [ 77.18, 28.595 ], [ 77.189, 28.605 ], [ 77.204, 28.604 ], [ 77.213, 28.614 ], [ 77.207, 28.625 ], [ 77.216, 28.636 ], [ 77.21, 28.647 ], [ 77.195, 28.648 ], [ 77.186, 28.638 ], [ 77.171, 28.639 ], [ 77.162, 28.629 ], [ 77.147, 28.63 ], [ 77.138, 28.62 ], [ 77.144, 28.609 ], [ 77.135, 28.598 ], [ 77.141, 28.587 ], [ 77.132, 28.577 ], [ 77.138, 28.565 ], [ 77.153, 28.564 ], [ 77.162, 28.574 ], [ 77.177, 28.573 ], [ 77.186, 28.583 ], [ 77.18, 28.595 ] ] ] ] } }
]
}
