{
"type": "FeatureCollection",
"name": "Goa",
"crs": { "type": "name", "properties": { "name": "urn:ogc:def:crs:OGC:1.3:CRS84" } },
"features": [
{ "type": "Feature", "properties": { "POLYGON.ID": 310.0, "subregion": "IN-GA--Goa--Coast", "FILTER": "Goa", "POLYGON": "IN-GA--Goa--Coast", "COUNTY": "spl_region", "STATE": "Goa", "OWNER": null }, "geometry": { "type": "MultiPolygon", "coordinates": [ [ [ [ 74.023, 15.08 ], [ 74.031, 15.089 ], [ 74.043, 15.087 ], [ 74.051, 15.097 ], [ 74.047, 15.109 ], [ 74.055, 15.119 ], [ 74.051, 15.131 ], [ 74.059, 15.141 ], [ 74.055, 15.153 ], [ 74.043, 15.155 ], [ 74.039, 15.167 ], [ 74.027, 15.17 ], [ 74.023, 15.182 ], [ 74.011, 15.184 ], [ 74.007, 15.196 ], [ 74.015, 15.206 ], [ 74.011, 15.218 ], [ 73.999, 15.22 ], [ 73.995, 15.232 ], [ 74.003, 15.242 ], [ 74.015, 15.24 ], [ 74.023, 15.25 ], [ 74.036, 15.247 ], [ 74.04, 15.235 ], [ 74.052, 15.233 ], [ 74.056, 15.221 ], [ 74.048, 15.211 ], [ 74.052, 15.199 ], [ 74.064, 15.197 ], [ 74.068, 15.185 ], [ 74.08, 15.183 ], [ 74.088, 15.193 ], [ 74.1, 15.191 ], [ 74.104, 15.179 ], [ 74.116, 15.177 ], [ 74.125, 15.187 ], [ 74.121, 15.199 ], [ 74.129, 15.208 ], [ 74.141, 15.206 ], [ 74.149, 15.216 ], [ 74.161, 15.214 ], [ 74.17, 15.224 ], [ 74.182, 15.222 ], [ 74.19, 15.232 ], [ 74.186, 15.244 ], [ 74.194, 15.254 ], [ 74.19, 15.266 ], [ 74.198, 15.276 ], [ 74.194, 15.288 ], [ 74.182, 15.29 ], [ 74.178, 15.302 ], [ 74.166, 15.304 ], [ 74.162, 15.316 ], [ 74.15, 15.318 ], [ 74.146, 15.33 ], [ 74.134, 15.333 ], [ 74.125, 15.323 ], [ 74.113, 15.325 ], [ 74.109, 15.337 ], [ 74.097, 15.339 ], [ 74.093, 15.351 ], [ 74.081, 15.353 ], [ 74.077, 15.365 ], [ 74.065, 15.367 ], [ 74.061, 15.379 ], [ 74.048, 15.381 ], [ 74.04, 15.371 ], [ 74.044, 15.359 ], [ 74.036, 15.349 ], [ 74.024, 15.352 ], [ 74.02, 15.364 ], [ 74.008, 15.366 ], [ 74.004, 15.378 ], [ 74.012, 15.388 ], [ 74.008, 15.4 ], [ 74.016, 15.41 ], [ 74.012, 15.422 ], [ 74.0, 15.424 ], [ 73.992, 15.414 ], [ 73.98, 15.416 ], [ 73.976, 15.428 ], [ 73.984, 15.438 ], [ 73.98, 15.45 ], [ 73.988, 15.46 ], [ 73.984, 15.472 ], [ 73.972, 15.474 ], [ 73.968, 15.486 ], [ 73.976, 15.496 ], [ 73.972, 15.508 ], [ 73.96, 15.51 ], [ 73.956, 15.522 ], [ 73.964, 15.532 ], [ 73.96, 15.544 ], [ 73.968, 15.554 ], [ 73.964, 15.566 ], [ 73.972, 15.576 ], [ 73.968, 15.588 ], [ 73.956, 15.59 ], [ 73.952, 15.602 ], [ 73.94, 15.604 ], [ 73.936, 15.616 ], [ 73.924, 15.618 ], [ 73.92, 15.63 ], [ 73.908, 15.632 ], [ 73.904, 15.644 ], [ 73.891, 15.646 ], [ 73.887, 15.658 ], [ 73.895, 15.668 ], [ 73.891, 15.68 ], [ 73.879, 15.682 ], [ 73.875, 15.694 ], [ 73.883, 15.704 ], [ 73.879, 15.716 ], [ 73.888, 15.726 ], [ 73.884, 15.738 ], [ 73.892, 15.748 ], [ 73.888, 15.76 ], [ 73.876, 15.762 ], [ 73.872, 15.774 ], [ 73.88, 15.784 ], [ 73.876, 15.796 ], [ 73.864, 15.798 ], [ 73.855, 15.788 ], [ 73.843, 15.79 ], [ 73.835, 15.78 ], [ 73.839, 15.768 ], [ 73.831, 15.758 ], [ 73.835, 15.746 ], [ 73.827, 15.736 ], [ 73.815, 15.738 ], [ 73.807, 15.728 ], [ 73.794, 15.731 ], [ 73.786, 15.721 ], [ 73.774, 15.723 ], [ 73.77, 15.735 ], [ 73.758, 15.737 ], [ 73.75, 15.727 ], [ 73.738, 15.729 ], [ 73.729, 15.719 ], [ 73.717, 15.721 ], [ 73.713, 15.733 ], [ 73.701, 15.735 ], [ 73.693, 15.725 ], [ 73.681, 15.727 ], [ 73.673, 15.717 ], [ 73.661, 15.719 ], [ 73.653, 15.709 ], [ 73.64, 15.711 ], [ 73.632, 15.701 ], [ 73.62, 15.704 ], [ 73.612, 15.694 ], [ 73.616, 15.682 ], [ 73.608, 15.672 ], [ 73.596, 15.674 ], [ 73.588, 15.664 ], [ 73.592, 15.652 ], [ 73.584, 15.642 ], [ 73.571, 15.644 ], [ 73.563, 15.634 ], [ 73.567, 15.622 ], [ 73.559, 15.612 ], [ 73.547, 15.614 ], [ 73.539, 15.604 ], [ 73.543, 15.592 ], [ 73.555, 15.59 ], [ 73.559, 15.578 ], [ 73.551, 15.568 ], [ 73.555, 15.556 ], [ 73.567, 15.554 ], [ 73.571, 15.542 ], [ 73.563, 15.533 ], [ 73.567, 15.521 ], [ 73.579, 15.518 ], [ 73.583, 15.506 ], [ 73.575, 15.497 ], [ 73.579, 15.485 ], [ 73.591, 15.483 ], [ 73.595, 15.471 ], [ 73.587, 15.461 ], [ 73.591, 15.449 ], [ 73.603, 15.447 ], [ 73.607, 15.435 ], [ 73.599, 15.425 ], [ 73.603, 15.413 ], [ 73.615, 15.411 ], [ 73.619, 15.399 ], [ 73.611, 15.389 ], [ 73.615, 15.377 ], [ 73.607, 15.367 ], [ 73.611, 15.355 ], [ 73.623, 15.353 ], [ 73.627, 15.341 ], [ 73.619, 15.331 ], [ 73.623, 15.319 ], [ 73.635, 15.317 ], [ 73.639, 15.305 ], [ 73.651, 15.303 ], [ 73.655, 15.291 ], [ 73.667, 15.289 ], [ 73.671, 15.277 ], [ 73.683, 15.275 ], [ 73.687, 15.263 ], [ 73.699, 15.26 ], [ 73.703, 15.248 ], [ 73.716, 15.246 ], [ 73.719, 15.234 ], [ 73.732, 15.232 ], [ 73.736, 15.22 ], [ 73.748, 15.218 ], [ 73.752, 15.206 ], [ 73.764, 15.204 ], [ 73.768, 15.192 ], [ 73.76, 15.182 ], [ 73.764, 15.17 ], [ 73.756, 15.16 ], [ 73.76, 15.148 ], [ 73.751, 15.138 ], [ 73.755, 15.126 ], [ 73.747, 15.116 ], [ 73.751, 15.104 ], [ 73.743, 15.094 ], [ 73.747, 15.082 ], [ 73.739, 15.072 ], [ 73.743, 15.06 ], [ 73.735, 15.051 ], [ 73.739, 15.039 ], [ 73.751, 15.036 ], [ 73.755, 15.024 ], [ 73.747, 15.014 ], [ 73.751, 15.002 ], [ 73.763, 15.0 ], [ 73.767, 14.988 ], [ 73.779, 14.986 ], [ 73.783, 14.974 ], [ 73.795, 14.972 ], [ 73.799, 14.96 ], [ 73.811, 14.958 ], [ 73.815, 14.946 ], [ 73.827, 14.944 ], [ 73.831, 14.932 ], [ 73.844, 14.93 ], [ 73.848, 14.917 ], [ 73.86, 14.915 ], [ 73.864, 14.903 ], [ 73.876, 14.901 ], [ 73.88, 14.889 ], [ 73.872, 14.879 ], [ 73.876, 14.867 ], [ 73.888, 14.865 ], [ 73.892, 14.853 ], [ 73.884, 14.843 ], [ 73.888, 14.831 ], [ 73.9, 14.829 ], [ 73.904, 14.817 ], [ 73.916, 14.815 ], [ 73.92, 14.803 ], [ 73.932, 14.8 ], [ 73.94, 14.81 ], [ 73.952, 14.808 ], [ 73.961, 14.818 ], [ 73.973, 14.816 ], [ 73.981, 14.826 ], [ 73.977, 14.838 ], [ 73.985, 14.848 ], [ 73.997, 14.846 ], [ 74.005, 14.856 ], [ 74.017, 14.853 ], [ 74.026, 14.863 ], [ 74.038, 14.861 ], [ 74.046, 14.871 ], [ 74.058, 14.869 ], [ 74.066, 14.879 ], [ 74.078, 14.877 ], [ 74.087, 14.887 ], [ 74.083, 14.899 ], [ 74.091, 14.909 ], [ 74.103, 14.906 ], [ 74.111, 14.916 ], [ 74.107, 14.928 ], [ 74.095, 14.931 ], [ 74.091, 14.943 ], [ 74.079, 14.945 ], [ 74.075, 14.957 ], [ 74.083, 14.967 ], [ 74.095, 14.965 ], [ 74.103, 14.975 ], [ 74.115, 14.972 ], [ 74.124, 14.982 ], [ 74.136, 14.98 ], [ 74.144, 14.99 ], [ 74.156, 14.988 ], [ 74.164, 14.998 ], [ 74.176, 14.996 ], [ 74.185, 15.006 ], [ 74.181, 15.018 ], [ 74.168, 15.02 ], [ 74.164, 15.032 ], [ 74.152, 15.034 ], [ 74.148, 15.046 ], [ 74.136, 15.048 ], [ 74.128, 15.038 ], [ 74.116, 15.04 ], [ 74.108, 15.031 ], [ 74.095, 15.033 ], [ 74.091, 15.045 ], [ 74.079, 15.047 ], [ 74.071, 15.037 ], [ 74.059, 15.039 ], [ 74.051, 15.029 ], [ 74.039, 15.031 ], [ 74.035, 15.043 ], [ 74.022, 15.046 ], [ 74.018, 15.058 ], [ 74.006, 15.06 ], [ 74.002, 15.072 ], [ 74.01, 15.082 ], [ 74.023, 15.08 ] ] ] ] } },
{ "type": "Feature", "properties": { "POLYGON.ID": 321.0, "subregion": "IN-GA-Goa--Ghats", "FILTER": "Goa", "POLYGON": "IN-GA-Goa--Ghats", "COUNTY": "spl_region", "STATE": "Goa", "OWNER": null }, "geometry": { "type": "MultiPolygon", "coordinates": [ [ [ [ 74.277, 15.421 ], [ 74.285, 15.431 ], [ 74.281, 15.443 ], [ 74.269, 15.445 ], [ 74.265, 15.457 ], [ 74.273, 15.467 ], [ 74.269, 15.479 ], [ 74.257, 15.481 ], [ 74.253, 15.493 ], [ 74.261, 15.503 ], [ 74.273, 15.501 ], [ 74.281, 15.511 ], [ 74.277, 15.523 ], [ 74.285, 15.533 ], [ 74.281, 15.545 ], [ 74.269, 15.547 ], [ 74.265, 15.559 ], [ 74.253, 15.562 ], [ 74.249, 15.574 ], [ 74.257, 15.584 ], [ 74.253, 15.596 ], [ 74.261, 15.605 ], [ 74.257, 15.618 ], [ 74.245, 15.62 ], [ 74.241, 15.632 ], [ 74.249, 15.642 ], [ 74.245, 15.654 ], [ 74.233, 15.656 ], [ 74.229, 15.668 ], [ 74.217, 15.67 ], [ 74.209, 15.66 ], [ 74.196, 15.662 ], [ 74.192, 15.674 ], [ 74.18, 15.676 ], [ 74.172, 15.666 ], [ 74.16, 15.668 ], [ 74.152, 15.658 ], [ 74.139, 15.66 ], [ 74.131, 15.651 ], [ 74.119, 15.653 ], [ 74.111, 15.643 ], [ 74.099, 15.645 ], [ 74.09, 15.635 ], [ 74.078, 15.637 ], [ 74.07, 15.627 ], [ 74.058, 15.629 ], [ 74.05, 15.619 ], [ 74.037, 15.621 ], [ 74.029, 15.611 ], [ 74.017, 15.613 ], [ 74.009, 15.603 ], [ 73.997, 15.606 ], [ 73.993, 15.618 ], [ 73.981, 15.62 ], [ 73.977, 15.632 ], [ 73.964, 15.634 ], [ 73.96, 15.646 ], [ 73.969, 15.656 ], [ 73.965, 15.668 ], [ 73.973, 15.678 ], [ 73.969, 15.69 ], [ 73.957, 15.692 ], [ 73.953, 15.704 ], [ 73.94, 15.706 ], [ 73.936, 15.718 ], [ 73.944, 15.728 ], [ 73.94, 15.74 ], [ 73.928, 15.742 ], [ 73.924, 15.754 ], [ 73.912, 15.756 ], [ 73.904, 15.746 ], [ 73.892, 15.748 ], [ 73.884, 15.738 ], [ 73.888, 15.726 ], [ 73.879, 15.716 ], [ 73.883, 15.704 ], [ 73.875, 15.694 ], [ 73.879, 15.682 ], [ 73.891, 15.68 ], [ 73.895, 15.668 ], [ 73.887, 15.658 ], [ 73.891, 15.646 ], [ 73.904, 15.644 ], [ 73.908, 15.632 ], [ 73.92, 15.63 ], [ 73.924, 15.618 ], [ 73.936, 15.616 ], [ 73.94, 15.604 ], [ 73.952, 15.602 ], [ 73.956, 15.59 ], [ 73.968, 15.588 ], [ 73.972, 15.576 ], [ 73.964, 15.566 ], [ 73.968, 15.554 ], [ 73.96, 15.544 ], [ 73.964, 15.532 ], [ 73.956, 15.522 ], [ 73.96, 15.51 ], [ 73.972, 15.508 ], [ 73.976, 15.496 ], [ 73.968, 15.486 ], [ 73.972, 15.474 ], [ 73.984, 15.472 ], [ 73.988, 15.46 ], [ 73.98, 15.45 ], [ 73.984, 15.438 ], [ 73.976, 15.428 ], [ 73.98, 15.416 ], [ 73.992, 15.414 ], [ 74.0, 15.424 ], [ 74.012, 15.422 ], [ 74.016, 15.41 ], [ 74.008, 15.4 ], [ 74.012, 15.388 ], [ 74.004, 15.378 ], [ 74.008, 15.366 ], [ 74.02, 15.364 ], [ 74.024, 15.352 ], [ 74.036, 15.349 ], [ 74.044, 15.359 ], [ 74.04, 15.371 ], [ 74.048, 15.381 ], [ 74.061, 15.379 ], [ 74.065, 15.367 ], [ 74.077, 15.365 ], [ 74.081, 15.353 ], [ 74.093, 15.351 ], [ 74.097, 15.339 ], [ 74.109, 15.337 ], [ 74.113, 15.325 ], [ 74.125, 15.323 ], [ 74.134, 15.333 ], [ 74.146, 15.33 ], [ 74.15, 15.318 ], [ 74.162, 15.316 ], [ 74.166, 15.304 ], [ 74.178, 15.302 ], [ 74.182, 15.29 ], [ 74.194, 15.288 ], [ 74.198, 15.276 ], [ 74.19, 15.266 ], [ 74.194, 15.254 ], [ 74.186, 15.244 ], [ 74.19, 15.232 ], [ 74.182, 15.222 ], [ 74.17, 15.224 ], [ 74.161, 15.214 ], [ 74.149, 15.216 ], [ 74.141, 15.206 ], [ 74.129, 15.208 ], [ 74.121, 15.199 ], [ 74.125, 15.187 ], [ 74.116, 15.177 ], [ 74.104, 15.179 ], [ 74.1, 15.191 ], [ 74.088, 15.193 ], [ 74.08, 15.183 ], [ 74.068, 15.185 ], [ 74.064, 15.197 ], [ 74.052, 15.199 ], [ 74.048, 15.211 ], [ 74.056, 15.221 ], [ 74.052, 15.233 ], [ 74.04, 15.235 ], [ 74.036, 15.247 ], [ 74.023, 15.25 ], [ 74.015, 15.24 ], [ 74.003, 15.242 ], [ 73.995, 15.232 ], [ 73.999, 15.22 ], [ 74.011, 15.218 ], [ 74.015, 15.206 ], [ 74.007, 15.196 ], [ 74.011, 15.184 ], [ 74.023, 15.182 ], [ 74.027, 15.17 ], [ 74.039, 15.167 ], [ 74.043, 15.155 ], [ 74.055, 15.153 ], [ 74.059, 15.141 ], [ 74.051, 15.131 ], [ 74.055, 15.119 ], [ 74.047, 15.109 ], [ 74.051, 15.097 ], [ 74.043, 15.087 ], [ 74.031, 15.089 ], [ 74.023, 15.08 ], [ 74.01, 15.082 ], [ 74.002, 15.072 ], [ 74.006, 15.06 ], [ 74.018, 15.058 ], [ 74.022, 15.046 ], [ 74.035, 15.043 ], [ 74.039, 15.031 ], [ 74.051, 15.029 ], [ 74.059, 15.039 ], [ 74.071, 15.037 ], [ 74.079, 15.047 ], [ 74.091, 15.045 ], [ 74.095, 15.033 ], [ 74.108, 15.031 ], [ 74.116, 15.04 ], [ 74.128, 15.038 ], [ 74.136, 15.048 ], [ 74.148, 15.046 ], [ 74.152, 15.034 ], [ 74.164, 15.032 ], [ 74.168, 15.02 ], [ 74.181, 15.018 ], [ 74.185, 15.006 ], [ 74.176, 14.996 ], [ 74.164, 14.998 ], [ 74.156, 14.988 ], [ 74.144, 14.99 ], [ 74.136, 14.98 ], [ 74.124, 14.982 ], [ 74.115, 14.972 ], [ 74.103, 14.975 ], [ 74.095, 14.965 ], [ 74.083, 14.967 ], [ 74.075, 14.957 ], [ 74.079, 14.945 ], [ 74.091, 14.943 ], [ 74.095, 14.931 ], [ 74.107, 14.928 ], [ 74.111, 14.916 ], [ 74.123, 14.914 ], [ 74.131, 14.924 ], [ 74.144, 14.922 ], [ 74.148, 14.91 ], [ 74.16, 14.908 ], [ 74.168, 14.918 ], [ 74.164, 14.93 ], [ 74.172, 14.94 ], [ 74.168, 14.952 ], [ 74.176, 14.962 ], [ 74.188, 14.96 ], [ 74.192, 14.947 ], [ 74.205, 14.945 ], [ 74.209, 14.933 ], [ 74.221, 14.931 ], [ 74.229, 14.941 ], [ 74.225, 14.953 ], [ 74.233, 14.963 ], [ 74.245, 14.961 ], [ 74.254, 14.971 ], [ 74.266, 14.969 ], [ 74.274, 14.978 ], [ 74.27, 14.991 ], [ 74.258, 14.993 ], [ 74.254, 15.005 ], [ 74.262, 15.015 ], [ 74.274, 15.013 ], [ 74.282, 15.022 ], [ 74.278, 15.035 ], [ 74.287, 15.044 ], [ 74.283, 15.057 ], [ 74.291, 15.066 ], [ 74.287, 15.079 ], [ 74.275, 15.081 ], [ 74.271, 15.093 ], [ 74.279, 15.103 ], [ 74.275, 15.115 ], [ 74.283, 15.125 ], [ 74.279, 15.137 ], [ 74.287, 15.147 ], [ 74.299, 15.145 ], [ 74.308, 15.154 ], [ 74.304, 15.167 ], [ 74.312, 15.176 ], [ 74.308, 15.189 ], [ 74.316, 15.198 ], [ 74.312, 15.211 ], [ 74.3, 15.213 ], [ 74.296, 15.225 ], [ 74.284, 15.227 ], [ 74.28, 15.239 ], [ 74.267, 15.241 ], [ 74.263, 15.253 ], [ 74.272, 15.263 ], [ 74.268, 15.275 ], [ 74.276, 15.285 ], [ 74.288, 15.283 ], [ 74.296, 15.293 ], [ 74.308, 15.291 ], [ 74.312, 15.279 ], [ 74.325, 15.277 ], [ 74.333, 15.286 ], [ 74.329, 15.299 ], [ 74.337, 15.308 ], [ 74.333, 15.32 ], [ 74.321, 15.323 ], [ 74.317, 15.335 ], [ 74.325, 15.345 ], [ 74.321, 15.357 ], [ 74.309, 15.359 ], [ 74.305, 15.371 ], [ 74.293, 15.373 ], [ 74.289, 15.385 ], [ 74.276, 15.387 ], [ 74.272, 15.399 ], [ 74.281, 15.409 ], [ 74.277, 15.421 ] ] ] ] } }
]
}
