{
"type": "FeatureCollection",
"name": "Haryana",
"crs": { "type": "name", "properties": { "name": "urn:ogc:def:crs:OGC:1.3:CRS84" } },
"features": [
{ "type": "Feature", "properties": { "POLYGON.ID": 40.0, "subregion": "India--Haryana--Panchkula--Plains", "POLYGON": "India--Haryana--Panchkula--Plains", "SHOW": "1", "FILTER": "Not-Assigned", "FILTER.ID": null, "OLD.POLYGON": null, "STATE": "Haryana", "COUNTY": "Panchkula", "OWNER": null }, "geometry": { "type": "MultiPolygon", "coordinates": [ [ [ [ 76.977, 30.48 ], [ 76.992, 30.479 ], [ 76.998, 30.467 ], [ 77.014, 30.466 ], [ 77.023, 30.477 ], [ 77.038, 30.475 ], [ 77.047, 30.486 ], [ 77.041, 30.497 ], [ 77.051, 30.508 ], [ 77.045, 30.52 ], [ 77.054, 30.53 ], [ 77.048, 30.542 ], [ 77.057, 30.552 ], [ 77.072, 30.551 ], [ 77.082, 30.561 ], [ 77.097, 30.56 ], [ 77.106, 30.571 ], [ 77.1, 30.582 ], [ 77.085, 30.584 ], [ 77.079, 30.595 ], [ 77.064, 30.597 ], [ 77.057, 30.609 ], [ 77.067, 30.619 ], [ 77.061, 30.631 ], [ 77.045, 30.632 ], [ 77.039, 30.644 ], [ 77.024, 30.645 ], [ 77.018, 30.657 ], [ 77.002, 30.658 ], [ 76.996, 30.67 ], [ 76.981, 30.671 ], [ 76.971, 30.661 ], [ 76.956, 30.662 ], [ 76.947, 30.652 ], [ 76.931, 30.653 ], [ 76.922, 30.642 ], [ 76.928, 30.631 ], [ 76.919, 30.62 ], [ 76.925, 30.608 ], [ 76.916, 30.598 ], [ 76.922, 30.586 ], [ 76.912, 30.576 ], [ 76.919, 30.564 ], [ 76.909, 30.554 ], [ 76.915, 30.542 ], [ 76.906, 30.531 ], [ 76.912, 30.52 ], [ 76.903, 30.509 ], [ 76.909, 30.497 ], [ 76.9, 30.487 ], [ 76.906, 30.475 ], [ 76.897, 30.465 ], [ 76.903, 30.453 ], [ 76.893, 30.443 ], [ 76.9, 30.431 ], [ 76.915, 30.43 ], [ 76.924, 30.44 ], [ 76.918, 30.452 ], [ 76.927, 30.462 ], [ 76.943, 30.461 ], [ 76.952, 30.471 ], [ 76.967, 30.47 ], [ 76.977, 30.48 ] ] ] ] } },
{ "type": "Feature", "properties": { "POLYGON.ID": 506.0, "subregion": "India--Haryana--Panchkula--Shivaliks", "POLYGON": "India--Haryana--Panchkula--Shivaliks", "SHOW": "1", "FILTER": "Not-Assigned", "FILTER.ID": null, "OLD.POLYGON": null, "STATE": "Haryana", "COUNTY": "Panchkula", "OWNER": null }, "geometry": { "type": "MultiPolygon", "coordinates": [ [ [ [ 76.922, 30.642 ], [ 76.931, 30.653 ], [ 76.947, 30.652 ], [ 76.956, 30.662 ], [ 76.971, 30.661 ], [ 76.981, 30.671 ], [ 76.996, 30.67 ], [ 77.002, 30.658 ], [ 77.018, 30.657 ], [ 77.024, 30.645 ], [ 77.039, 30.644 ], [ 77.045, 30.632 ], [ 77.061, 30.631 ], [ 77.067, 30.619 ], [ 77.057, 30.609 ], [ 77.064, 30.597 ], [ 77.079, 30.595 ], [ 77.085, 30.584 ], [ 77.1, 30.582 ], [ 77.106, 30.571 ], [ 77.122, 30.569 ], [ 77.128, 30.558 ], [ 77.143, 30.556 ], [ 77.153, 30.567 ], [ 77.147, 30.578 ], [ 77.156, 30.589 ], [ 77.171, 30.588 ], [ 77.181, 30.598 ], [ 77.175, 30.61 ], [ 77.184, 30.62 ], [ 77.178, 30.632 ], [ 77.187, 30.642 ], [ 77.181, 30.654 ], [ 77.166, 30.656 ], [ 77.16, 30.667 ], [ 77.169, 30.678 ], [ 77.163, 30.69 ], [ 77.147, 30.691 ], [ 77.141, 30.703 ], [ 77.126, 30.704 ], [ 77.12, 30.716 ], [ 77.129, 30.726 ], [ 77.123, 30.738 ], [ 77.108, 30.739 ], [ 77.102, 30.751 ], [ 77.086, 30.752 ], [ 77.08, 30.764 ], [ 77.065, 30.765 ], [ 77.055, 30.755 ], [ 77.04, 30.756 ], [ 77.034, 30.768 ], [ 77.018, 30.769 ], [ 77.012, 30.781 ], [ 77.021, 30.792 ], [ 77.015, 30.803 ], [ 77.0, 30.805 ], [ 76.994, 30.817 ], [ 76.978, 30.818 ], [ 76.972, 30.83 ], [ 76.957, 30.831 ], [ 76.951, 30.843 ], [ 76.96, 30.853 ], [ 76.954, 30.865 ], [ 76.938, 30.866 ], [ 76.932, 30.878 ], [ 76.917, 30.879 ], [ 76.907, 30.869 ], [ 76.914, 30.857 ], [ 76.904, 30.847 ], [ 76.91, 30.835 ], [ 76.926, 30.834 ], [ 76.932, 30.822 ], [ 76.923, 30.811 ], [ 76.929, 30.799 ], [ 76.919, 30.789 ], [ 76.926, 30.777 ], [ 76.941, 30.776 ], [ 76.947, 30.764 ], [ 76.963, 30.763 ], [ 76.969, 30.751 ], [ 76.959, 30.741 ], [ 76.944, 30.742 ], [ 76.935, 30.731 ], [ 76.919, 30.733 ], [ 76.913, 30.744 ], [ 76.898, 30.746 ], [ 76.892, 30.758 ], [ 76.901, 30.768 ], [ 76.895, 30.78 ], [ 76.879, 30.781 ], [ 76.873, 30.793 ], [ 76.882, 30.803 ], [ 76.876, 30.815 ], [ 76.886, 30.826 ], [ 76.879, 30.837 ], [ 76.864, 30.839 ], [ 76.858, 30.85 ], [ 76.842, 30.852 ], [ 76.836, 30.864 ], [ 76.845, 30.874 ], [ 76.839, 30.886 ], [ 76.824, 30.887 ], [ 76.818, 30.899 ], [ 76.802, 30.9 ], [ 76.796, 30.912 ], [ 76.781, 30.913 ], [ 76.771, 30.903 ], [ 76.777, 30.891 ], [ 76.768, 30.88 ], [ 76.774, 30.869 ], [ 76.79, 30.867 ], [ 76.796, 30.856 ], [ 76.811, 30.854 ], [ 76.818, 30.843 ], [ 76.833, 30.841 ], [ 76.839, 30.829 ], [ 76.855, 30.828 ], [ 76.861, 30.816 ], [ 76.851, 30.806 ], [ 76.858, 30.794 ], [ 76.848, 30.784 ], [ 76.854, 30.772 ], [ 76.845, 30.761 ], [ 76.83, 30.763 ], [ 76.82, 30.752 ], [ 76.827, 30.74 ], [ 76.842, 30.739 ], [ 76.848, 30.727 ], [ 76.864, 30.726 ], [ 76.87, 30.714 ], [ 76.885, 30.713 ], [ 76.891, 30.701 ], [ 76.882, 30.691 ], [ 76.888, 30.679 ], [ 76.879, 30.669 ], [ 76.885, 30.657 ], [ 76.876, 30.646 ], [ 76.882, 30.635 ], [ 76.897, 30.633 ], [ 76.903, 30.621 ], [ 76.919, 30.62 ], [ 76.928, 30.631 ], [ 76.922, 30.642 ] ] ] ] } },
{ "type": "Feature", "properties": { "POLYGON.ID": 507.0, "subregion": "India--Haryana--Yamunanagar--Shivaliks", "POLYGON": "India--Haryana--Yamunanagar--Shivaliks", "SHOW": "1", "FILTER": "Not-Assigned", "FILTER.ID": null, "OLD.POLYGON": null, "STATE": "Haryana", "COUNTY": "Yamunanagar", "OWNER": null }, "geometry": { "type": "MultiPolygon", "coordinates": [ [ [ [ 77.315, 30.452 ], [ 77.321, 30.44 ], [ 77.336, 30.439 ], [ 77.345, 30.449 ], [ 77.361, 30.448 ], [ 77.367, 30.436 ], [ 77.382, 30.435 ], [ 77.388, 30.423 ], [ 77.379, 30.412 ], [ 77.385, 30.401 ], [ 77.4, 30.399 ], [ 77.409, 30.41 ], [ 77.425, 30.408 ], [ 77.434, 30.419 ], [ 77.449, 30.417 ], [ 77.459, 30.428 ], [ 77.474, 30.426 ], [ 77.483, 30.437 ], [ 77.477, 30.449 ], [ 77.462, 30.45 ], [ 77.456, 30.462 ], [ 77.441, 30.463 ], [ 77.431, 30.453 ], [ 77.437, 30.441 ], [ 77.428, 30.431 ], [ 77.413, 30.432 ], [ 77.407, 30.444 ], [ 77.391, 30.445 ], [ 77.385, 30.457 ], [ 77.37, 30.458 ], [ 77.364, 30.47 ], [ 77.349, 30.471 ], [ 77.339, 30.461 ], [ 77.324, 30.462 ], [ 77.318, 30.474 ], [ 77.303, 30.475 ], [ 77.293, 30.465 ], [ 77.299, 30.453 ], [ 77.315, 30.452 ] ] ], [ [ [ 77.232, 30.47 ], [ 77.247, 30.469 ], [ 77.253, 30.457 ], [ 77.269, 30.456 ], [ 77.278, 30.466 ], [ 77.272, 30.478 ], [ 77.257, 30.479 ], [ 77.25, 30.491 ], [ 77.235, 30.492 ], [ 77.226, 30.482 ], [ 77.21, 30.483 ], [ 77.201, 30.473 ], [ 77.207, 30.461 ], [ 77.223, 30.46 ], [ 77.232, 30.47 ] ] ], [ [ [ 77.421, 30.386 ], [ 77.427, 30.374 ], [ 77.418, 30.364 ], [ 77.403, 30.365 ], [ 77.393, 30.355 ], [ 77.399, 30.343 ], [ 77.415, 30.342 ], [ 77.424, 30.352 ], [ 77.439, 30.351 ], [ 77.449, 30.361 ], [ 77.464, 30.36 ], [ 77.47, 30.348 ], [ 77.485, 30.347 ], [ 77.491, 30.335 ], [ 77.507, 30.334 ], [ 77.513, 30.322 ], [ 77.528, 30.321 ], [ 77.534, 30.309 ], [ 77.549, 30.308 ], [ 77.559, 30.318 ], [ 77.553, 30.33 ], [ 77.562, 30.34 ], [ 77.577, 30.339 ], [ 77.587, 30.349 ], [ 77.581, 30.361 ], [ 77.565, 30.362 ], [ 77.559, 30.374 ], [ 77.569, 30.384 ], [ 77.563, 30.396 ], [ 77.547, 30.398 ], [ 77.541, 30.409 ], [ 77.551, 30.42 ], [ 77.545, 30.431 ], [ 77.53, 30.433 ], [ 77.524, 30.445 ], [ 77.508, 30.446 ], [ 77.499, 30.436 ], [ 77.505, 30.424 ], [ 77.495, 30.413 ], [ 77.48, 30.415 ], [ 77.471, 30.404 ], [ 77.455, 30.406 ], [ 77.446, 30.395 ], [ 77.431, 30.397 ], [ 77.421, 30.386 ] ] ] ] } },
{ "type": "Feature", "properties": { "POLYGON.ID": 508.0, "subregion": "India--Haryana--Gurgaon--Aravalli", "POLYGON": "India--Haryana--Gurgaon--Aravalli", "SHOW": "1", "FILTER": "India--Haryana--Gurgaon--Aravalli", "FILTER.ID": null, "OLD.POLYGON": null, "STATE": "Haryana", "COUNTY": "Aravalli", "OWNER": null }, "geometry": { "type": "MultiPolygon", "coordinates": [ [ [ [ 77.157, 28.388 ], [ 77.172, 28.386 ], [ 77.181, 28.396 ], [ 77.175, 28.408 ], [ 77.184, 28.418 ], [ 77.179, 28.43 ], [ 77.188, 28.44 ], [ 77.182, 28.451 ], [ 77.167, 28.453 ], [ 77.161, 28.464 ], [ 77.146, 28.465 ], [ 77.14, 28.477 ], [ 77.149, 28.487 ], [ 77.143, 28.499 ], [ 77.152, 28.509 ], [ 77.146, 28.52 ], [ 77.155, 28.531 ], [ 77.15, 28.542 ], [ 77.159, 28.552 ], [ 77.153, 28.564 ], [ 77.138, 28.565 ], [ 77.129, 28.555 ], [ 77.114, 28.556 ], [ 77.105, 28.546 ], [ 77.111, 28.534 ], [ 77.102, 28.524 ], [ 77.108, 28.513 ], [ 77.098, 28.502 ], [ 77.104, 28.491 ], [ 77.095, 28.481 ], [ 77.101, 28.469 ], [ 77.092, 28.459 ], [ 77.098, 28.447 ], [ 77.089, 28.437 ], [ 77.095, 28.426 ], [ 77.086, 28.415 ], [ 77.092, 28.404 ], [ 77.083, 28.394 ], [ 77.089, 28.382 ], [ 77.08, 28.372 ], [ 77.086, 28.361 ], [ 77.101, 28.359 ], [ 77.106, 28.348 ], [ 77.097, 28.338 ], [ 77.103, 28.326 ], [ 77.094, 28.316 ], [ 77.1, 28.304 ], [ 77.115, 28.303 ], [ 77.121, 28.292 ], [ 77.112, 28.282 ], [ 77.118, 28.27 ], [ 77.133, 28.269 ], [ 77.138, 28.257 ], [ 77.153, 28.256 ], [ 77.162, 28.266 ], [ 77.156, 28.278 ], [ 77.165, 28.288 ], [ 77.18, 28.287 ], [ 77.189, 28.297 ], [ 77.184, 28.308 ], [ 77.169, 28.31 ], [ 77.163, 28.321 ], [ 77.148, 28.322 ], [ 77.142, 28.334 ], [ 77.151, 28.344 ], [ 77.145, 28.356 ], [ 77.154, 28.366 ], [ 77.148, 28.377 ], [ 77.157, 28.388 ] ] ], [ [ [ 76.895, 28.343 ], [ 76.901, 28.332 ], [ 76.892, 28.322 ], [ 76.898, 28.31 ], [ 76.913, 28.309 ], [ 76.922, 28.319 ], [ 76.936, 28.318 ], [ 76.942, 28.307 ], [ 76.957, 28.305 ], [ 76.966, 28.316 ], [ 76.981, 28.314 ], [ 76.99, 28.325 ], [ 77.005, 28.323 ], [ 77.011, 28.312 ], [ 77.002, 28.302 ], [ 77.008, 28.29 ], [ 76.999, 28.28 ], [ 77.005, 28.268 ], [ 76.996, 28.258 ], [ 77.002, 28.247 ], [ 77.016, 28.246 ], [ 77.022, 28.234 ], [ 77.037, 28.233 ], [ 77.046, 28.243 ], [ 77.061, 28.242 ], [ 77.07, 28.252 ], [ 77.064, 28.264 ], [ 77.049, 28.265 ], [ 77.043, 28.276 ], [ 77.052, 28.286 ], [ 77.047, 28.298 ], [ 77.056, 28.308 ], [ 77.05, 28.32 ], [ 77.059, 28.33 ], [ 77.074, 28.329 ], [ 77.083, 28.339 ], [ 77.077, 28.35 ], [ 77.062, 28.352 ], [ 77.056, 28.363 ], [ 77.041, 28.364 ], [ 77.032, 28.354 ], [ 77.017, 28.355 ], [ 77.011, 28.367 ], [ 76.996, 28.368 ], [ 76.99, 28.379 ], [ 76.975, 28.381 ], [ 76.966, 28.37 ], [ 76.952, 28.372 ], [ 76.943, 28.361 ], [ 76.928, 28.363 ], [ 76.919, 28.352 ], [ 76.904, 28.354 ], [ 76.895, 28.343 ] ] ], [ [ [ 77.006, 28.488 ], [ 77.012, 28.477 ], [ 77.027, 28.475 ], [ 77.033, 28.464 ], [ 77.047, 28.463 ], [ 77.057, 28.473 ], [ 77.071, 28.472 ], [ 77.08, 28.482 ], [ 77.075, 28.493 ], [ 77.084, 28.504 ], [ 77.078, 28.515 ], [ 77.063, 28.516 ], [ 77.054, 28.506 ], [ 77.039, 28.507 ], [ 77.03, 28.497 ], [ 77.015, 28.498 ], [ 77.006, 28.488 ] ] ] ] } },
{ "type": "Feature", "properties": { "POLYGON.ID": 509.0, "subregion": "India--Haryana--Rewari--Aravalli", "POLYGON": "India--Haryana--Rewari--Aravalli", "SHOW": "1", "FILTER": "Not-Assigned", "FILTER.ID": null, "OLD.POLYGON": null, "STATE": "Haryana", "COUNTY": "Rewari", "OWNER": null }, "geometry": { "type": "MultiPolygon", "coordinates": [ [ [ [ 76.502, 28.221 ], [ 76.496, 28.233 ], [ 76.481, 28.234 ], [ 76.472, 28.224 ], [ 76.478, 28.212 ], [ 76.469, 28.202 ], [ 76.454, 28.203 ], [ 76.445, 28.193 ], [ 76.451, 28.182 ], [ 76.442, 28.171 ], [ 76.427, 28.172 ], [ 76.421, 28.184 ], [ 76.43, 28.194 ], [ 76.424, 28.206 ], [ 76.433, 28.216 ], [ 76.427, 28.227 ], [ 76.436, 28.238 ], [ 76.43, 28.249 ], [ 76.439, 28.259 ], [ 76.433, 28.271 ], [ 76.442, 28.281 ], [ 76.457, 28.28 ], [ 76.466, 28.29 ], [ 76.46, 28.302 ], [ 76.469, 28.312 ], [ 76.463, 28.323 ], [ 76.448, 28.324 ], [ 76.439, 28.314 ], [ 76.424, 28.315 ], [ 76.415, 28.305 ], [ 76.421, 28.294 ], [ 76.412, 28.283 ], [ 76.397, 28.284 ], [ 76.388, 28.274 ], [ 76.394, 28.263 ], [ 76.409, 28.262 ], [ 76.415, 28.25 ], [ 76.406, 28.24 ], [ 76.391, 28.241 ], [ 76.383, 28.231 ], [ 76.368, 28.232 ], [ 76.359, 28.222 ], [ 76.365, 28.21 ], [ 76.356, 28.2 ], [ 76.362, 28.189 ], [ 76.353, 28.178 ], [ 76.359, 28.167 ], [ 76.35, 28.157 ], [ 76.356, 28.145 ], [ 76.347, 28.135 ], [ 76.332, 28.136 ], [ 76.324, 28.126 ], [ 76.33, 28.114 ], [ 76.321, 28.104 ], [ 76.306, 28.105 ], [ 76.297, 28.095 ], [ 76.303, 28.084 ], [ 76.294, 28.073 ], [ 76.3, 28.062 ], [ 76.315, 28.061 ], [ 76.324, 28.071 ], [ 76.339, 28.07 ], [ 76.348, 28.08 ], [ 76.362, 28.079 ], [ 76.371, 28.089 ], [ 76.365, 28.101 ], [ 76.374, 28.111 ], [ 76.389, 28.11 ], [ 76.398, 28.12 ], [ 76.392, 28.131 ], [ 76.401, 28.142 ], [ 76.416, 28.141 ], [ 76.425, 28.151 ], [ 76.439, 28.15 ], [ 76.445, 28.138 ], [ 76.437, 28.128 ], [ 76.442, 28.116 ], [ 76.434, 28.106 ], [ 76.419, 28.107 ], [ 76.41, 28.097 ], [ 76.416, 28.086 ], [ 76.407, 28.075 ], [ 76.392, 28.077 ], [ 76.383, 28.066 ], [ 76.389, 28.055 ], [ 76.38, 28.045 ], [ 76.386, 28.033 ], [ 76.377, 28.023 ], [ 76.383, 28.012 ], [ 76.375, 28.001 ], [ 76.381, 27.99 ], [ 76.372, 27.98 ], [ 76.378, 27.968 ], [ 76.369, 27.958 ], [ 76.375, 27.947 ], [ 76.366, 27.936 ], [ 76.372, 27.925 ], [ 76.363, 27.915 ], [ 76.369, 27.903 ], [ 76.384, 27.902 ], [ 76.39, 27.891 ], [ 76.405, 27.89 ], [ 76.414, 27.9 ], [ 76.408, 27.911 ], [ 76.416, 27.922 ], [ 76.41, 27.933 ], [ 76.419, 27.943 ], [ 76.413, 27.955 ], [ 76.422, 27.965 ], [ 76.416, 27.976 ], [ 76.425, 27.987 ], [ 76.419, 27.998 ], [ 76.428, 28.008 ], [ 76.443, 28.007 ], [ 76.452, 28.017 ], [ 76.446, 28.029 ], [ 76.455, 28.039 ], [ 76.469, 28.038 ], [ 76.478, 28.048 ], [ 76.472, 28.059 ], [ 76.481, 28.07 ], [ 76.496, 28.068 ], [ 76.505, 28.079 ], [ 76.499, 28.09 ], [ 76.508, 28.1 ], [ 76.502, 28.112 ], [ 76.511, 28.122 ], [ 76.505, 28.133 ], [ 76.514, 28.144 ], [ 76.508, 28.155 ], [ 76.517, 28.165 ], [ 76.511, 28.177 ], [ 76.496, 28.178 ], [ 76.49, 28.189 ], [ 76.499, 28.2 ], [ 76.514, 28.199 ], [ 76.523, 28.209 ], [ 76.517, 28.22 ], [ 76.502, 28.221 ] ] ] ] } },
{ "type": "Feature", "properties": { "POLYGON.ID": 510.0, "subregion": "India--Haryana--Nuh--Aravalli", "POLYGON": "India--Haryana--Nuh--Aravalli", "SHOW": "1", "FILTER": "Not-Assigned", "FILTER.ID": null, "OLD.POLYGON": null, "STATE": "Haryana", "COUNTY": "Nuh", "OWNER": null }, "geometry": { "type": "MultiPolygon", "coordinates": [ [ [ [ 77.061, 28.242 ], [ 77.046, 28.243 ], [ 77.037, 28.233 ], [ 77.022, 28.234 ], [ 77.016, 28.246 ], [ 77.002, 28.247 ], [ 76.993, 28.237 ], [ 76.999, 28.225 ], [ 76.99, 28.215 ], [ 76.995, 28.203 ], [ 76.986, 28.193 ], [ 76.972, 28.194 ], [ 76.963, 28.184 ], [ 76.969, 28.173 ], [ 76.96, 28.163 ], [ 76.945, 28.164 ], [ 76.936, 28.154 ], [ 76.921, 28.155 ], [ 76.912, 28.145 ], [ 76.897, 28.146 ], [ 76.888, 28.136 ], [ 76.894, 28.124 ], [ 76.885, 28.114 ], [ 76.891, 28.102 ], [ 76.906, 28.101 ], [ 76.912, 28.09 ], [ 76.903, 28.08 ], [ 76.909, 28.068 ], [ 76.9, 28.058 ], [ 76.906, 28.047 ], [ 76.897, 28.036 ], [ 76.903, 28.025 ], [ 76.894, 28.015 ], [ 76.9, 28.003 ], [ 76.891, 27.993 ], [ 76.876, 27.994 ], [ 76.867, 27.984 ], [ 76.873, 27.973 ], [ 76.864, 27.962 ], [ 76.87, 27.951 ], [ 76.861, 27.941 ], [ 76.867, 27.929 ], [ 76.858, 27.919 ], [ 76.864, 27.908 ], [ 76.855, 27.898 ], [ 76.861, 27.886 ], [ 76.852, 27.876 ], [ 76.858, 27.865 ], [ 76.849, 27.854 ], [ 76.855, 27.843 ], [ 76.869, 27.842 ], [ 76.875, 27.83 ], [ 76.866, 27.82 ], [ 76.872, 27.809 ], [ 76.863, 27.799 ], [ 76.869, 27.787 ], [ 76.86, 27.777 ], [ 76.866, 27.766 ], [ 76.857, 27.755 ], [ 76.863, 27.744 ], [ 76.854, 27.734 ], [ 76.86, 27.722 ], [ 76.851, 27.712 ], [ 76.857, 27.701 ], [ 76.848, 27.691 ], [ 76.854, 27.679 ], [ 76.869, 27.678 ], [ 76.875, 27.667 ], [ 76.889, 27.666 ], [ 76.898, 27.676 ], [ 76.892, 27.687 ], [ 76.901, 27.697 ], [ 76.916, 27.696 ], [ 76.925, 27.706 ], [ 76.919, 27.718 ], [ 76.928, 27.728 ], [ 76.922, 27.739 ], [ 76.931, 27.749 ], [ 76.925, 27.761 ], [ 76.934, 27.771 ], [ 76.928, 27.782 ], [ 76.937, 27.793 ], [ 76.952, 27.791 ], [ 76.961, 27.802 ], [ 76.955, 27.813 ], [ 76.964, 27.823 ], [ 76.958, 27.835 ], [ 76.967, 27.845 ], [ 76.961, 27.856 ], [ 76.97, 27.866 ], [ 76.964, 27.878 ], [ 76.973, 27.888 ], [ 76.967, 27.899 ], [ 76.976, 27.909 ], [ 76.97, 27.921 ], [ 76.956, 27.922 ], [ 76.95, 27.934 ], [ 76.959, 27.944 ], [ 76.953, 27.955 ], [ 76.962, 27.965 ], [ 76.956, 27.977 ], [ 76.965, 27.987 ], [ 76.959, 27.998 ], [ 76.968, 28.009 ], [ 76.962, 28.02 ], [ 76.971, 28.03 ], [ 76.965, 28.042 ], [ 76.974, 28.052 ], [ 76.968, 28.063 ], [ 76.977, 28.073 ], [ 76.971, 28.085 ], [ 76.98, 28.095 ], [ 76.974, 28.107 ], [ 76.983, 28.117 ], [ 76.977, 28.128 ], [ 76.986, 28.138 ], [ 77.001, 28.137 ], [ 77.01, 28.147 ], [ 77.004, 28.159 ], [ 77.013, 28.169 ], [ 77.028, 28.168 ], [ 77.037, 28.178 ], [ 77.052, 28.177 ], [ 77.061, 28.187 ], [ 77.055, 28.199 ], [ 77.064, 28.209 ], [ 77.058, 28.22 ], [ 77.067, 28.23 ], [ 77.061, 28.242 ] ] ], [ [ [ 77.094, 27.845 ], [ 77.079, 27.846 ], [ 77.073, 27.858 ], [ 77.082, 27.868 ], [ 77.097, 27.867 ], [ 77.106, 27.877 ], [ 77.1, 27.888 ], [ 77.109, 27.898 ], [ 77.103, 27.91 ], [ 77.112, 27.92 ], [ 77.107, 27.931 ], [ 77.115, 27.942 ], [ 77.13, 27.94 ], [ 77.139, 27.951 ], [ 77.133, 27.962 ], [ 77.142, 27.972 ], [ 77.136, 27.984 ], [ 77.122, 27.985 ], [ 77.113, 27.975 ], [ 77.098, 27.976 ], [ 77.089, 27.966 ], [ 77.095, 27.954 ], [ 77.086, 27.944 ], [ 77.092, 27.933 ], [ 77.083, 27.923 ], [ 77.068, 27.924 ], [ 77.059, 27.914 ], [ 77.065, 27.902 ], [ 77.056, 27.892 ], [ 77.062, 27.881 ], [ 77.053, 27.87 ], [ 77.059, 27.859 ], [ 77.05, 27.849 ], [ 77.035, 27.85 ], [ 77.026, 27.84 ], [ 77.032, 27.828 ], [ 77.023, 27.818 ], [ 77.008, 27.819 ], [ 76.999, 27.809 ], [ 77.005, 27.798 ], [ 76.996, 27.788 ], [ 77.002, 27.776 ], [ 76.993, 27.766 ], [ 76.999, 27.755 ], [ 76.99, 27.745 ], [ 76.975, 27.746 ], [ 76.966, 27.736 ], [ 76.972, 27.724 ], [ 76.963, 27.714 ], [ 76.969, 27.703 ], [ 76.96, 27.693 ], [ 76.966, 27.681 ], [ 76.957, 27.671 ], [ 76.963, 27.66 ], [ 76.978, 27.658 ], [ 76.987, 27.669 ], [ 76.981, 27.68 ], [ 76.99, 27.69 ], [ 76.984, 27.701 ], [ 76.993, 27.712 ], [ 76.987, 27.723 ], [ 76.996, 27.733 ], [ 77.011, 27.732 ], [ 77.02, 27.742 ], [ 77.034, 27.741 ], [ 77.043, 27.751 ], [ 77.058, 27.75 ], [ 77.067, 27.76 ], [ 77.061, 27.771 ], [ 77.046, 27.773 ], [ 77.041, 27.784 ], [ 77.026, 27.785 ], [ 77.02, 27.797 ], [ 77.029, 27.807 ], [ 77.044, 27.806 ], [ 77.053, 27.816 ], [ 77.067, 27.815 ], [ 77.073, 27.803 ], [ 77.088, 27.802 ], [ 77.097, 27.812 ], [ 77.112, 27.811 ], [ 77.121, 27.821 ], [ 77.135, 27.82 ], [ 77.144, 27.83 ], [ 77.138, 27.841 ], [ 77.124, 27.843 ], [ 77.115, 27.832 ], [ 77.1, 27.834 ], [ 77.094, 27.845 ] ] ], [ [ [ 76.999, 28.28 ], [ 77.008, 28.29 ], [ 77.002, 28.302 ], [ 77.011, 28.312 ], [ 77.005, 28.323 ], [ 76.99, 28.325 ], [ 76.981, 28.314 ], [ 76.966, 28.316 ], [ 76.957, 28.305 ], [ 76.963, 28.294 ], [ 76.978, 28.293 ], [ 76.984, 28.281 ], [ 76.999, 28.28 ] ] ] ] } },
{ "type": "Feature", "properties": { "POLYGON.ID": 511.0, "subregion": "India--Haryana--Faridabad--Aravalli", "POLYGON": "India--Haryana--Faridabad--Aravalli", "SHOW": "1", "FILTER": "Not-Assigned", "FILTER.ID": null, "OLD.POLYGON": null, "STATE": "Haryana", "COUNTY": "Faridabad", "OWNER": null }, "geometry": { "type": "MultiPolygon", "coordinates": [ [ [ [ 77.172, 28.386 ], [ 77.157, 28.388 ], [ 77.148, 28.377 ], [ 77.154, 28.366 ], [ 77.145, 28.356 ], [ 77.151, 28.344 ], [ 77.142, 28.334 ], [ 77.148, 28.322 ], [ 77.163, 28.321 ], [ 77.169, 28.31 ], [ 77.184, 28.308 ], [ 77.193, 28.319 ], [ 77.187, 28.33 ], [ 77.196, 28.34 ], [ 77.19, 28.352 ], [ 77.199, 28.362 ], [ 77.214, 28.361 ], [ 77.223, 28.371 ], [ 77.238, 28.37 ], [ 77.247, 28.38 ], [ 77.262, 28.379 ], [ 77.271, 28.389 ], [ 77.285, 28.388 ], [ 77.294, 28.398 ], [ 77.289, 28.409 ], [ 77.298, 28.42 ], [ 77.292, 28.431 ], [ 77.301, 28.441 ], [ 77.295, 28.453 ], [ 77.304, 28.463 ], [ 77.298, 28.475 ], [ 77.307, 28.485 ], [ 77.301, 28.496 ], [ 77.286, 28.498 ], [ 77.281, 28.509 ], [ 77.266, 28.51 ], [ 77.257, 28.5 ], [ 77.242, 28.501 ], [ 77.236, 28.513 ], [ 77.221, 28.514 ], [ 77.212, 28.504 ], [ 77.197, 28.505 ], [ 77.188, 28.495 ], [ 77.194, 28.483 ], [ 77.209, 28.482 ], [ 77.215, 28.471 ], [ 77.206, 28.46 ], [ 77.211, 28.449 ], [ 77.202, 28.439 ], [ 77.188, 28.44 ], [ 77.179, 28.43 ], [ 77.184, 28.418 ], [ 77.175, 28.408 ], [ 77.181, 28.396 ], [ 77.172, 28.386 ] ] ] ] } },
{ "type": "Feature", "properties": { "POLYGON.ID": 512.0, "subregion": "India--Haryana--Mahendragarh--Aravalli", "POLYGON": "India--Haryana--Mahendragarh--Aravalli", "SHOW": "1", "FILTER": "Not-Assigned", "FILTER.ID": null, "OLD.POLYGON": null, "STATE": "Haryana", "COUNTY": "Mahe", "OWNER": null }, "geometry": { "type": "MultiPolygon", "coordinates": [ [ [ [ 76.174, 27.842 ], [ 76.18, 27.831 ], [ 76.195, 27.83 ], [ 76.204, 27.84 ], [ 76.198, 27.851 ], [ 76.206, 27.861 ], [ 76.221, 27.86 ], [ 76.23, 27.871 ], [ 76.224, 27.882 ], [ 76.233, 27.892 ], [ 76.227, 27.904 ], [ 76.236, 27.914 ], [ 76.23, 27.925 ], [ 76.239, 27.935 ], [ 76.233, 27.947 ], [ 76.241, 27.957 ], [ 76.256, 27.956 ], [ 76.265, 27.966 ], [ 76.259, 27.978 ], [ 76.268, 27.988 ], [ 76.262, 27.999 ], [ 76.271, 28.009 ], [ 76.265, 28.021 ], [ 76.274, 28.031 ], [ 76.268, 28.043 ], [ 76.253, 28.044 ], [ 76.244, 28.033 ], [ 76.229, 28.035 ], [ 76.22, 28.024 ], [ 76.205, 28.025 ], [ 76.196, 28.015 ], [ 76.202, 28.004 ], [ 76.194, 27.994 ], [ 76.2, 27.982 ], [ 76.191, 27.972 ], [ 76.197, 27.96 ], [ 76.188, 27.95 ], [ 76.194, 27.939 ], [ 76.185, 27.929 ], [ 76.191, 27.917 ], [ 76.182, 27.907 ], [ 76.188, 27.896 ], [ 76.18, 27.885 ], [ 76.165, 27.886 ], [ 76.156, 27.876 ], [ 76.141, 27.877 ], [ 76.132, 27.867 ], [ 76.117, 27.868 ], [ 76.111, 27.88 ], [ 76.097, 27.881 ], [ 76.091, 27.892 ], [ 76.076, 27.893 ], [ 76.067, 27.883 ], [ 76.052, 27.884 ], [ 76.046, 27.895 ], [ 76.031, 27.897 ], [ 76.025, 27.908 ], [ 76.034, 27.918 ], [ 76.049, 27.917 ], [ 76.058, 27.927 ], [ 76.052, 27.939 ], [ 76.06, 27.949 ], [ 76.075, 27.948 ], [ 76.084, 27.958 ], [ 76.099, 27.957 ], [ 76.108, 27.967 ], [ 76.102, 27.979 ], [ 76.111, 27.989 ], [ 76.105, 28.0 ], [ 76.09, 28.001 ], [ 76.084, 28.013 ], [ 76.069, 28.014 ], [ 76.06, 28.004 ], [ 76.045, 28.005 ], [ 76.036, 27.995 ], [ 76.042, 27.983 ], [ 76.034, 27.973 ], [ 76.019, 27.974 ], [ 76.01, 27.964 ], [ 76.016, 27.952 ], [ 76.007, 27.942 ], [ 75.992, 27.943 ], [ 75.983, 27.933 ], [ 75.99, 27.922 ], [ 75.981, 27.911 ], [ 75.987, 27.9 ], [ 75.978, 27.89 ], [ 75.984, 27.878 ], [ 75.975, 27.868 ], [ 75.981, 27.857 ], [ 75.972, 27.846 ], [ 75.979, 27.835 ], [ 75.993, 27.834 ], [ 76.002, 27.844 ], [ 76.017, 27.843 ], [ 76.023, 27.832 ], [ 76.038, 27.831 ], [ 76.047, 27.841 ], [ 76.061, 27.84 ], [ 76.067, 27.828 ], [ 76.082, 27.827 ], [ 76.091, 27.837 ], [ 76.106, 27.836 ], [ 76.115, 27.847 ], [ 76.13, 27.845 ], [ 76.138, 27.856 ], [ 76.153, 27.855 ], [ 76.159, 27.843 ], [ 76.174, 27.842 ] ] ], [ [ [ 76.042, 28.334 ], [ 76.033, 28.323 ], [ 76.018, 28.325 ], [ 76.009, 28.314 ], [ 76.016, 28.303 ], [ 76.007, 28.293 ], [ 76.013, 28.281 ], [ 76.004, 28.271 ], [ 75.989, 28.272 ], [ 75.98, 28.262 ], [ 75.986, 28.25 ], [ 75.977, 28.24 ], [ 75.983, 28.228 ], [ 75.998, 28.227 ], [ 76.004, 28.216 ], [ 76.019, 28.215 ], [ 76.025, 28.203 ], [ 76.04, 28.202 ], [ 76.046, 28.191 ], [ 76.061, 28.19 ], [ 76.067, 28.178 ], [ 76.082, 28.177 ], [ 76.091, 28.187 ], [ 76.106, 28.186 ], [ 76.115, 28.197 ], [ 76.109, 28.208 ], [ 76.118, 28.218 ], [ 76.112, 28.23 ], [ 76.097, 28.231 ], [ 76.091, 28.242 ], [ 76.076, 28.243 ], [ 76.067, 28.233 ], [ 76.052, 28.234 ], [ 76.046, 28.246 ], [ 76.055, 28.256 ], [ 76.049, 28.267 ], [ 76.058, 28.278 ], [ 76.051, 28.289 ], [ 76.06, 28.299 ], [ 76.075, 28.298 ], [ 76.084, 28.309 ], [ 76.099, 28.307 ], [ 76.108, 28.318 ], [ 76.102, 28.329 ], [ 76.111, 28.34 ], [ 76.105, 28.351 ], [ 76.113, 28.361 ], [ 76.128, 28.36 ], [ 76.137, 28.37 ], [ 76.152, 28.369 ], [ 76.161, 28.38 ], [ 76.155, 28.391 ], [ 76.164, 28.401 ], [ 76.158, 28.413 ], [ 76.143, 28.414 ], [ 76.137, 28.425 ], [ 76.122, 28.427 ], [ 76.116, 28.438 ], [ 76.125, 28.448 ], [ 76.119, 28.46 ], [ 76.104, 28.461 ], [ 76.095, 28.451 ], [ 76.101, 28.439 ], [ 76.092, 28.429 ], [ 76.077, 28.43 ], [ 76.068, 28.42 ], [ 76.074, 28.408 ], [ 76.065, 28.398 ], [ 76.05, 28.399 ], [ 76.042, 28.389 ], [ 76.048, 28.377 ], [ 76.039, 28.367 ], [ 76.045, 28.356 ], [ 76.036, 28.345 ], [ 76.042, 28.334 ] ] ] ] } },
{ "type": "Feature", "properties": { "POLYGON.ID": 513.0, "subregion": "India--Haryana--Charki Dadri--Aravalli", "POLYGON": "India--Haryana--Charki Dadri--Aravalli", "SHOW": "1", "FILTER": "Not-Assigned", "FILTER.ID": null, "OLD.POLYGON": null, "STATE": "Haryana", "COUNTY": "Charki Dadri", "OWNER": null }, "geometry": { "type": "MultiPolygon", "coordinates": [ [ [ [ 76.172, 28.522 ], [ 76.181, 28.532 ], [ 76.196, 28.531 ], [ 76.205, 28.541 ], [ 76.199, 28.553 ], [ 76.208, 28.563 ], [ 76.202, 28.574 ], [ 76.187, 28.576 ], [ 76.178, 28.565 ], [ 76.163, 28.566 ], [ 76.154, 28.556 ], [ 76.16, 28.545 ], [ 76.151, 28.534 ], [ 76.157, 28.523 ], [ 76.148, 28.513 ], [ 76.154, 28.501 ], [ 76.145, 28.491 ], [ 76.151, 28.479 ], [ 76.166, 28.478 ], [ 76.175, 28.488 ], [ 76.169, 28.5 ], [ 76.178, 28.51 ], [ 76.172, 28.522 ] ] ], [ [ [ 76.162, 28.622 ], [ 76.168, 28.61 ], [ 76.183, 28.609 ], [ 76.192, 28.619 ], [ 76.186, 28.631 ], [ 76.171, 28.632 ], [ 76.162, 28.622 ] ] ], [ [ [ 76.029, 28.412 ], [ 76.044, 28.41 ], [ 76.05, 28.399 ], [ 76.065, 28.398 ], [ 76.074, 28.408 ], [ 76.068, 28.42 ], [ 76.077, 28.43 ], [ 76.071, 28.441 ], [ 76.08, 28.452 ], [ 76.074, 28.463 ], [ 76.059, 28.464 ], [ 76.05, 28.454 ], [ 76.035, 28.455 ], [ 76.026, 28.445 ], [ 76.032, 28.433 ], [ 76.023, 28.423 ], [ 76.029, 28.412 ] ] ], [ [ [ 76.091, 28.539 ], [ 76.106, 28.538 ], [ 76.115, 28.548 ], [ 76.13, 28.547 ], [ 76.139, 28.557 ], [ 76.133, 28.569 ], [ 76.142, 28.579 ], [ 76.136, 28.591 ], [ 76.121, 28.592 ], [ 76.115, 28.603 ], [ 76.1, 28.604 ], [ 76.091, 28.594 ], [ 76.076, 28.595 ], [ 76.067, 28.585 ], [ 76.073, 28.573 ], [ 76.064, 28.563 ], [ 76.07, 28.551 ], [ 76.085, 28.55 ], [ 76.091, 28.539 ] ] ] ] } },
{ "type": "Feature", "properties": { "POLYGON.ID": 540.0, "subregion": "India--Haryana--Yamunanagar--Plains", "POLYGON": "India--Haryana--Yamunanagar--Plains", "SHOW": "1", "FILTER": "Not-Assigned", "FILTER.ID": null, "OLD.POLYGON": null, "STATE": "Haryana", "COUNTY": "Yamunanagar", "OWNER": null }, "geometry": { "type": "MultiPolygon", "coordinates": [ [ [ [ 77.449, 30.361 ], [ 77.439, 30.351 ], [ 77.424, 30.352 ], [ 77.415, 30.342 ], [ 77.399, 30.343 ], [ 77.393, 30.355 ], [ 77.403, 30.365 ], [ 77.418, 30.364 ], [ 77.427, 30.374 ], [ 77.421, 30.386 ], [ 77.431, 30.397 ], [ 77.425, 30.408 ], [ 77.409, 30.41 ], [ 77.4, 30.399 ], [ 77.385, 30.401 ], [ 77.379, 30.412 ], [ 77.388, 30.423 ], [ 77.382, 30.435 ], [ 77.367, 30.436 ], [ 77.361, 30.448 ], [ 77.345, 30.449 ], [ 77.336, 30.439 ], [ 77.321, 30.44 ], [ 77.315, 30.452 ], [ 77.299, 30.453 ], [ 77.293, 30.465 ], [ 77.278, 30.466 ], [ 77.269, 30.456 ], [ 77.253, 30.457 ], [ 77.247, 30.469 ], [ 77.232, 30.47 ], [ 77.223, 30.46 ], [ 77.207, 30.461 ], [ 77.201, 30.473 ], [ 77.186, 30.474 ], [ 77.176, 30.464 ], [ 77.183, 30.452 ], [ 77.173, 30.441 ], [ 77.179, 30.43 ], [ 77.17, 30.419 ], [ 77.176, 30.407 ], [ 77.167, 30.397 ], [ 77.173, 30.385 ], [ 77.163, 30.375 ], [ 77.17, 30.363 ], [ 77.16, 30.353 ], [ 77.166, 30.341 ], [ 77.182, 30.34 ], [ 77.188, 30.328 ], [ 77.178, 30.317 ], [ 77.184, 30.306 ], [ 77.175, 30.295 ], [ 77.16, 30.297 ], [ 77.151, 30.286 ], [ 77.135, 30.288 ], [ 77.126, 30.277 ], [ 77.132, 30.265 ], [ 77.123, 30.255 ], [ 77.129, 30.243 ], [ 77.144, 30.242 ], [ 77.15, 30.23 ], [ 77.141, 30.22 ], [ 77.126, 30.221 ], [ 77.119, 30.233 ], [ 77.104, 30.234 ], [ 77.095, 30.224 ], [ 77.08, 30.225 ], [ 77.07, 30.215 ], [ 77.076, 30.203 ], [ 77.092, 30.202 ], [ 77.098, 30.19 ], [ 77.088, 30.179 ], [ 77.095, 30.168 ], [ 77.085, 30.157 ], [ 77.07, 30.159 ], [ 77.061, 30.148 ], [ 77.067, 30.137 ], [ 77.082, 30.135 ], [ 77.088, 30.124 ], [ 77.079, 30.113 ], [ 77.085, 30.101 ], [ 77.076, 30.091 ], [ 77.082, 30.079 ], [ 77.072, 30.069 ], [ 77.079, 30.057 ], [ 77.069, 30.047 ], [ 77.075, 30.035 ], [ 77.091, 30.034 ], [ 77.097, 30.022 ], [ 77.112, 30.021 ], [ 77.118, 30.009 ], [ 77.109, 29.999 ], [ 77.115, 29.987 ], [ 77.13, 29.986 ], [ 77.136, 29.974 ], [ 77.151, 29.973 ], [ 77.157, 29.961 ], [ 77.172, 29.96 ], [ 77.178, 29.948 ], [ 77.194, 29.947 ], [ 77.203, 29.957 ], [ 77.197, 29.969 ], [ 77.206, 29.979 ], [ 77.221, 29.978 ], [ 77.231, 29.988 ], [ 77.225, 30.0 ], [ 77.234, 30.01 ], [ 77.228, 30.022 ], [ 77.237, 30.033 ], [ 77.252, 30.031 ], [ 77.262, 30.042 ], [ 77.277, 30.04 ], [ 77.286, 30.051 ], [ 77.28, 30.062 ], [ 77.29, 30.073 ], [ 77.305, 30.071 ], [ 77.314, 30.082 ], [ 77.329, 30.08 ], [ 77.339, 30.091 ], [ 77.354, 30.09 ], [ 77.363, 30.1 ], [ 77.357, 30.112 ], [ 77.366, 30.122 ], [ 77.382, 30.121 ], [ 77.391, 30.131 ], [ 77.385, 30.143 ], [ 77.394, 30.153 ], [ 77.41, 30.152 ], [ 77.419, 30.162 ], [ 77.434, 30.161 ], [ 77.443, 30.171 ], [ 77.459, 30.17 ], [ 77.468, 30.18 ], [ 77.462, 30.192 ], [ 77.471, 30.202 ], [ 77.465, 30.214 ], [ 77.45, 30.216 ], [ 77.444, 30.227 ], [ 77.453, 30.238 ], [ 77.447, 30.249 ], [ 77.457, 30.26 ], [ 77.451, 30.271 ], [ 77.46, 30.282 ], [ 77.475, 30.281 ], [ 77.485, 30.291 ], [ 77.5, 30.29 ], [ 77.509, 30.3 ], [ 77.525, 30.299 ], [ 77.534, 30.309 ], [ 77.528, 30.321 ], [ 77.513, 30.322 ], [ 77.507, 30.334 ], [ 77.491, 30.335 ], [ 77.485, 30.347 ], [ 77.47, 30.348 ], [ 77.464, 30.36 ], [ 77.449, 30.361 ] ] ] ] } },
{ "type": "Feature", "properties": { "POLYGON.ID": 577.0, "subregion": "India--Haryana--Ottu Reservoir", "POLYGON": "India--Haryana--Ottu Reservoir", "SHOW": "1", "FILTER": "Not-Assigned", "FILTER.ID": null, "OLD.POLYGON": null, "STATE": "Haryana", "COUNTY": "spl_region", "OWNER": null }, "geometry": { "type": "MultiPolygon", "coordinates": [ [ [ [ 74.873, 29.5 ], [ 74.88, 29.488 ], [ 74.895, 29.487 ], [ 74.901, 29.476 ], [ 74.916, 29.475 ], [ 74.925, 29.485 ], [ 74.919, 29.497 ], [ 74.928, 29.507 ], [ 74.921, 29.519 ], [ 74.93, 29.529 ], [ 74.924, 29.541 ], [ 74.909, 29.542 ], [ 74.9, 29.532 ], [ 74.906, 29.52 ], [ 74.897, 29.509 ], [ 74.882, 29.511 ], [ 74.873, 29.5 ] ] ] ] } },
{ "type": "Feature", "properties": { "POLYGON.ID": 635.0, "subregion": "India--Haryana--Panchkula--Around Pinjore", "POLYGON": "India--Haryana--Panchkula--Around Pinjore", "SHOW": "1", "FILTER": "Not-Assigned", "FILTER.ID": null, "OLD.POLYGON": null, "STATE": "Haryana", "COUNTY": "Panchkula", "OWNER": null }, "geometry": { "type": "MultiPolygon", "coordinates": [ [ [ [ 76.802, 30.9 ], [ 76.818, 30.899 ], [ 76.824, 30.887 ], [ 76.839, 30.886 ], [ 76.845, 30.874 ], [ 76.836, 30.864 ], [ 76.842, 30.852 ], [ 76.858, 30.85 ], [ 76.864, 30.839 ], [ 76.879, 30.837 ], [ 76.886, 30.826 ], [ 76.876, 30.815 ], [ 76.882, 30.803 ], [ 76.873, 30.793 ], [ 76.879, 30.781 ], [ 76.895, 30.78 ], [ 76.901, 30.768 ], [ 76.892, 30.758 ], [ 76.898, 30.746 ], [ 76.913, 30.744 ], [ 76.919, 30.733 ], [ 76.935, 30.731 ], [ 76.944, 30.742 ], [ 76.959, 30.741 ], [ 76.969, 30.751 ], [ 76.963, 30.763 ], [ 76.947, 30.764 ], [ 76.941, 30.776 ], [ 76.926, 30.777 ], [ 76.919, 30.789 ], [ 76.929, 30.799 ], [ 76.923, 30.811 ], [ 76.932, 30.822 ], [ 76.926, 30.834 ], [ 76.91, 30.835 ], [ 76.904, 30.847 ], [ 76.914, 30.857 ], [ 76.907, 30.869 ], [ 76.917, 30.879 ], [ 76.911, 30.891 ], [ 76.895, 30.892 ], [ 76.886, 30.882 ], [ 76.87, 30.883 ], [ 76.864, 30.895 ], [ 76.849, 30.896 ], [ 76.843, 30.908 ], [ 76.827, 30.909 ], [ 76.821, 30.921 ], [ 76.805, 30.922 ], [ 76.796, 30.912 ], [ 76.802, 30.9 ] ] ] ] } },
{ "type": "Feature", "properties": { "POLYGON.ID": 1200.0, "subregion": "India--Haryana--Panipat--Yamuna River", "POLYGON": "India--Haryana--Panipat--Yamuna River", "SHOW": "1", "FILTER": "Not-Assigned", "FILTER.ID": null, "OLD.POLYGON": null, "STATE": "Haryana", "COUNTY": "Una", "OWNER": null }, "geometry": { "type": "MultiPolygon", "coordinates": [ [ [ [ 77.12, 29.44 ], [ 77.126, 29.429 ], [ 77.117, 29.419 ], [ 77.123, 29.407 ], [ 77.114, 29.397 ], [ 77.12, 29.385 ], [ 77.11, 29.375 ], [ 77.116, 29.363 ], [ 77.107, 29.353 ], [ 77.113, 29.341 ], [ 77.104, 29.331 ], [ 77.11, 29.319 ], [ 77.125, 29.318 ], [ 77.131, 29.306 ], [ 77.122, 29.296 ], [ 77.107, 29.297 ], [ 77.098, 29.287 ], [ 77.104, 29.275 ], [ 77.095, 29.265 ], [ 77.101, 29.253 ], [ 77.116, 29.252 ], [ 77.122, 29.241 ], [ 77.112, 29.23 ], [ 77.118, 29.219 ], [ 77.109, 29.208 ], [ 77.115, 29.197 ], [ 77.106, 29.186 ], [ 77.112, 29.175 ], [ 77.103, 29.164 ], [ 77.109, 29.153 ], [ 77.124, 29.152 ], [ 77.133, 29.162 ], [ 77.148, 29.161 ], [ 77.157, 29.171 ], [ 77.151, 29.183 ], [ 77.16, 29.193 ], [ 77.155, 29.204 ], [ 77.164, 29.215 ], [ 77.158, 29.226 ], [ 77.167, 29.237 ], [ 77.161, 29.248 ], [ 77.146, 29.25 ], [ 77.14, 29.261 ], [ 77.149, 29.271 ], [ 77.143, 29.283 ], [ 77.152, 29.293 ], [ 77.167, 29.292 ], [ 77.176, 29.302 ], [ 77.17, 29.314 ], [ 77.18, 29.324 ], [ 77.174, 29.336 ], [ 77.159, 29.337 ], [ 77.153, 29.349 ], [ 77.162, 29.359 ], [ 77.156, 29.371 ], [ 77.165, 29.381 ], [ 77.159, 29.393 ], [ 77.168, 29.403 ], [ 77.162, 29.415 ], [ 77.171, 29.425 ], [ 77.165, 29.437 ], [ 77.175, 29.447 ], [ 77.169, 29.459 ], [ 77.153, 29.46 ], [ 77.147, 29.472 ], [ 77.132, 29.473 ], [ 77.123, 29.462 ], [ 77.108, 29.464 ], [ 77.099, 29.453 ], [ 77.105, 29.442 ], [ 77.12, 29.44 ] ] ] ] } },
{ "type": "Feature", "properties": { "POLYGON.ID": 1199.0, "subregion": "India--Haryana--Karnal--Yamuna River", "POLYGON": "India--Haryana--Karnal--Yamuna River", "SHOW": "1", "FILTER": "Not-Assigned", "FILTER.ID": null, "OLD.POLYGON": null, "STATE": "Haryana", "COUNTY": "Una", "OWNER": null }, "geometry": { "type": "MultiPolygon", "coordinates": [ [ [ [ 77.209, 29.89 ], [ 77.218, 29.9 ], [ 77.233, 29.899 ], [ 77.242, 29.909 ], [ 77.236, 29.921 ], [ 77.221, 29.922 ], [ 77.215, 29.934 ], [ 77.2, 29.935 ], [ 77.191, 29.925 ], [ 77.197, 29.913 ], [ 77.187, 29.903 ], [ 77.172, 29.904 ], [ 77.163, 29.894 ], [ 77.169, 29.882 ], [ 77.16, 29.872 ], [ 77.166, 29.86 ], [ 77.181, 29.859 ], [ 77.187, 29.847 ], [ 77.178, 29.837 ], [ 77.162, 29.838 ], [ 77.153, 29.827 ], [ 77.159, 29.816 ], [ 77.15, 29.805 ], [ 77.135, 29.807 ], [ 77.126, 29.796 ], [ 77.132, 29.785 ], [ 77.122, 29.774 ], [ 77.128, 29.763 ], [ 77.119, 29.752 ], [ 77.125, 29.741 ], [ 77.116, 29.73 ], [ 77.122, 29.719 ], [ 77.113, 29.708 ], [ 77.119, 29.697 ], [ 77.11, 29.686 ], [ 77.116, 29.675 ], [ 77.106, 29.664 ], [ 77.112, 29.653 ], [ 77.103, 29.642 ], [ 77.109, 29.631 ], [ 77.1, 29.62 ], [ 77.106, 29.609 ], [ 77.097, 29.598 ], [ 77.082, 29.599 ], [ 77.072, 29.589 ], [ 77.078, 29.577 ], [ 77.069, 29.567 ], [ 77.075, 29.555 ], [ 77.066, 29.545 ], [ 77.072, 29.533 ], [ 77.087, 29.532 ], [ 77.093, 29.521 ], [ 77.084, 29.51 ], [ 77.09, 29.499 ], [ 77.105, 29.497 ], [ 77.111, 29.486 ], [ 77.102, 29.475 ], [ 77.108, 29.464 ], [ 77.123, 29.462 ], [ 77.132, 29.473 ], [ 77.147, 29.472 ], [ 77.157, 29.482 ], [ 77.151, 29.493 ], [ 77.16, 29.504 ], [ 77.154, 29.515 ], [ 77.139, 29.517 ], [ 77.133, 29.528 ], [ 77.118, 29.53 ], [ 77.112, 29.541 ], [ 77.121, 29.552 ], [ 77.115, 29.563 ], [ 77.124, 29.574 ], [ 77.118, 29.585 ], [ 77.127, 29.596 ], [ 77.121, 29.607 ], [ 77.13, 29.618 ], [ 77.124, 29.629 ], [ 77.134, 29.64 ], [ 77.149, 29.638 ], [ 77.158, 29.649 ], [ 77.152, 29.66 ], [ 77.161, 29.671 ], [ 77.155, 29.682 ], [ 77.164, 29.693 ], [ 77.158, 29.704 ], [ 77.168, 29.715 ], [ 77.162, 29.726 ], [ 77.171, 29.737 ], [ 77.165, 29.748 ], [ 77.174, 29.759 ], [ 77.168, 29.77 ], [ 77.177, 29.781 ], [ 77.171, 29.792 ], [ 77.18, 29.803 ], [ 77.196, 29.802 ], [ 77.205, 29.812 ], [ 77.199, 29.824 ], [ 77.208, 29.834 ], [ 77.223, 29.833 ], [ 77.232, 29.843 ], [ 77.226, 29.855 ], [ 77.236, 29.865 ], [ 77.23, 29.877 ], [ 77.215, 29.878 ], [ 77.209, 29.89 ] ] ] ] } },
{ "type": "Feature", "properties": { "POLYGON.ID": 1197.0, "subregion": "India--Haryana--Yamunanagar--Yamuna River (upper)", "POLYGON": "India--Haryana--Yamunanagar--Yamuna River (upper)", "SHOW": "1", "FILTER": "Not-Assigned", "FILTER.ID": null, "OLD.POLYGON": null, "STATE": "Haryana", "COUNTY": "Yamunanagar", "OWNER": null }, "geometry": { "type": "MultiPolygon", "coordinates": [ [ [ [ 77.595, 30.304 ], [ 77.605, 30.314 ], [ 77.599, 30.326 ], [ 77.608, 30.336 ], [ 77.602, 30.348 ], [ 77.611, 30.358 ], [ 77.605, 30.37 ], [ 77.615, 30.38 ], [ 77.609, 30.392 ], [ 77.593, 30.393 ], [ 77.587, 30.405 ], [ 77.572, 30.407 ], [ 77.563, 30.396 ], [ 77.569, 30.384 ], [ 77.559, 30.374 ], [ 77.565, 30.362 ], [ 77.581, 30.361 ], [ 77.587, 30.349 ], [ 77.577, 30.339 ], [ 77.562, 30.34 ], [ 77.553, 30.33 ], [ 77.559, 30.318 ], [ 77.549, 30.308 ], [ 77.555, 30.296 ], [ 77.571, 30.295 ], [ 77.577, 30.283 ], [ 77.592, 30.281 ], [ 77.601, 30.292 ], [ 77.595, 30.304 ] ] ] ] } },
{ "type": "Feature", "properties": { "POLYGON.ID": 1196.0, "subregion": "India--Haryana--Yamunanagar--Yamuna River (lower)", "POLYGON": "India--Haryana--Yamunanagar--Yamuna River (lower)", "SHOW": "1", "FILTER": "Not-Assigned", "FILTER.ID": null, "OLD.POLYGON": null, "STATE": "Haryana", "COUNTY": "Yamunanagar", "OWNER": null }, "geometry": { "type": "MultiPolygon", "coordinates": [ [ [ [ 77.549, 30.308 ], [ 77.534, 30.309 ], [ 77.525, 30.299 ], [ 77.509, 30.3 ], [ 77.5, 30.29 ], [ 77.485, 30.291 ], [ 77.475, 30.281 ], [ 77.46, 30.282 ], [ 77.451, 30.271 ], [ 77.457, 30.26 ], [ 77.447, 30.249 ], [ 77.453, 30.238 ], [ 77.444, 30.227 ], [ 77.45, 30.216 ], [ 77.465, 30.214 ], [ 77.471, 30.202 ], [ 77.462, 30.192 ], [ 77.468, 30.18 ], [ 77.459, 30.17 ], [ 77.443, 30.171 ], [ 77.434, 30.161 ], [ 77.419, 30.162 ], [ 77.41, 30.152 ], [ 77.394, 30.153 ], [ 77.385, 30.143 ], [ 77.391, 30.131 ], [ 77.382, 30.121 ], [ 77.366, 30.122 ], [ 77.357, 30.112 ], [ 77.363, 30.1 ], [ 77.354, 30.09 ], [ 77.339, 30.091 ], [ 77.329, 30.08 ], [ 77.314, 30.082 ], [ 77.305, 30.071 ], [ 77.29, 30.073 ], [ 77.28, 30.062 ], [ 77.286, 30.051 ], [ 77.277, 30.04 ], [ 77.262, 30.042 ], [ 77.252, 30.031 ], [ 77.237, 30.033 ], [ 77.228, 30.022 ], [ 77.234, 30.01 ], [ 77.225, 30.0 ], [ 77.231, 29.988 ], [ 77.221, 29.978 ], [ 77.206, 29.979 ], [ 77.197, 29.969 ], [ 77.203, 29.957 ], [ 77.194, 29.947 ], [ 77.2, 29.935 ], [ 77.215, 29.934 ], [ 77.221, 29.922 ], [ 77.236, 29.921 ], [ 77.245, 29.931 ], [ 77.239, 29.943 ], [ 77.249, 29.953 ], [ 77.243, 29.965 ], [ 77.252, 29.975 ], [ 77.267, 29.974 ], [ 77.276, 29.984 ], [ 77.292, 29.983 ], [ 77.301, 29.993 ], [ 77.295, 30.005 ], [ 77.304, 30.016 ], [ 77.298, 30.027 ], [ 77.307, 30.038 ], [ 77.323, 30.036 ], [ 77.332, 30.047 ], [ 77.347, 30.045 ], [ 77.357, 30.056 ], [ 77.372, 30.054 ], [ 77.381, 30.065 ], [ 77.375, 30.077 ], [ 77.384, 30.087 ], [ 77.4, 30.086 ], [ 77.409, 30.096 ], [ 77.424, 30.095 ], [ 77.433, 30.105 ], [ 77.428, 30.117 ], [ 77.437, 30.127 ], [ 77.452, 30.126 ], [ 77.461, 30.136 ], [ 77.477, 30.135 ], [ 77.486, 30.145 ], [ 77.48, 30.157 ], [ 77.489, 30.167 ], [ 77.505, 30.166 ], [ 77.514, 30.176 ], [ 77.508, 30.188 ], [ 77.517, 30.198 ], [ 77.532, 30.197 ], [ 77.542, 30.207 ], [ 77.536, 30.219 ], [ 77.545, 30.23 ], [ 77.539, 30.241 ], [ 77.549, 30.252 ], [ 77.564, 30.25 ], [ 77.573, 30.261 ], [ 77.567, 30.272 ], [ 77.577, 30.283 ], [ 77.571, 30.295 ], [ 77.555, 30.296 ], [ 77.549, 30.308 ] ] ] ] } },
{ "type": "Feature", "properties": { "POLYGON.ID": 1195.0, "subregion": "India--Haryana--Gurgaon--Farukhnagar Forests", "POLYGON": "India--Haryana--Gurgaon--Farukhnagar Forests", "SHOW": "1", "FILTER": "Not-Assigned", "FILTER.ID": null, "OLD.POLYGON": null, "STATE": "Haryana", "COUNTY": "spl_region", "OWNER": null }, "geometry": { "type": "MultiPolygon", "coordinates": [ [ [ [ 76.797, 28.45 ], [ 76.803, 28.439 ], [ 76.818, 28.438 ], [ 76.827, 28.448 ], [ 76.821, 28.459 ], [ 76.83, 28.47 ], [ 76.824, 28.481 ], [ 76.809, 28.482 ], [ 76.8, 28.472 ], [ 76.785, 28.473 ], [ 76.776, 28.463 ], [ 76.782, 28.452 ], [ 76.797, 28.45 ] ] ] ] } },
{ "type": "Feature", "properties": { "POLYGON.ID": 1194.0, "subregion": "India--Haryana--Gurgaon--Chandu and Najafgarh", "POLYGON": "India--Haryana--Gurgaon--Chandu and Najafgarh", "SHOW": "1", "FILTER": "India--Haryana--Gurgaon--Chandu and Najafgarh", "FILTER.ID": null, "OLD.POLYGON": null, "STATE": "Haryana", "COUNTY": "spl_region", "OWNER": null }, "geometry": { "type": "MultiPolygon", "coordinates": [ [ [ [ 76.976, 28.436 ], [ 76.985, 28.446 ], [ 76.979, 28.457 ], [ 76.988, 28.468 ], [ 77.003, 28.466 ], [ 77.012, 28.477 ], [ 77.006, 28.488 ], [ 76.991, 28.489 ], [ 76.985, 28.501 ], [ 76.994, 28.511 ], [ 76.988, 28.523 ], [ 76.973, 28.524 ], [ 76.967, 28.535 ], [ 76.952, 28.537 ], [ 76.946, 28.548 ], [ 76.931, 28.549 ], [ 76.922, 28.539 ], [ 76.908, 28.54 ], [ 76.902, 28.552 ], [ 76.887, 28.553 ], [ 76.878, 28.543 ], [ 76.863, 28.544 ], [ 76.854, 28.534 ], [ 76.86, 28.522 ], [ 76.875, 28.521 ], [ 76.881, 28.509 ], [ 76.872, 28.499 ], [ 76.877, 28.488 ], [ 76.892, 28.486 ], [ 76.898, 28.475 ], [ 76.913, 28.474 ], [ 76.919, 28.462 ], [ 76.934, 28.461 ], [ 76.94, 28.45 ], [ 76.955, 28.448 ], [ 76.961, 28.437 ], [ 76.976, 28.436 ] ] ] ] } },
{ "type": "Feature", "properties": { "POLYGON.ID": 1193.0, "subregion": "India--Haryana--Gurgaon--Sultanpur NP", "POLYGON": "India--Haryana--Gurgaon--Sultanpur NP", "SHOW": "1", "FILTER": "India--Haryana--Sultanpur-Basai-Najafgarh, Bhindawas, Dighal", "FILTER.ID": "CL27692", "OLD.POLYGON": "1", "STATE": "Haryana", "COUNTY": "Sultanpur", "OWNER": null }, "geometry": { "type": "MultiPolygon", "coordinates": [ [ [ [ 76.871, 28.444 ], [ 76.886, 28.443 ], [ 76.895, 28.453 ], [ 76.91, 28.452 ], [ 76.919, 28.462 ], [ 76.913, 28.474 ], [ 76.898, 28.475 ], [ 76.892, 28.486 ], [ 76.877, 28.488 ], [ 76.868, 28.477 ], [ 76.874, 28.466 ], [ 76.865, 28.456 ], [ 76.871, 28.444 ] ] ] ] } },
{ "type": "Feature", "properties": { "POLYGON.ID": 1189.0, "subregion": "India--Haryana--Faridabad--Yamuna River", "POLYGON": "India--Haryana--Faridabad--Yamuna River", "SHOW": "1", "FILTER": "Not-Assigned", "FILTER.ID": null, "OLD.POLYGON": null, "STATE": "Haryana", "COUNTY": "Una", "OWNER": null }, "geometry": { "type": "MultiPolygon", "coordinates": [ [ [ [ 77.447, 28.209 ], [ 77.462, 28.208 ], [ 77.471, 28.218 ], [ 77.486, 28.217 ], [ 77.495, 28.227 ], [ 77.489, 28.238 ], [ 77.498, 28.249 ], [ 77.492, 28.26 ], [ 77.501, 28.27 ], [ 77.516, 28.269 ], [ 77.525, 28.279 ], [ 77.519, 28.291 ], [ 77.505, 28.292 ], [ 77.499, 28.303 ], [ 77.484, 28.305 ], [ 77.478, 28.316 ], [ 77.487, 28.326 ], [ 77.481, 28.338 ], [ 77.49, 28.348 ], [ 77.505, 28.347 ], [ 77.514, 28.357 ], [ 77.509, 28.369 ], [ 77.518, 28.379 ], [ 77.512, 28.39 ], [ 77.521, 28.4 ], [ 77.515, 28.412 ], [ 77.5, 28.413 ], [ 77.494, 28.425 ], [ 77.479, 28.426 ], [ 77.474, 28.437 ], [ 77.459, 28.439 ], [ 77.453, 28.45 ], [ 77.438, 28.452 ], [ 77.432, 28.463 ], [ 77.441, 28.473 ], [ 77.435, 28.485 ], [ 77.421, 28.486 ], [ 77.415, 28.498 ], [ 77.4, 28.499 ], [ 77.394, 28.51 ], [ 77.379, 28.512 ], [ 77.373, 28.523 ], [ 77.358, 28.524 ], [ 77.349, 28.514 ], [ 77.334, 28.515 ], [ 77.325, 28.505 ], [ 77.331, 28.494 ], [ 77.322, 28.483 ], [ 77.307, 28.485 ], [ 77.298, 28.475 ], [ 77.304, 28.463 ], [ 77.295, 28.453 ], [ 77.301, 28.441 ], [ 77.316, 28.44 ], [ 77.322, 28.429 ], [ 77.336, 28.427 ], [ 77.346, 28.438 ], [ 77.36, 28.436 ], [ 77.366, 28.425 ], [ 77.381, 28.423 ], [ 77.387, 28.412 ], [ 77.402, 28.411 ], [ 77.411, 28.421 ], [ 77.426, 28.42 ], [ 77.432, 28.408 ], [ 77.446, 28.407 ], [ 77.452, 28.395 ], [ 77.467, 28.394 ], [ 77.473, 28.383 ], [ 77.464, 28.372 ], [ 77.47, 28.361 ], [ 77.461, 28.351 ], [ 77.467, 28.339 ], [ 77.457, 28.329 ], [ 77.463, 28.318 ], [ 77.454, 28.307 ], [ 77.46, 28.296 ], [ 77.451, 28.286 ], [ 77.457, 28.274 ], [ 77.448, 28.264 ], [ 77.454, 28.253 ], [ 77.445, 28.242 ], [ 77.45, 28.231 ], [ 77.441, 28.221 ], [ 77.447, 28.209 ] ] ] ] } },
{ "type": "Feature", "properties": { "POLYGON.ID": 1188.0, "subregion": "India--Haryana--Palwal--Yamuna River", "POLYGON": "India--Haryana--Palwal--Yamuna River", "SHOW": "1", "FILTER": "Not-Assigned", "FILTER.ID": null, "OLD.POLYGON": null, "STATE": "Haryana", "COUNTY": "Una", "OWNER": null }, "geometry": { "type": "MultiPolygon", "coordinates": [ [ [ [ 77.459, 28.186 ], [ 77.465, 28.175 ], [ 77.455, 28.165 ], [ 77.461, 28.153 ], [ 77.452, 28.143 ], [ 77.458, 28.132 ], [ 77.473, 28.13 ], [ 77.479, 28.119 ], [ 77.47, 28.109 ], [ 77.475, 28.097 ], [ 77.49, 28.096 ], [ 77.496, 28.084 ], [ 77.511, 28.083 ], [ 77.52, 28.093 ], [ 77.514, 28.105 ], [ 77.523, 28.115 ], [ 77.517, 28.126 ], [ 77.502, 28.128 ], [ 77.497, 28.139 ], [ 77.506, 28.149 ], [ 77.5, 28.161 ], [ 77.485, 28.162 ], [ 77.479, 28.174 ], [ 77.488, 28.184 ], [ 77.483, 28.195 ], [ 77.492, 28.205 ], [ 77.486, 28.217 ], [ 77.471, 28.218 ], [ 77.462, 28.208 ], [ 77.468, 28.196 ], [ 77.459, 28.186 ] ] ] ] } },
{ "type": "Feature", "properties": { "POLYGON.ID": 1203.0, "subregion": "India--Haryana--Kaithal--Forests", "POLYGON": "India--Haryana--Kaithal--Forests", "SHOW": "1", "FILTER": "Not-Assigned", "FILTER.ID": null, "OLD.POLYGON": null, "STATE": "Haryana", "COUNTY": "Kaithal", "OWNER": null }, "geometry": { "type": "MultiPolygon", "coordinates": [ [ [ [ 76.333, 29.861 ], [ 76.348, 29.86 ], [ 76.358, 29.87 ], [ 76.351, 29.882 ], [ 76.336, 29.883 ], [ 76.33, 29.895 ], [ 76.315, 29.896 ], [ 76.306, 29.886 ], [ 76.312, 29.874 ], [ 76.303, 29.864 ], [ 76.309, 29.852 ], [ 76.324, 29.851 ], [ 76.333, 29.861 ] ] ], [ [ [ 76.391, 29.946 ], [ 76.406, 29.945 ], [ 76.412, 29.933 ], [ 76.428, 29.932 ], [ 76.437, 29.942 ], [ 76.452, 29.941 ], [ 76.461, 29.951 ], [ 76.476, 29.95 ], [ 76.485, 29.961 ], [ 76.501, 29.959 ], [ 76.51, 29.97 ], [ 76.525, 29.969 ], [ 76.534, 29.979 ], [ 76.55, 29.978 ], [ 76.559, 29.988 ], [ 76.553, 30.0 ], [ 76.537, 30.001 ], [ 76.531, 30.013 ], [ 76.516, 30.014 ], [ 76.507, 30.004 ], [ 76.491, 30.005 ], [ 76.482, 29.994 ], [ 76.467, 29.996 ], [ 76.461, 30.007 ], [ 76.446, 30.009 ], [ 76.439, 30.02 ], [ 76.424, 30.021 ], [ 76.415, 30.011 ], [ 76.4, 30.012 ], [ 76.391, 30.002 ], [ 76.375, 30.003 ], [ 76.366, 29.993 ], [ 76.372, 29.981 ], [ 76.363, 29.97 ], [ 76.369, 29.959 ], [ 76.385, 29.958 ], [ 76.391, 29.946 ] ] ] ] } },
{ "type": "Feature", "properties": { "POLYGON.ID": 1202.0, "subregion": "India--Haryana--Sangrur--Forests", "POLYGON": "India--Haryana--Sangrur--Forests", "SHOW": "1", "FILTER": "Not-Assigned", "FILTER.ID": null, "OLD.POLYGON": null, "STATE": "Haryana", "COUNTY": "Sangrur", "OWNER": null }, "geometry": { "type": "MultiPolygon", "coordinates": [ [ [ [ 75.917, 30.229 ], [ 75.911, 30.24 ], [ 75.895, 30.241 ], [ 75.889, 30.253 ], [ 75.874, 30.254 ], [ 75.865, 30.244 ], [ 75.871, 30.232 ], [ 75.862, 30.222 ], [ 75.868, 30.21 ], [ 75.883, 30.209 ], [ 75.892, 30.219 ], [ 75.908, 30.218 ], [ 75.917, 30.229 ] ] ] ] } },
{ "type": "Feature", "properties": { "POLYGON.ID": 1201.0, "subregion": "India--Haryana--Sonipat--Yamuna River", "POLYGON": "India--Haryana--Sonipat--Yamuna River", "SHOW": "1", "FILTER": "Not-Assigned", "FILTER.ID": null, "OLD.POLYGON": null, "STATE": "Haryana", "COUNTY": "Una", "OWNER": null }, "geometry": { "type": "MultiPolygon", "coordinates": [ [ [ [ 77.187, 29.058 ], [ 77.181, 29.069 ], [ 77.166, 29.071 ], [ 77.16, 29.082 ], [ 77.169, 29.092 ], [ 77.163, 29.104 ], [ 77.172, 29.114 ], [ 77.166, 29.126 ], [ 77.175, 29.136 ], [ 77.169, 29.148 ], [ 77.154, 29.149 ], [ 77.148, 29.161 ], [ 77.133, 29.162 ], [ 77.124, 29.152 ], [ 77.13, 29.14 ], [ 77.121, 29.13 ], [ 77.127, 29.118 ], [ 77.118, 29.108 ], [ 77.124, 29.096 ], [ 77.114, 29.086 ], [ 77.12, 29.074 ], [ 77.135, 29.073 ], [ 77.141, 29.062 ], [ 77.156, 29.06 ], [ 77.162, 29.049 ], [ 77.153, 29.038 ], [ 77.159, 29.027 ], [ 77.15, 29.017 ], [ 77.156, 29.005 ], [ 77.171, 29.004 ], [ 77.177, 28.992 ], [ 77.192, 28.991 ], [ 77.198, 28.979 ], [ 77.189, 28.969 ], [ 77.195, 28.958 ], [ 77.186, 28.947 ], [ 77.192, 28.936 ], [ 77.182, 28.925 ], [ 77.188, 28.914 ], [ 77.203, 28.913 ], [ 77.209, 28.901 ], [ 77.2, 28.891 ], [ 77.206, 28.879 ], [ 77.197, 28.869 ], [ 77.203, 28.857 ], [ 77.218, 28.856 ], [ 77.227, 28.866 ], [ 77.242, 28.865 ], [ 77.251, 28.875 ], [ 77.245, 28.887 ], [ 77.254, 28.897 ], [ 77.248, 28.909 ], [ 77.257, 28.919 ], [ 77.252, 28.931 ], [ 77.237, 28.932 ], [ 77.231, 28.943 ], [ 77.216, 28.945 ], [ 77.21, 28.956 ], [ 77.219, 28.967 ], [ 77.213, 28.978 ], [ 77.222, 28.988 ], [ 77.216, 29.0 ], [ 77.225, 29.01 ], [ 77.219, 29.022 ], [ 77.204, 29.023 ], [ 77.198, 29.035 ], [ 77.183, 29.036 ], [ 77.177, 29.047 ], [ 77.187, 29.058 ] ] ] ] } }
]
}
