{
"type": "FeatureCollection",
"name": "Lakshadweep",
"crs": { "type": "name", "properties": { "name": "urn:ogc:def:crs:OGC:1.3:CRS84" } },
"features": [
{ "type": "Feature", "properties": { "POLYGON.ID": 1.0, "subregion": "India--Lakshadweep--Kavaratti Island", "FILTER": "Lakshadweep", "POLYGON": "India--Lakshadweep--Kavaratti Island", "STATE": "Lakshadweep", "COUNTY": "Lakshadweep", "OWNER": null }, "geometry": { "type": "MultiPolygon", "coordinates": [ [ [ [ 72.631, 10.53 ], [ 72.627, 10.542 ], [ 72.635, 10.552 ], [ 72.647, 10.549 ], [ 72.655, 10.559 ], [ 72.667, 10.556 ], [ 72.674, 10.566 ], [ 72.67, 10.578 ], [ 72.659, 10.581 ], [ 72.655, 10.593 ], [ 72.643, 10.595 ], [ 72.635, 10.585 ], [ 72.623, 10.588 ], [ 72.616, 10.578 ], [ 72.619, 10.566 ], [ 72.612, 10.556 ], [ 72.616, 10.544 ], [ 72.608, 10.535 ], [ 72.612, 10.523 ], [ 72.623, 10.52 ], [ 72.631, 10.53 ] ] ] ] } },
{ "type": "Feature", "properties": { "POLYGON.ID": 296.0, "subregion": "IN-LD--pelagic", "FILTER": "Lakshadweep", "POLYGON": "IN-LD--pelagic", "STATE": "Lakshadweep", "COUNTY": "spl_region", "OWNER": null }, "geometry": { "type": "MultiPolygon", "coordinates": [ [ [ [ 70.757, 8.048 ], [ 70.768, 8.045 ], [ 70.776, 8.055 ], [ 70.787, 8.052 ], [ 70.791, 8.04 ], [ 70.802, 8.037 ], [ 70.81, 8.047 ], [ 70.821, 8.044 ], [ 70.825, 8.032 ], [ 70.836, 8.03 ], [ 70.844, 8.039 ], [ 70.855, 8.037 ], [ 70.859, 8.025 ], [ 70.87, 8.022 ], [ 70.878, 8.031 ], [ 70.889, 8.029 ], [ 70.897, 8.038 ], [ 70.908, 8.036 ], [ 70.912, 8.024 ], [ 70.923, 8.021 ], [ 70.931, 8.031 ], [ 70.942, 8.028 ], [ 70.946, 8.016 ], [ 70.958, 8.013 ], [ 70.965, 8.023 ], [ 70.976, 8.02 ], [ 70.98, 8.008 ], [ 70.992, 8.006 ], [ 70.999, 8.015 ], [ 71.011, 8.013 ], [ 71.015, 8.001 ], [ 71.026, 7.998 ], [ 71.033, 8.007 ], [ 71.045, 8.005 ], [ 71.049, 7.993 ], [ 71.06, 7.99 ], [ 71.068, 8.0 ], [ 71.079, 7.997 ], [ 71.083, 7.985 ], [ 71.094, 7.983 ], [ 71.102, 7.992 ], [ 71.113, 7.989 ], [ 71.121, 7.999 ], [ 71.132, 7.996 ], [ 71.136, 7.984 ], [ 71.147, 7.982 ], [ 71.155, 7.991 ], [ 71.166, 7.988 ], [ 71.17, 7.976 ], [ 71.182, 7.974 ], [ 71.189, 7.983 ], [ 71.201, 7.981 ], [ 71.204, 7.969 ], [ 71.216, 7.966 ], [ 71.223, 7.976 ], [ 71.235, 7.973 ], [ 71.239, 7.961 ], [ 71.25, 7.958 ], [ 71.258, 7.968 ], [ 71.269, 7.965 ], [ 71.273, 7.953 ], [ 71.284, 7.951 ], [ 71.292, 7.96 ], [ 71.303, 7.957 ], [ 71.307, 7.945 ], [ 71.319, 7.943 ], [ 71.326, 7.952 ], [ 71.338, 7.95 ], [ 71.342, 7.938 ], [ 71.353, 7.935 ], [ 71.361, 7.944 ], [ 71.372, 7.942 ], [ 71.38, 7.951 ], [ 71.391, 7.949 ], [ 71.395, 7.937 ], [ 71.406, 7.934 ], [ 71.414, 7.943 ], [ 71.426, 7.941 ], [ 71.429, 7.929 ], [ 71.441, 7.926 ], [ 71.448, 7.936 ], [ 71.46, 7.933 ], [ 71.464, 7.921 ], [ 71.475, 7.918 ], [ 71.483, 7.928 ], [ 71.494, 7.925 ], [ 71.498, 7.913 ], [ 71.51, 7.911 ], [ 71.517, 7.92 ], [ 71.529, 7.917 ], [ 71.533, 7.905 ], [ 71.544, 7.903 ], [ 71.552, 7.912 ], [ 71.563, 7.91 ], [ 71.567, 7.897 ], [ 71.578, 7.895 ], [ 71.586, 7.904 ], [ 71.598, 7.902 ], [ 71.605, 7.911 ], [ 71.617, 7.908 ], [ 71.621, 7.896 ], [ 71.632, 7.894 ], [ 71.64, 7.903 ], [ 71.651, 7.901 ], [ 71.655, 7.889 ], [ 71.666, 7.886 ], [ 71.674, 7.895 ], [ 71.686, 7.893 ], [ 71.689, 7.881 ], [ 71.701, 7.878 ], [ 71.709, 7.888 ], [ 71.72, 7.885 ], [ 71.724, 7.873 ], [ 71.735, 7.87 ], [ 71.743, 7.88 ], [ 71.755, 7.877 ], [ 71.758, 7.865 ], [ 71.77, 7.862 ], [ 71.778, 7.872 ], [ 71.789, 7.869 ], [ 71.793, 7.857 ], [ 71.805, 7.854 ], [ 71.812, 7.864 ], [ 71.824, 7.861 ], [ 71.831, 7.871 ], [ 71.843, 7.868 ], [ 71.847, 7.856 ], [ 71.858, 7.853 ], [ 71.866, 7.863 ], [ 71.877, 7.86 ], [ 71.881, 7.848 ], [ 71.893, 7.846 ], [ 71.901, 7.855 ], [ 71.912, 7.852 ], [ 71.916, 7.84 ], [ 71.927, 7.838 ], [ 71.935, 7.847 ], [ 71.947, 7.844 ], [ 71.951, 7.832 ], [ 71.962, 7.83 ], [ 71.97, 7.839 ], [ 71.981, 7.837 ], [ 71.985, 7.824 ], [ 71.997, 7.822 ], [ 72.004, 7.831 ], [ 72.016, 7.829 ], [ 72.02, 7.817 ], [ 72.031, 7.814 ], [ 72.039, 7.823 ], [ 72.051, 7.821 ], [ 72.054, 7.809 ], [ 72.066, 7.806 ], [ 72.074, 7.815 ], [ 72.085, 7.813 ], [ 72.093, 7.822 ], [ 72.105, 7.82 ], [ 72.108, 7.807 ], [ 72.12, 7.805 ], [ 72.128, 7.814 ], [ 72.139, 7.812 ], [ 72.143, 7.8 ], [ 72.155, 7.797 ], [ 72.162, 7.806 ], [ 72.174, 7.804 ], [ 72.178, 7.792 ], [ 72.189, 7.789 ], [ 72.197, 7.798 ], [ 72.209, 7.796 ], [ 72.213, 7.784 ], [ 72.224, 7.781 ], [ 72.232, 7.79 ], [ 72.243, 7.788 ], [ 72.247, 7.776 ], [ 72.259, 7.773 ], [ 72.267, 7.782 ], [ 72.278, 7.78 ], [ 72.282, 7.768 ], [ 72.294, 7.765 ], [ 72.301, 7.774 ], [ 72.313, 7.772 ], [ 72.321, 7.781 ], [ 72.332, 7.779 ], [ 72.336, 7.766 ], [ 72.348, 7.764 ], [ 72.356, 7.773 ], [ 72.367, 7.771 ], [ 72.371, 7.758 ], [ 72.383, 7.756 ], [ 72.39, 7.765 ], [ 72.402, 7.763 ], [ 72.406, 7.751 ], [ 72.417, 7.748 ], [ 72.425, 7.757 ], [ 72.437, 7.755 ], [ 72.441, 7.743 ], [ 72.452, 7.74 ], [ 72.46, 7.749 ], [ 72.472, 7.747 ], [ 72.476, 7.735 ], [ 72.487, 7.732 ], [ 72.495, 7.741 ], [ 72.507, 7.739 ], [ 72.514, 7.748 ], [ 72.526, 7.745 ], [ 72.53, 7.733 ], [ 72.541, 7.731 ], [ 72.549, 7.74 ], [ 72.561, 7.737 ], [ 72.565, 7.725 ], [ 72.576, 7.723 ], [ 72.584, 7.732 ], [ 72.596, 7.729 ], [ 72.6, 7.717 ], [ 72.611, 7.715 ], [ 72.619, 7.724 ], [ 72.631, 7.721 ], [ 72.635, 7.709 ], [ 72.646, 7.707 ], [ 72.654, 7.716 ], [ 72.666, 7.713 ], [ 72.669, 7.701 ], [ 72.681, 7.698 ], [ 72.689, 7.708 ], [ 72.701, 7.705 ], [ 72.708, 7.715 ], [ 72.72, 7.712 ], [ 72.724, 7.7 ], [ 72.736, 7.697 ], [ 72.743, 7.707 ], [ 72.755, 7.704 ], [ 72.759, 7.692 ], [ 72.771, 7.689 ], [ 72.778, 7.699 ], [ 72.79, 7.696 ], [ 72.798, 7.705 ], [ 72.809, 7.703 ], [ 72.813, 7.691 ], [ 72.825, 7.688 ], [ 72.833, 7.697 ], [ 72.845, 7.695 ], [ 72.848, 7.683 ], [ 72.86, 7.68 ], [ 72.868, 7.689 ], [ 72.88, 7.687 ], [ 72.883, 7.674 ], [ 72.895, 7.672 ], [ 72.903, 7.681 ], [ 72.915, 7.679 ], [ 72.922, 7.688 ], [ 72.934, 7.685 ], [ 72.938, 7.673 ], [ 72.95, 7.67 ], [ 72.958, 7.68 ], [ 72.969, 7.677 ], [ 72.973, 7.665 ], [ 72.985, 7.662 ], [ 72.993, 7.672 ], [ 73.004, 7.669 ], [ 73.012, 7.679 ], [ 73.024, 7.676 ], [ 73.028, 7.664 ], [ 73.039, 7.661 ], [ 73.047, 7.671 ], [ 73.059, 7.668 ], [ 73.063, 7.656 ], [ 73.075, 7.653 ], [ 73.082, 7.662 ], [ 73.094, 7.66 ], [ 73.102, 7.669 ], [ 73.114, 7.666 ], [ 73.118, 7.654 ], [ 73.129, 7.652 ], [ 73.137, 7.661 ], [ 73.149, 7.658 ], [ 73.153, 7.646 ], [ 73.165, 7.643 ], [ 73.172, 7.653 ], [ 73.184, 7.65 ], [ 73.188, 7.638 ], [ 73.2, 7.635 ], [ 73.208, 7.645 ], [ 73.219, 7.642 ], [ 73.227, 7.652 ], [ 73.239, 7.649 ], [ 73.243, 7.637 ], [ 73.255, 7.634 ], [ 73.262, 7.643 ], [ 73.274, 7.641 ], [ 73.278, 7.629 ], [ 73.29, 7.626 ], [ 73.298, 7.635 ], [ 73.309, 7.633 ], [ 73.313, 7.62 ], [ 73.325, 7.618 ], [ 73.333, 7.627 ], [ 73.345, 7.624 ], [ 73.353, 7.634 ], [ 73.364, 7.631 ], [ 73.372, 7.641 ], [ 73.384, 7.638 ], [ 73.392, 7.648 ], [ 73.404, 7.645 ], [ 73.408, 7.633 ], [ 73.419, 7.63 ], [ 73.427, 7.639 ], [ 73.439, 7.637 ], [ 73.447, 7.646 ], [ 73.459, 7.643 ], [ 73.466, 7.653 ], [ 73.478, 7.65 ], [ 73.486, 7.66 ], [ 73.498, 7.657 ], [ 73.502, 7.645 ], [ 73.514, 7.642 ], [ 73.522, 7.652 ], [ 73.533, 7.649 ], [ 73.541, 7.658 ], [ 73.553, 7.656 ], [ 73.561, 7.665 ], [ 73.573, 7.662 ], [ 73.581, 7.672 ], [ 73.592, 7.669 ], [ 73.596, 7.657 ], [ 73.608, 7.654 ], [ 73.616, 7.664 ], [ 73.628, 7.661 ], [ 73.636, 7.671 ], [ 73.648, 7.668 ], [ 73.655, 7.677 ], [ 73.667, 7.675 ], [ 73.675, 7.684 ], [ 73.687, 7.681 ], [ 73.695, 7.691 ], [ 73.707, 7.688 ], [ 73.711, 7.676 ], [ 73.722, 7.673 ], [ 73.73, 7.683 ], [ 73.742, 7.68 ], [ 73.75, 7.69 ], [ 73.762, 7.687 ], [ 73.77, 7.696 ], [ 73.782, 7.694 ], [ 73.786, 7.681 ], [ 73.797, 7.679 ], [ 73.805, 7.688 ], [ 73.817, 7.685 ], [ 73.825, 7.695 ], [ 73.837, 7.692 ], [ 73.845, 7.702 ], [ 73.857, 7.699 ], [ 73.865, 7.708 ], [ 73.877, 7.706 ], [ 73.88, 7.693 ], [ 73.892, 7.691 ], [ 73.9, 7.7 ], [ 73.912, 7.698 ], [ 73.92, 7.707 ], [ 73.932, 7.704 ], [ 73.94, 7.714 ], [ 73.952, 7.711 ], [ 73.96, 7.721 ], [ 73.972, 7.718 ], [ 73.975, 7.706 ], [ 73.987, 7.703 ], [ 73.995, 7.712 ], [ 74.007, 7.71 ], [ 74.015, 7.719 ], [ 74.027, 7.717 ], [ 74.035, 7.726 ], [ 74.047, 7.723 ], [ 74.055, 7.733 ], [ 74.067, 7.73 ], [ 74.071, 7.718 ], [ 74.082, 7.715 ], [ 74.09, 7.725 ], [ 74.102, 7.722 ], [ 74.11, 7.731 ], [ 74.122, 7.729 ], [ 74.13, 7.738 ], [ 74.142, 7.735 ], [ 74.15, 7.745 ], [ 74.162, 7.742 ], [ 74.166, 7.73 ], [ 74.178, 7.727 ], [ 74.186, 7.737 ], [ 74.198, 7.734 ], [ 74.206, 7.744 ], [ 74.217, 7.741 ], [ 74.225, 7.75 ], [ 74.237, 7.748 ], [ 74.245, 7.757 ], [ 74.257, 7.754 ], [ 74.261, 7.742 ], [ 74.273, 7.739 ], [ 74.281, 7.749 ], [ 74.293, 7.746 ], [ 74.301, 7.756 ], [ 74.313, 7.753 ], [ 74.321, 7.763 ], [ 74.333, 7.76 ], [ 74.337, 7.747 ], [ 74.349, 7.745 ], [ 74.357, 7.754 ], [ 74.369, 7.752 ], [ 74.377, 7.761 ], [ 74.389, 7.758 ], [ 74.397, 7.768 ], [ 74.409, 7.765 ], [ 74.417, 7.775 ], [ 74.429, 7.772 ], [ 74.437, 7.782 ], [ 74.448, 7.779 ], [ 74.452, 7.766 ], [ 74.464, 7.764 ], [ 74.472, 7.773 ], [ 74.484, 7.77 ], [ 74.492, 7.78 ], [ 74.504, 7.777 ], [ 74.512, 7.787 ], [ 74.524, 7.784 ], [ 74.528, 7.772 ], [ 74.54, 7.769 ], [ 74.548, 7.779 ], [ 74.56, 7.776 ], [ 74.568, 7.785 ], [ 74.58, 7.783 ], [ 74.588, 7.792 ], [ 74.6, 7.789 ], [ 74.608, 7.799 ], [ 74.62, 7.796 ], [ 74.624, 7.784 ], [ 74.636, 7.781 ], [ 74.644, 7.791 ], [ 74.656, 7.788 ], [ 74.664, 7.797 ], [ 74.676, 7.795 ], [ 74.684, 7.804 ], [ 74.696, 7.802 ], [ 74.704, 7.811 ], [ 74.716, 7.808 ], [ 74.72, 7.796 ], [ 74.732, 7.793 ], [ 74.74, 7.803 ], [ 74.752, 7.8 ], [ 74.76, 7.81 ], [ 74.772, 7.807 ], [ 74.78, 7.816 ], [ 74.792, 7.814 ], [ 74.8, 7.823 ], [ 74.812, 7.82 ], [ 74.816, 7.808 ], [ 74.828, 7.805 ], [ 74.836, 7.815 ], [ 74.848, 7.812 ], [ 74.856, 7.822 ], [ 74.868, 7.819 ], [ 74.876, 7.829 ], [ 74.888, 7.826 ], [ 74.892, 7.813 ], [ 74.904, 7.811 ], [ 74.912, 7.82 ], [ 74.925, 7.817 ], [ 74.933, 7.827 ], [ 74.929, 7.839 ], [ 74.937, 7.849 ], [ 74.933, 7.861 ], [ 74.921, 7.864 ], [ 74.917, 7.877 ], [ 74.925, 7.886 ], [ 74.921, 7.898 ], [ 74.929, 7.908 ], [ 74.925, 7.92 ], [ 74.913, 7.923 ], [ 74.909, 7.936 ], [ 74.917, 7.945 ], [ 74.914, 7.958 ], [ 74.922, 7.967 ], [ 74.918, 7.98 ], [ 74.906, 7.982 ], [ 74.902, 7.995 ], [ 74.91, 8.004 ], [ 74.906, 8.017 ], [ 74.894, 8.019 ], [ 74.89, 8.032 ], [ 74.898, 8.041 ], [ 74.894, 8.054 ], [ 74.902, 8.063 ], [ 74.898, 8.076 ], [ 74.886, 8.078 ], [ 74.882, 8.091 ], [ 74.891, 8.1 ], [ 74.887, 8.113 ], [ 74.895, 8.122 ], [ 74.891, 8.135 ], [ 74.879, 8.137 ], [ 74.875, 8.15 ], [ 74.883, 8.159 ], [ 74.879, 8.172 ], [ 74.887, 8.181 ], [ 74.883, 8.194 ], [ 74.871, 8.197 ], [ 74.867, 8.209 ], [ 74.875, 8.219 ], [ 74.872, 8.231 ], [ 74.88, 8.241 ], [ 74.876, 8.253 ], [ 74.864, 8.256 ], [ 74.86, 8.268 ], [ 74.868, 8.278 ], [ 74.864, 8.29 ], [ 74.872, 8.3 ], [ 74.868, 8.312 ], [ 74.856, 8.315 ], [ 74.852, 8.327 ], [ 74.86, 8.337 ], [ 74.856, 8.349 ], [ 74.844, 8.352 ], [ 74.84, 8.364 ], [ 74.849, 8.374 ], [ 74.845, 8.386 ], [ 74.853, 8.396 ], [ 74.849, 8.408 ], [ 74.837, 8.411 ], [ 74.833, 8.423 ], [ 74.841, 8.433 ], [ 74.837, 8.445 ], [ 74.825, 8.448 ], [ 74.821, 8.46 ], [ 74.829, 8.47 ], [ 74.825, 8.482 ], [ 74.813, 8.485 ], [ 74.809, 8.497 ], [ 74.817, 8.507 ], [ 74.813, 8.519 ], [ 74.822, 8.529 ], [ 74.818, 8.541 ], [ 74.806, 8.544 ], [ 74.802, 8.556 ], [ 74.79, 8.559 ], [ 74.786, 8.571 ], [ 74.794, 8.581 ], [ 74.79, 8.593 ], [ 74.778, 8.596 ], [ 74.774, 8.608 ], [ 74.782, 8.618 ], [ 74.778, 8.63 ], [ 74.766, 8.633 ], [ 74.762, 8.645 ], [ 74.77, 8.655 ], [ 74.766, 8.667 ], [ 74.774, 8.677 ], [ 74.771, 8.689 ], [ 74.759, 8.692 ], [ 74.755, 8.705 ], [ 74.763, 8.714 ], [ 74.759, 8.727 ], [ 74.767, 8.736 ], [ 74.763, 8.748 ], [ 74.771, 8.758 ], [ 74.767, 8.77 ], [ 74.775, 8.78 ], [ 74.771, 8.792 ], [ 74.779, 8.802 ], [ 74.775, 8.814 ], [ 74.784, 8.824 ], [ 74.78, 8.836 ], [ 74.788, 8.846 ], [ 74.784, 8.858 ], [ 74.792, 8.868 ], [ 74.788, 8.88 ], [ 74.796, 8.89 ], [ 74.792, 8.902 ], [ 74.8, 8.912 ], [ 74.796, 8.924 ], [ 74.804, 8.934 ], [ 74.801, 8.946 ], [ 74.809, 8.956 ], [ 74.821, 8.953 ], [ 74.829, 8.963 ], [ 74.825, 8.975 ], [ 74.833, 8.985 ], [ 74.829, 8.997 ], [ 74.837, 9.007 ], [ 74.833, 9.02 ], [ 74.841, 9.029 ], [ 74.837, 9.042 ], [ 74.846, 9.051 ], [ 74.842, 9.064 ], [ 74.85, 9.073 ], [ 74.846, 9.086 ], [ 74.854, 9.095 ], [ 74.85, 9.108 ], [ 74.858, 9.117 ], [ 74.854, 9.13 ], [ 74.862, 9.139 ], [ 74.858, 9.152 ], [ 74.867, 9.161 ], [ 74.863, 9.174 ], [ 74.871, 9.183 ], [ 74.867, 9.196 ], [ 74.875, 9.205 ], [ 74.871, 9.218 ], [ 74.879, 9.227 ], [ 74.875, 9.24 ], [ 74.883, 9.249 ], [ 74.879, 9.262 ], [ 74.887, 9.271 ], [ 74.884, 9.284 ], [ 74.892, 9.293 ], [ 74.888, 9.306 ], [ 74.896, 9.316 ], [ 74.892, 9.328 ], [ 74.9, 9.338 ], [ 74.896, 9.35 ], [ 74.904, 9.36 ], [ 74.9, 9.372 ], [ 74.908, 9.382 ], [ 74.905, 9.394 ], [ 74.913, 9.404 ], [ 74.909, 9.416 ], [ 74.917, 9.426 ], [ 74.913, 9.438 ], [ 74.921, 9.448 ], [ 74.917, 9.46 ], [ 74.925, 9.47 ], [ 74.921, 9.482 ], [ 74.929, 9.492 ], [ 74.926, 9.504 ], [ 74.934, 9.514 ], [ 74.93, 9.526 ], [ 74.918, 9.529 ], [ 74.914, 9.541 ], [ 74.922, 9.551 ], [ 74.918, 9.563 ], [ 74.926, 9.573 ], [ 74.922, 9.585 ], [ 74.93, 9.595 ], [ 74.926, 9.607 ], [ 74.935, 9.617 ], [ 74.931, 9.629 ], [ 74.939, 9.639 ], [ 74.935, 9.652 ], [ 74.923, 9.654 ], [ 74.919, 9.667 ], [ 74.927, 9.676 ], [ 74.923, 9.689 ], [ 74.931, 9.698 ], [ 74.927, 9.711 ], [ 74.915, 9.713 ], [ 74.911, 9.726 ], [ 74.919, 9.735 ], [ 74.915, 9.748 ], [ 74.923, 9.757 ], [ 74.92, 9.77 ], [ 74.928, 9.779 ], [ 74.924, 9.792 ], [ 74.912, 9.794 ], [ 74.908, 9.807 ], [ 74.916, 9.816 ], [ 74.912, 9.829 ], [ 74.92, 9.839 ], [ 74.916, 9.851 ], [ 74.904, 9.854 ], [ 74.9, 9.866 ], [ 74.908, 9.876 ], [ 74.904, 9.888 ], [ 74.912, 9.898 ], [ 74.909, 9.91 ], [ 74.917, 9.92 ], [ 74.913, 9.932 ], [ 74.901, 9.935 ], [ 74.897, 9.947 ], [ 74.905, 9.957 ], [ 74.901, 9.969 ], [ 74.909, 9.979 ], [ 74.905, 9.991 ], [ 74.893, 9.994 ], [ 74.889, 10.006 ], [ 74.897, 10.016 ], [ 74.893, 10.028 ], [ 74.901, 10.038 ], [ 74.898, 10.05 ], [ 74.885, 10.053 ], [ 74.881, 10.065 ], [ 74.89, 10.075 ], [ 74.886, 10.087 ], [ 74.874, 10.09 ], [ 74.87, 10.102 ], [ 74.878, 10.112 ], [ 74.874, 10.124 ], [ 74.882, 10.134 ], [ 74.878, 10.146 ], [ 74.866, 10.149 ], [ 74.862, 10.161 ], [ 74.87, 10.171 ], [ 74.866, 10.183 ], [ 74.854, 10.186 ], [ 74.85, 10.198 ], [ 74.858, 10.208 ], [ 74.854, 10.22 ], [ 74.842, 10.223 ], [ 74.838, 10.235 ], [ 74.846, 10.245 ], [ 74.843, 10.257 ], [ 74.83, 10.26 ], [ 74.827, 10.272 ], [ 74.835, 10.282 ], [ 74.831, 10.294 ], [ 74.839, 10.304 ], [ 74.835, 10.316 ], [ 74.823, 10.319 ], [ 74.819, 10.331 ], [ 74.827, 10.341 ], [ 74.823, 10.353 ], [ 74.811, 10.356 ], [ 74.807, 10.368 ], [ 74.815, 10.378 ], [ 74.811, 10.39 ], [ 74.819, 10.4 ], [ 74.815, 10.412 ], [ 74.803, 10.415 ], [ 74.799, 10.427 ], [ 74.808, 10.437 ], [ 74.804, 10.449 ], [ 74.812, 10.459 ], [ 74.808, 10.471 ], [ 74.816, 10.481 ], [ 74.812, 10.493 ], [ 74.8, 10.496 ], [ 74.796, 10.508 ], [ 74.804, 10.518 ], [ 74.8, 10.53 ], [ 74.808, 10.54 ], [ 74.804, 10.552 ], [ 74.813, 10.562 ], [ 74.809, 10.574 ], [ 74.796, 10.577 ], [ 74.793, 10.589 ], [ 74.801, 10.599 ], [ 74.797, 10.611 ], [ 74.805, 10.621 ], [ 74.801, 10.633 ], [ 74.809, 10.643 ], [ 74.805, 10.656 ], [ 74.793, 10.658 ], [ 74.789, 10.67 ], [ 74.797, 10.68 ], [ 74.793, 10.692 ], [ 74.801, 10.702 ], [ 74.797, 10.715 ], [ 74.785, 10.717 ], [ 74.781, 10.729 ], [ 74.79, 10.739 ], [ 74.786, 10.752 ], [ 74.774, 10.754 ], [ 74.77, 10.766 ], [ 74.778, 10.776 ], [ 74.774, 10.788 ], [ 74.762, 10.791 ], [ 74.758, 10.803 ], [ 74.766, 10.813 ], [ 74.762, 10.825 ], [ 74.75, 10.828 ], [ 74.746, 10.84 ], [ 74.754, 10.85 ], [ 74.75, 10.862 ], [ 74.738, 10.865 ], [ 74.734, 10.877 ], [ 74.742, 10.887 ], [ 74.738, 10.899 ], [ 74.726, 10.902 ], [ 74.722, 10.914 ], [ 74.73, 10.924 ], [ 74.726, 10.936 ], [ 74.714, 10.939 ], [ 74.71, 10.951 ], [ 74.718, 10.961 ], [ 74.714, 10.973 ], [ 74.702, 10.975 ], [ 74.698, 10.988 ], [ 74.707, 10.998 ], [ 74.703, 11.01 ], [ 74.691, 11.012 ], [ 74.687, 11.025 ], [ 74.695, 11.034 ], [ 74.691, 11.047 ], [ 74.679, 11.049 ], [ 74.675, 11.062 ], [ 74.683, 11.071 ], [ 74.679, 11.084 ], [ 74.667, 11.086 ], [ 74.663, 11.098 ], [ 74.671, 11.108 ], [ 74.667, 11.12 ], [ 74.655, 11.123 ], [ 74.651, 11.135 ], [ 74.639, 11.138 ], [ 74.635, 11.15 ], [ 74.643, 11.16 ], [ 74.639, 11.172 ], [ 74.627, 11.175 ], [ 74.623, 11.187 ], [ 74.611, 11.189 ], [ 74.607, 11.202 ], [ 74.595, 11.204 ], [ 74.591, 11.216 ], [ 74.579, 11.219 ], [ 74.575, 11.231 ], [ 74.583, 11.241 ], [ 74.579, 11.253 ], [ 74.567, 11.256 ], [ 74.563, 11.268 ], [ 74.551, 11.27 ], [ 74.547, 11.283 ], [ 74.535, 11.285 ], [ 74.531, 11.298 ], [ 74.519, 11.3 ], [ 74.515, 11.312 ], [ 74.523, 11.322 ], [ 74.519, 11.334 ], [ 74.507, 11.337 ], [ 74.503, 11.349 ], [ 74.491, 11.352 ], [ 74.487, 11.364 ], [ 74.475, 11.366 ], [ 74.471, 11.379 ], [ 74.459, 11.381 ], [ 74.455, 11.393 ], [ 74.463, 11.403 ], [ 74.459, 11.415 ], [ 74.447, 11.418 ], [ 74.443, 11.43 ], [ 74.431, 11.433 ], [ 74.427, 11.445 ], [ 74.415, 11.447 ], [ 74.411, 11.46 ], [ 74.399, 11.462 ], [ 74.395, 11.474 ], [ 74.403, 11.484 ], [ 74.399, 11.496 ], [ 74.387, 11.499 ], [ 74.383, 11.511 ], [ 74.371, 11.513 ], [ 74.367, 11.526 ], [ 74.355, 11.528 ], [ 74.351, 11.54 ], [ 74.339, 11.543 ], [ 74.335, 11.555 ], [ 74.343, 11.565 ], [ 74.339, 11.577 ], [ 74.327, 11.58 ], [ 74.323, 11.592 ], [ 74.311, 11.594 ], [ 74.307, 11.606 ], [ 74.295, 11.609 ], [ 74.291, 11.621 ], [ 74.279, 11.624 ], [ 74.275, 11.636 ], [ 74.283, 11.646 ], [ 74.279, 11.658 ], [ 74.267, 11.66 ], [ 74.263, 11.673 ], [ 74.251, 11.675 ], [ 74.247, 11.687 ], [ 74.235, 11.69 ], [ 74.231, 11.702 ], [ 74.219, 11.704 ], [ 74.215, 11.717 ], [ 74.203, 11.719 ], [ 74.199, 11.731 ], [ 74.187, 11.734 ], [ 74.183, 11.746 ], [ 74.171, 11.748 ], [ 74.167, 11.76 ], [ 74.155, 11.763 ], [ 74.151, 11.775 ], [ 74.159, 11.785 ], [ 74.155, 11.797 ], [ 74.143, 11.8 ], [ 74.139, 11.812 ], [ 74.127, 11.814 ], [ 74.123, 11.826 ], [ 74.111, 11.829 ], [ 74.107, 11.841 ], [ 74.095, 11.843 ], [ 74.091, 11.856 ], [ 74.079, 11.858 ], [ 74.075, 11.87 ], [ 74.063, 11.873 ], [ 74.059, 11.885 ], [ 74.047, 11.887 ], [ 74.043, 11.899 ], [ 74.031, 11.902 ], [ 74.027, 11.914 ], [ 74.015, 11.916 ], [ 74.011, 11.929 ], [ 74.019, 11.938 ], [ 74.015, 11.951 ], [ 74.003, 11.953 ], [ 73.999, 11.965 ], [ 74.008, 11.975 ], [ 74.004, 11.987 ], [ 73.992, 11.99 ], [ 73.988, 12.002 ], [ 73.976, 12.004 ], [ 73.972, 12.016 ], [ 73.98, 12.026 ], [ 73.976, 12.038 ], [ 73.964, 12.041 ], [ 73.96, 12.053 ], [ 73.968, 12.063 ], [ 73.964, 12.075 ], [ 73.952, 12.077 ], [ 73.948, 12.09 ], [ 73.936, 12.092 ], [ 73.932, 12.104 ], [ 73.92, 12.107 ], [ 73.916, 12.119 ], [ 73.924, 12.129 ], [ 73.92, 12.141 ], [ 73.908, 12.143 ], [ 73.904, 12.155 ], [ 73.912, 12.165 ], [ 73.908, 12.177 ], [ 73.896, 12.18 ], [ 73.892, 12.192 ], [ 73.88, 12.194 ], [ 73.876, 12.206 ], [ 73.884, 12.216 ], [ 73.88, 12.228 ], [ 73.868, 12.231 ], [ 73.864, 12.243 ], [ 73.852, 12.245 ], [ 73.848, 12.257 ], [ 73.836, 12.26 ], [ 73.832, 12.272 ], [ 73.82, 12.274 ], [ 73.816, 12.286 ], [ 73.824, 12.296 ], [ 73.82, 12.308 ], [ 73.808, 12.311 ], [ 73.804, 12.323 ], [ 73.792, 12.325 ], [ 73.788, 12.337 ], [ 73.797, 12.347 ], [ 73.793, 12.359 ], [ 73.781, 12.362 ], [ 73.777, 12.374 ], [ 73.765, 12.376 ], [ 73.761, 12.388 ], [ 73.749, 12.391 ], [ 73.745, 12.403 ], [ 73.733, 12.405 ], [ 73.729, 12.417 ], [ 73.737, 12.427 ], [ 73.733, 12.439 ], [ 73.721, 12.442 ], [ 73.717, 12.454 ], [ 73.705, 12.456 ], [ 73.701, 12.468 ], [ 73.689, 12.471 ], [ 73.685, 12.483 ], [ 73.693, 12.493 ], [ 73.689, 12.505 ], [ 73.677, 12.507 ], [ 73.673, 12.519 ], [ 73.661, 12.522 ], [ 73.657, 12.534 ], [ 73.645, 12.536 ], [ 73.641, 12.548 ], [ 73.649, 12.558 ], [ 73.645, 12.57 ], [ 73.633, 12.572 ], [ 73.629, 12.585 ], [ 73.617, 12.587 ], [ 73.613, 12.599 ], [ 73.601, 12.601 ], [ 73.597, 12.614 ], [ 73.605, 12.623 ], [ 73.601, 12.635 ], [ 73.589, 12.638 ], [ 73.585, 12.65 ], [ 73.573, 12.652 ], [ 73.569, 12.664 ], [ 73.557, 12.667 ], [ 73.553, 12.679 ], [ 73.562, 12.689 ], [ 73.558, 12.701 ], [ 73.546, 12.703 ], [ 73.542, 12.715 ], [ 73.53, 12.717 ], [ 73.526, 12.73 ], [ 73.514, 12.732 ], [ 73.51, 12.744 ], [ 73.518, 12.754 ], [ 73.514, 12.766 ], [ 73.502, 12.768 ], [ 73.498, 12.78 ], [ 73.486, 12.783 ], [ 73.482, 12.795 ], [ 73.47, 12.797 ], [ 73.466, 12.809 ], [ 73.474, 12.819 ], [ 73.47, 12.831 ], [ 73.458, 12.833 ], [ 73.454, 12.845 ], [ 73.442, 12.848 ], [ 73.438, 12.86 ], [ 73.426, 12.862 ], [ 73.422, 12.874 ], [ 73.43, 12.884 ], [ 73.426, 12.896 ], [ 73.414, 12.898 ], [ 73.41, 12.911 ], [ 73.398, 12.913 ], [ 73.394, 12.925 ], [ 73.382, 12.927 ], [ 73.378, 12.939 ], [ 73.366, 12.942 ], [ 73.363, 12.954 ], [ 73.351, 12.956 ], [ 73.347, 12.968 ], [ 73.355, 12.978 ], [ 73.351, 12.99 ], [ 73.339, 12.992 ], [ 73.335, 13.004 ], [ 73.323, 13.007 ], [ 73.319, 13.019 ], [ 73.307, 13.021 ], [ 73.303, 13.033 ], [ 73.291, 13.035 ], [ 73.287, 13.047 ], [ 73.295, 13.057 ], [ 73.291, 13.069 ], [ 73.279, 13.072 ], [ 73.275, 13.084 ], [ 73.263, 13.086 ], [ 73.259, 13.098 ], [ 73.247, 13.1 ], [ 73.243, 13.112 ], [ 73.231, 13.115 ], [ 73.227, 13.127 ], [ 73.235, 13.136 ], [ 73.231, 13.148 ], [ 73.219, 13.151 ], [ 73.215, 13.163 ], [ 73.203, 13.165 ], [ 73.199, 13.177 ], [ 73.188, 13.179 ], [ 73.184, 13.191 ], [ 73.172, 13.194 ], [ 73.168, 13.206 ], [ 73.156, 13.208 ], [ 73.152, 13.22 ], [ 73.14, 13.222 ], [ 73.136, 13.234 ], [ 73.144, 13.244 ], [ 73.14, 13.256 ], [ 73.128, 13.258 ], [ 73.12, 13.249 ], [ 73.108, 13.251 ], [ 73.104, 13.263 ], [ 73.092, 13.265 ], [ 73.088, 13.277 ], [ 73.076, 13.279 ], [ 73.072, 13.291 ], [ 73.06, 13.294 ], [ 73.056, 13.306 ], [ 73.044, 13.308 ], [ 73.04, 13.32 ], [ 73.029, 13.322 ], [ 73.025, 13.334 ], [ 73.013, 13.336 ], [ 73.009, 13.349 ], [ 72.997, 13.351 ], [ 72.993, 13.363 ], [ 72.981, 13.365 ], [ 72.977, 13.377 ], [ 72.965, 13.379 ], [ 72.961, 13.391 ], [ 72.949, 13.393 ], [ 72.945, 13.406 ], [ 72.933, 13.408 ], [ 72.929, 13.42 ], [ 72.917, 13.422 ], [ 72.913, 13.434 ], [ 72.901, 13.436 ], [ 72.897, 13.448 ], [ 72.886, 13.45 ], [ 72.882, 13.462 ], [ 72.87, 13.465 ], [ 72.866, 13.477 ], [ 72.854, 13.479 ], [ 72.85, 13.491 ], [ 72.838, 13.493 ], [ 72.834, 13.505 ], [ 72.822, 13.507 ], [ 72.818, 13.519 ], [ 72.806, 13.521 ], [ 72.802, 13.533 ], [ 72.79, 13.536 ], [ 72.782, 13.526 ], [ 72.771, 13.528 ], [ 72.767, 13.54 ], [ 72.755, 13.542 ], [ 72.751, 13.554 ], [ 72.739, 13.556 ], [ 72.735, 13.568 ], [ 72.723, 13.571 ], [ 72.719, 13.583 ], [ 72.707, 13.585 ], [ 72.699, 13.575 ], [ 72.687, 13.577 ], [ 72.683, 13.589 ], [ 72.671, 13.591 ], [ 72.667, 13.603 ], [ 72.656, 13.605 ], [ 72.648, 13.596 ], [ 72.636, 13.598 ], [ 72.632, 13.61 ], [ 72.62, 13.612 ], [ 72.616, 13.624 ], [ 72.604, 13.626 ], [ 72.6, 13.638 ], [ 72.588, 13.64 ], [ 72.584, 13.652 ], [ 72.572, 13.654 ], [ 72.565, 13.645 ], [ 72.553, 13.647 ], [ 72.549, 13.659 ], [ 72.537, 13.661 ], [ 72.533, 13.673 ], [ 72.521, 13.675 ], [ 72.513, 13.665 ], [ 72.501, 13.667 ], [ 72.497, 13.679 ], [ 72.485, 13.682 ], [ 72.482, 13.694 ], [ 72.47, 13.696 ], [ 72.462, 13.686 ], [ 72.45, 13.688 ], [ 72.446, 13.7 ], [ 72.434, 13.702 ], [ 72.43, 13.714 ], [ 72.418, 13.716 ], [ 72.414, 13.728 ], [ 72.403, 13.73 ], [ 72.395, 13.721 ], [ 72.383, 13.723 ], [ 72.379, 13.735 ], [ 72.367, 13.737 ], [ 72.363, 13.749 ], [ 72.351, 13.751 ], [ 72.347, 13.763 ], [ 72.335, 13.765 ], [ 72.328, 13.755 ], [ 72.316, 13.757 ], [ 72.312, 13.769 ], [ 72.3, 13.771 ], [ 72.296, 13.783 ], [ 72.284, 13.785 ], [ 72.276, 13.776 ], [ 72.264, 13.778 ], [ 72.26, 13.79 ], [ 72.249, 13.792 ], [ 72.245, 13.804 ], [ 72.233, 13.806 ], [ 72.225, 13.796 ], [ 72.213, 13.798 ], [ 72.209, 13.81 ], [ 72.197, 13.812 ], [ 72.193, 13.824 ], [ 72.182, 13.826 ], [ 72.174, 13.817 ], [ 72.162, 13.819 ], [ 72.158, 13.831 ], [ 72.146, 13.833 ], [ 72.142, 13.845 ], [ 72.13, 13.847 ], [ 72.123, 13.837 ], [ 72.111, 13.839 ], [ 72.107, 13.851 ], [ 72.095, 13.853 ], [ 72.091, 13.865 ], [ 72.079, 13.867 ], [ 72.071, 13.857 ], [ 72.06, 13.859 ], [ 72.056, 13.871 ], [ 72.044, 13.873 ], [ 72.04, 13.885 ], [ 72.028, 13.888 ], [ 72.02, 13.878 ], [ 72.009, 13.88 ], [ 72.005, 13.892 ], [ 71.993, 13.894 ], [ 71.989, 13.906 ], [ 71.977, 13.908 ], [ 71.969, 13.898 ], [ 71.957, 13.9 ], [ 71.954, 13.912 ], [ 71.942, 13.914 ], [ 71.938, 13.926 ], [ 71.926, 13.928 ], [ 71.922, 13.94 ], [ 71.91, 13.942 ], [ 71.903, 13.932 ], [ 71.891, 13.934 ], [ 71.887, 13.946 ], [ 71.875, 13.948 ], [ 71.871, 13.96 ], [ 71.859, 13.962 ], [ 71.855, 13.974 ], [ 71.844, 13.976 ], [ 71.84, 13.988 ], [ 71.828, 13.99 ], [ 71.82, 13.981 ], [ 71.808, 13.983 ], [ 71.804, 13.995 ], [ 71.793, 13.997 ], [ 71.789, 14.008 ], [ 71.777, 14.011 ], [ 71.773, 14.022 ], [ 71.761, 14.025 ], [ 71.753, 14.015 ], [ 71.742, 14.017 ], [ 71.738, 14.029 ], [ 71.726, 14.031 ], [ 71.722, 14.043 ], [ 71.71, 14.045 ], [ 71.706, 14.057 ], [ 71.695, 14.059 ], [ 71.687, 14.049 ], [ 71.675, 14.051 ], [ 71.671, 14.063 ], [ 71.659, 14.065 ], [ 71.655, 14.077 ], [ 71.644, 14.079 ], [ 71.64, 14.091 ], [ 71.628, 14.093 ], [ 71.62, 14.083 ], [ 71.609, 14.085 ], [ 71.605, 14.097 ], [ 71.593, 14.099 ], [ 71.589, 14.111 ], [ 71.577, 14.113 ], [ 71.573, 14.125 ], [ 71.562, 14.127 ], [ 71.554, 14.117 ], [ 71.542, 14.119 ], [ 71.538, 14.131 ], [ 71.526, 14.133 ], [ 71.522, 14.145 ], [ 71.511, 14.147 ], [ 71.507, 14.159 ], [ 71.495, 14.161 ], [ 71.491, 14.173 ], [ 71.479, 14.175 ], [ 71.472, 14.165 ], [ 71.46, 14.167 ], [ 71.456, 14.179 ], [ 71.444, 14.181 ], [ 71.44, 14.193 ], [ 71.429, 14.195 ], [ 71.425, 14.206 ], [ 71.413, 14.208 ], [ 71.405, 14.199 ], [ 71.394, 14.201 ], [ 71.39, 14.213 ], [ 71.378, 14.215 ], [ 71.374, 14.226 ], [ 71.362, 14.228 ], [ 71.358, 14.24 ], [ 71.347, 14.242 ], [ 71.339, 14.232 ], [ 71.327, 14.235 ], [ 71.323, 14.246 ], [ 71.312, 14.248 ], [ 71.308, 14.26 ], [ 71.296, 14.262 ], [ 71.288, 14.252 ], [ 71.277, 14.254 ], [ 71.273, 14.266 ], [ 71.261, 14.268 ], [ 71.257, 14.28 ], [ 71.245, 14.282 ], [ 71.238, 14.272 ], [ 71.226, 14.274 ], [ 71.222, 14.286 ], [ 71.21, 14.288 ], [ 71.206, 14.3 ], [ 71.195, 14.302 ], [ 71.191, 14.314 ], [ 71.179, 14.316 ], [ 71.175, 14.328 ], [ 71.164, 14.33 ], [ 71.156, 14.32 ], [ 71.144, 14.322 ], [ 71.14, 14.334 ], [ 71.129, 14.336 ], [ 71.121, 14.326 ], [ 71.109, 14.328 ], [ 71.105, 14.34 ], [ 71.094, 14.342 ], [ 71.09, 14.353 ], [ 71.078, 14.355 ], [ 71.07, 14.346 ], [ 71.059, 14.348 ], [ 71.055, 14.359 ], [ 71.043, 14.361 ], [ 71.035, 14.352 ], [ 71.024, 14.354 ], [ 71.02, 14.365 ], [ 71.008, 14.367 ], [ 71.004, 14.379 ], [ 70.993, 14.381 ], [ 70.985, 14.371 ], [ 70.973, 14.373 ], [ 70.969, 14.385 ], [ 70.958, 14.387 ], [ 70.954, 14.399 ], [ 70.942, 14.401 ], [ 70.935, 14.391 ], [ 70.923, 14.393 ], [ 70.919, 14.405 ], [ 70.907, 14.407 ], [ 70.9, 14.397 ], [ 70.888, 14.399 ], [ 70.884, 14.411 ], [ 70.873, 14.413 ], [ 70.865, 14.403 ], [ 70.853, 14.405 ], [ 70.849, 14.417 ], [ 70.838, 14.419 ], [ 70.834, 14.431 ], [ 70.822, 14.433 ], [ 70.815, 14.423 ], [ 70.803, 14.425 ], [ 70.799, 14.437 ], [ 70.787, 14.439 ], [ 70.783, 14.45 ], [ 70.772, 14.452 ], [ 70.764, 14.442 ], [ 70.753, 14.444 ], [ 70.749, 14.456 ], [ 70.737, 14.458 ], [ 70.729, 14.448 ], [ 70.718, 14.45 ], [ 70.714, 14.462 ], [ 70.702, 14.464 ], [ 70.695, 14.454 ], [ 70.683, 14.456 ], [ 70.679, 14.468 ], [ 70.668, 14.47 ], [ 70.66, 14.46 ], [ 70.648, 14.462 ], [ 70.644, 14.474 ], [ 70.633, 14.476 ], [ 70.625, 14.466 ], [ 70.614, 14.468 ], [ 70.606, 14.458 ], [ 70.594, 14.46 ], [ 70.591, 14.472 ], [ 70.579, 14.474 ], [ 70.571, 14.464 ], [ 70.56, 14.466 ], [ 70.552, 14.456 ], [ 70.541, 14.458 ], [ 70.537, 14.47 ], [ 70.525, 14.472 ], [ 70.517, 14.462 ], [ 70.506, 14.464 ], [ 70.498, 14.454 ], [ 70.487, 14.456 ], [ 70.483, 14.468 ], [ 70.471, 14.47 ], [ 70.464, 14.46 ], [ 70.452, 14.462 ], [ 70.448, 14.474 ], [ 70.437, 14.476 ], [ 70.429, 14.466 ], [ 70.418, 14.468 ], [ 70.41, 14.458 ], [ 70.398, 14.46 ], [ 70.391, 14.451 ], [ 70.379, 14.453 ], [ 70.372, 14.443 ], [ 70.36, 14.445 ], [ 70.353, 14.435 ], [ 70.341, 14.437 ], [ 70.333, 14.427 ], [ 70.322, 14.429 ], [ 70.314, 14.419 ], [ 70.318, 14.408 ], [ 70.311, 14.398 ], [ 70.299, 14.4 ], [ 70.292, 14.39 ], [ 70.28, 14.392 ], [ 70.272, 14.382 ], [ 70.261, 14.384 ], [ 70.253, 14.375 ], [ 70.242, 14.377 ], [ 70.234, 14.367 ], [ 70.223, 14.369 ], [ 70.215, 14.359 ], [ 70.219, 14.347 ], [ 70.212, 14.338 ], [ 70.2, 14.339 ], [ 70.193, 14.33 ], [ 70.181, 14.332 ], [ 70.173, 14.322 ], [ 70.162, 14.324 ], [ 70.154, 14.314 ], [ 70.158, 14.302 ], [ 70.151, 14.293 ], [ 70.139, 14.295 ], [ 70.132, 14.285 ], [ 70.12, 14.287 ], [ 70.113, 14.277 ], [ 70.101, 14.279 ], [ 70.094, 14.269 ], [ 70.098, 14.258 ], [ 70.09, 14.248 ], [ 70.079, 14.25 ], [ 70.071, 14.24 ], [ 70.06, 14.242 ], [ 70.052, 14.232 ], [ 70.041, 14.234 ], [ 70.033, 14.225 ], [ 70.037, 14.213 ], [ 70.029, 14.203 ], [ 70.018, 14.205 ], [ 70.01, 14.195 ], [ 69.999, 14.197 ], [ 69.991, 14.188 ], [ 69.995, 14.176 ], [ 69.988, 14.166 ], [ 69.976, 14.168 ], [ 69.969, 14.159 ], [ 69.957, 14.16 ], [ 69.95, 14.151 ], [ 69.954, 14.139 ], [ 69.946, 14.129 ], [ 69.935, 14.131 ], [ 69.927, 14.122 ], [ 69.916, 14.124 ], [ 69.908, 14.114 ], [ 69.897, 14.116 ], [ 69.889, 14.106 ], [ 69.893, 14.094 ], [ 69.886, 14.085 ], [ 69.874, 14.087 ], [ 69.867, 14.077 ], [ 69.855, 14.079 ], [ 69.848, 14.069 ], [ 69.852, 14.058 ], [ 69.844, 14.048 ], [ 69.833, 14.05 ], [ 69.825, 14.04 ], [ 69.814, 14.042 ], [ 69.807, 14.032 ], [ 69.81, 14.021 ], [ 69.803, 14.011 ], [ 69.792, 14.013 ], [ 69.784, 14.003 ], [ 69.788, 13.992 ], [ 69.78, 13.982 ], [ 69.769, 13.984 ], [ 69.762, 13.974 ], [ 69.75, 13.976 ], [ 69.743, 13.966 ], [ 69.747, 13.955 ], [ 69.739, 13.945 ], [ 69.728, 13.947 ], [ 69.72, 13.937 ], [ 69.724, 13.926 ], [ 69.717, 13.916 ], [ 69.705, 13.918 ], [ 69.698, 13.908 ], [ 69.686, 13.91 ], [ 69.679, 13.9 ], [ 69.683, 13.889 ], [ 69.675, 13.879 ], [ 69.664, 13.881 ], [ 69.656, 13.871 ], [ 69.66, 13.86 ], [ 69.653, 13.85 ], [ 69.642, 13.852 ], [ 69.634, 13.842 ], [ 69.623, 13.844 ], [ 69.615, 13.835 ], [ 69.619, 13.823 ], [ 69.612, 13.813 ], [ 69.6, 13.815 ], [ 69.593, 13.805 ], [ 69.597, 13.794 ], [ 69.589, 13.784 ], [ 69.578, 13.786 ], [ 69.57, 13.776 ], [ 69.574, 13.765 ], [ 69.567, 13.755 ], [ 69.556, 13.757 ], [ 69.548, 13.747 ], [ 69.537, 13.749 ], [ 69.529, 13.74 ], [ 69.533, 13.728 ], [ 69.526, 13.718 ], [ 69.514, 13.72 ], [ 69.507, 13.711 ], [ 69.511, 13.699 ], [ 69.503, 13.689 ], [ 69.492, 13.691 ], [ 69.485, 13.682 ], [ 69.489, 13.67 ], [ 69.481, 13.66 ], [ 69.47, 13.662 ], [ 69.462, 13.653 ], [ 69.466, 13.641 ], [ 69.459, 13.631 ], [ 69.447, 13.633 ], [ 69.44, 13.624 ], [ 69.444, 13.612 ], [ 69.436, 13.602 ], [ 69.425, 13.604 ], [ 69.418, 13.595 ], [ 69.422, 13.583 ], [ 69.414, 13.573 ], [ 69.403, 13.575 ], [ 69.395, 13.566 ], [ 69.399, 13.554 ], [ 69.392, 13.544 ], [ 69.381, 13.546 ], [ 69.373, 13.537 ], [ 69.377, 13.525 ], [ 69.37, 13.515 ], [ 69.374, 13.504 ], [ 69.366, 13.494 ], [ 69.355, 13.496 ], [ 69.347, 13.486 ], [ 69.351, 13.475 ], [ 69.344, 13.465 ], [ 69.333, 13.467 ], [ 69.325, 13.457 ], [ 69.329, 13.446 ], [ 69.322, 13.436 ], [ 69.31, 13.438 ], [ 69.303, 13.428 ], [ 69.307, 13.417 ], [ 69.299, 13.407 ], [ 69.288, 13.409 ], [ 69.281, 13.399 ], [ 69.285, 13.388 ], [ 69.277, 13.378 ], [ 69.266, 13.38 ], [ 69.259, 13.37 ], [ 69.262, 13.359 ], [ 69.255, 13.349 ], [ 69.259, 13.337 ], [ 69.251, 13.328 ], [ 69.24, 13.33 ], [ 69.233, 13.32 ], [ 69.237, 13.309 ], [ 69.229, 13.299 ], [ 69.233, 13.287 ], [ 69.226, 13.278 ], [ 69.215, 13.28 ], [ 69.207, 13.27 ], [ 69.211, 13.258 ], [ 69.204, 13.249 ], [ 69.208, 13.237 ], [ 69.2, 13.227 ], [ 69.189, 13.229 ], [ 69.181, 13.22 ], [ 69.185, 13.208 ], [ 69.178, 13.199 ], [ 69.167, 13.201 ], [ 69.159, 13.191 ], [ 69.163, 13.179 ], [ 69.156, 13.17 ], [ 69.16, 13.158 ], [ 69.152, 13.148 ], [ 69.141, 13.15 ], [ 69.134, 13.141 ], [ 69.138, 13.129 ], [ 69.13, 13.119 ], [ 69.134, 13.108 ], [ 69.127, 13.098 ], [ 69.115, 13.1 ], [ 69.108, 13.091 ], [ 69.112, 13.079 ], [ 69.105, 13.069 ], [ 69.108, 13.058 ], [ 69.101, 13.048 ], [ 69.09, 13.05 ], [ 69.083, 13.04 ], [ 69.086, 13.029 ], [ 69.079, 13.019 ], [ 69.068, 13.021 ], [ 69.06, 13.012 ], [ 69.064, 13.0 ], [ 69.057, 12.99 ], [ 69.061, 12.979 ], [ 69.053, 12.969 ], [ 69.057, 12.957 ], [ 69.05, 12.948 ], [ 69.039, 12.95 ], [ 69.031, 12.94 ], [ 69.035, 12.929 ], [ 69.028, 12.919 ], [ 69.032, 12.907 ], [ 69.024, 12.898 ], [ 69.028, 12.886 ], [ 69.021, 12.877 ], [ 69.01, 12.879 ], [ 69.002, 12.869 ], [ 69.006, 12.857 ], [ 68.999, 12.848 ], [ 69.003, 12.836 ], [ 68.995, 12.826 ], [ 68.999, 12.815 ], [ 68.992, 12.805 ], [ 68.981, 12.807 ], [ 68.973, 12.798 ], [ 68.977, 12.786 ], [ 68.97, 12.776 ], [ 68.974, 12.765 ], [ 68.967, 12.755 ], [ 68.97, 12.744 ], [ 68.963, 12.734 ], [ 68.952, 12.736 ], [ 68.945, 12.726 ], [ 68.948, 12.715 ], [ 68.941, 12.705 ], [ 68.945, 12.694 ], [ 68.938, 12.684 ], [ 68.941, 12.672 ], [ 68.934, 12.663 ], [ 68.938, 12.651 ], [ 68.931, 12.641 ], [ 68.919, 12.643 ], [ 68.912, 12.634 ], [ 68.916, 12.622 ], [ 68.909, 12.613 ], [ 68.913, 12.601 ], [ 68.905, 12.591 ], [ 68.909, 12.58 ], [ 68.902, 12.57 ], [ 68.906, 12.559 ], [ 68.898, 12.549 ], [ 68.902, 12.537 ], [ 68.895, 12.528 ], [ 68.884, 12.53 ], [ 68.876, 12.52 ], [ 68.88, 12.509 ], [ 68.873, 12.499 ], [ 68.877, 12.487 ], [ 68.869, 12.478 ], [ 68.873, 12.466 ], [ 68.866, 12.457 ], [ 68.87, 12.445 ], [ 68.863, 12.435 ], [ 68.866, 12.424 ], [ 68.859, 12.414 ], [ 68.863, 12.403 ], [ 68.856, 12.393 ], [ 68.859, 12.381 ], [ 68.852, 12.372 ], [ 68.856, 12.36 ], [ 68.849, 12.351 ], [ 68.853, 12.339 ], [ 68.845, 12.329 ], [ 68.849, 12.318 ], [ 68.842, 12.308 ], [ 68.846, 12.297 ], [ 68.838, 12.287 ], [ 68.842, 12.275 ], [ 68.835, 12.266 ], [ 68.839, 12.254 ], [ 68.832, 12.245 ], [ 68.835, 12.233 ], [ 68.828, 12.223 ], [ 68.832, 12.212 ], [ 68.825, 12.202 ], [ 68.828, 12.191 ], [ 68.821, 12.181 ], [ 68.81, 12.183 ], [ 68.803, 12.173 ], [ 68.807, 12.162 ], [ 68.799, 12.152 ], [ 68.803, 12.141 ], [ 68.796, 12.131 ], [ 68.8, 12.119 ], [ 68.792, 12.11 ], [ 68.796, 12.098 ], [ 68.789, 12.089 ], [ 68.793, 12.077 ], [ 68.786, 12.068 ], [ 68.789, 12.056 ], [ 68.782, 12.046 ], [ 68.786, 12.035 ], [ 68.779, 12.025 ], [ 68.783, 12.013 ], [ 68.775, 12.004 ], [ 68.779, 11.992 ], [ 68.79, 11.99 ], [ 68.794, 11.979 ], [ 68.787, 11.969 ], [ 68.791, 11.957 ], [ 68.783, 11.948 ], [ 68.787, 11.936 ], [ 68.78, 11.927 ], [ 68.784, 11.915 ], [ 68.776, 11.905 ], [ 68.78, 11.894 ], [ 68.773, 11.884 ], [ 68.777, 11.873 ], [ 68.77, 11.863 ], [ 68.773, 11.851 ], [ 68.785, 11.849 ], [ 68.788, 11.838 ], [ 68.781, 11.828 ], [ 68.785, 11.817 ], [ 68.778, 11.807 ], [ 68.767, 11.809 ], [ 68.759, 11.8 ], [ 68.763, 11.788 ], [ 68.756, 11.778 ], [ 68.76, 11.767 ], [ 68.771, 11.765 ], [ 68.775, 11.753 ], [ 68.767, 11.743 ], [ 68.771, 11.732 ], [ 68.764, 11.722 ], [ 68.768, 11.711 ], [ 68.761, 11.701 ], [ 68.764, 11.689 ], [ 68.757, 11.68 ], [ 68.761, 11.668 ], [ 68.754, 11.659 ], [ 68.758, 11.647 ], [ 68.769, 11.645 ], [ 68.773, 11.633 ], [ 68.765, 11.624 ], [ 68.769, 11.612 ], [ 68.762, 11.603 ], [ 68.766, 11.591 ], [ 68.758, 11.581 ], [ 68.762, 11.57 ], [ 68.755, 11.56 ], [ 68.759, 11.549 ], [ 68.77, 11.546 ], [ 68.774, 11.535 ], [ 68.766, 11.525 ], [ 68.77, 11.514 ], [ 68.763, 11.504 ], [ 68.767, 11.492 ], [ 68.76, 11.483 ], [ 68.763, 11.471 ], [ 68.756, 11.462 ], [ 68.76, 11.45 ], [ 68.771, 11.448 ], [ 68.775, 11.436 ], [ 68.768, 11.427 ], [ 68.772, 11.415 ], [ 68.783, 11.413 ], [ 68.787, 11.401 ], [ 68.779, 11.392 ], [ 68.783, 11.38 ], [ 68.776, 11.371 ], [ 68.78, 11.359 ], [ 68.772, 11.349 ], [ 68.776, 11.338 ], [ 68.787, 11.336 ], [ 68.791, 11.324 ], [ 68.784, 11.314 ], [ 68.788, 11.303 ], [ 68.78, 11.293 ], [ 68.784, 11.282 ], [ 68.777, 11.272 ], [ 68.781, 11.26 ], [ 68.792, 11.258 ], [ 68.796, 11.247 ], [ 68.789, 11.237 ], [ 68.792, 11.225 ], [ 68.785, 11.216 ], [ 68.789, 11.204 ], [ 68.782, 11.195 ], [ 68.786, 11.183 ], [ 68.778, 11.174 ], [ 68.782, 11.162 ], [ 68.775, 11.152 ], [ 68.779, 11.141 ], [ 68.771, 11.131 ], [ 68.775, 11.12 ], [ 68.768, 11.11 ], [ 68.772, 11.098 ], [ 68.765, 11.089 ], [ 68.768, 11.077 ], [ 68.761, 11.068 ], [ 68.765, 11.056 ], [ 68.758, 11.047 ], [ 68.762, 11.035 ], [ 68.754, 11.025 ], [ 68.758, 11.014 ], [ 68.751, 11.004 ], [ 68.755, 10.993 ], [ 68.748, 10.983 ], [ 68.751, 10.971 ], [ 68.744, 10.962 ], [ 68.748, 10.95 ], [ 68.759, 10.948 ], [ 68.763, 10.936 ], [ 68.756, 10.927 ], [ 68.759, 10.915 ], [ 68.752, 10.906 ], [ 68.756, 10.894 ], [ 68.749, 10.885 ], [ 68.753, 10.873 ], [ 68.745, 10.863 ], [ 68.749, 10.852 ], [ 68.742, 10.842 ], [ 68.746, 10.831 ], [ 68.757, 10.828 ], [ 68.761, 10.817 ], [ 68.753, 10.807 ], [ 68.757, 10.796 ], [ 68.75, 10.786 ], [ 68.754, 10.774 ], [ 68.747, 10.765 ], [ 68.75, 10.753 ], [ 68.743, 10.744 ], [ 68.747, 10.732 ], [ 68.758, 10.73 ], [ 68.762, 10.718 ], [ 68.755, 10.709 ], [ 68.759, 10.697 ], [ 68.751, 10.688 ], [ 68.755, 10.676 ], [ 68.748, 10.666 ], [ 68.752, 10.655 ], [ 68.763, 10.653 ], [ 68.767, 10.641 ], [ 68.759, 10.631 ], [ 68.763, 10.62 ], [ 68.756, 10.61 ], [ 68.76, 10.599 ], [ 68.771, 10.596 ], [ 68.775, 10.585 ], [ 68.767, 10.575 ], [ 68.771, 10.564 ], [ 68.764, 10.554 ], [ 68.768, 10.542 ], [ 68.761, 10.533 ], [ 68.764, 10.521 ], [ 68.775, 10.519 ], [ 68.779, 10.507 ], [ 68.772, 10.498 ], [ 68.776, 10.486 ], [ 68.769, 10.477 ], [ 68.772, 10.465 ], [ 68.765, 10.456 ], [ 68.769, 10.444 ], [ 68.78, 10.442 ], [ 68.784, 10.43 ], [ 68.777, 10.42 ], [ 68.781, 10.409 ], [ 68.773, 10.399 ], [ 68.777, 10.388 ], [ 68.788, 10.385 ], [ 68.792, 10.374 ], [ 68.785, 10.364 ], [ 68.789, 10.353 ], [ 68.781, 10.343 ], [ 68.785, 10.331 ], [ 68.796, 10.329 ], [ 68.8, 10.317 ], [ 68.793, 10.308 ], [ 68.797, 10.296 ], [ 68.789, 10.287 ], [ 68.793, 10.275 ], [ 68.804, 10.273 ], [ 68.808, 10.261 ], [ 68.801, 10.252 ], [ 68.805, 10.24 ], [ 68.816, 10.238 ], [ 68.82, 10.226 ], [ 68.812, 10.217 ], [ 68.816, 10.205 ], [ 68.809, 10.196 ], [ 68.813, 10.184 ], [ 68.824, 10.182 ], [ 68.828, 10.17 ], [ 68.82, 10.16 ], [ 68.824, 10.149 ], [ 68.817, 10.139 ], [ 68.821, 10.128 ], [ 68.832, 10.125 ], [ 68.836, 10.114 ], [ 68.829, 10.104 ], [ 68.832, 10.092 ], [ 68.843, 10.09 ], [ 68.847, 10.078 ], [ 68.84, 10.069 ], [ 68.844, 10.057 ], [ 68.855, 10.055 ], [ 68.859, 10.043 ], [ 68.852, 10.034 ], [ 68.855, 10.022 ], [ 68.866, 10.02 ], [ 68.87, 10.008 ], [ 68.863, 9.999 ], [ 68.867, 9.987 ], [ 68.878, 9.985 ], [ 68.882, 9.973 ], [ 68.874, 9.964 ], [ 68.878, 9.952 ], [ 68.889, 9.95 ], [ 68.893, 9.938 ], [ 68.886, 9.928 ], [ 68.89, 9.917 ], [ 68.883, 9.907 ], [ 68.886, 9.896 ], [ 68.879, 9.886 ], [ 68.883, 9.874 ], [ 68.894, 9.872 ], [ 68.898, 9.86 ], [ 68.891, 9.851 ], [ 68.894, 9.839 ], [ 68.887, 9.83 ], [ 68.891, 9.818 ], [ 68.884, 9.809 ], [ 68.888, 9.797 ], [ 68.899, 9.795 ], [ 68.902, 9.783 ], [ 68.895, 9.774 ], [ 68.899, 9.762 ], [ 68.892, 9.752 ], [ 68.896, 9.741 ], [ 68.888, 9.731 ], [ 68.892, 9.72 ], [ 68.903, 9.717 ], [ 68.907, 9.706 ], [ 68.9, 9.696 ], [ 68.904, 9.684 ], [ 68.896, 9.675 ], [ 68.9, 9.663 ], [ 68.893, 9.654 ], [ 68.897, 9.642 ], [ 68.908, 9.64 ], [ 68.912, 9.628 ], [ 68.904, 9.619 ], [ 68.908, 9.607 ], [ 68.901, 9.598 ], [ 68.905, 9.586 ], [ 68.916, 9.584 ], [ 68.92, 9.572 ], [ 68.913, 9.562 ], [ 68.916, 9.551 ], [ 68.909, 9.541 ], [ 68.913, 9.53 ], [ 68.924, 9.527 ], [ 68.928, 9.515 ], [ 68.921, 9.506 ], [ 68.924, 9.494 ], [ 68.935, 9.492 ], [ 68.939, 9.48 ], [ 68.932, 9.471 ], [ 68.936, 9.459 ], [ 68.929, 9.45 ], [ 68.932, 9.438 ], [ 68.943, 9.436 ], [ 68.947, 9.424 ], [ 68.94, 9.415 ], [ 68.944, 9.403 ], [ 68.955, 9.4 ], [ 68.959, 9.389 ], [ 68.952, 9.379 ], [ 68.955, 9.368 ], [ 68.948, 9.358 ], [ 68.952, 9.346 ], [ 68.963, 9.344 ], [ 68.967, 9.332 ], [ 68.96, 9.323 ], [ 68.963, 9.311 ], [ 68.974, 9.309 ], [ 68.978, 9.297 ], [ 68.971, 9.288 ], [ 68.975, 9.276 ], [ 68.968, 9.267 ], [ 68.971, 9.255 ], [ 68.982, 9.252 ], [ 68.986, 9.241 ], [ 68.979, 9.231 ], [ 68.983, 9.22 ], [ 68.994, 9.217 ], [ 68.998, 9.206 ], [ 68.991, 9.196 ], [ 68.994, 9.184 ], [ 69.005, 9.182 ], [ 69.009, 9.17 ], [ 69.002, 9.161 ], [ 69.006, 9.149 ], [ 69.017, 9.147 ], [ 69.021, 9.135 ], [ 69.013, 9.126 ], [ 69.017, 9.114 ], [ 69.028, 9.112 ], [ 69.032, 9.1 ], [ 69.025, 9.09 ], [ 69.029, 9.079 ], [ 69.04, 9.076 ], [ 69.044, 9.064 ], [ 69.036, 9.055 ], [ 69.04, 9.043 ], [ 69.033, 9.034 ], [ 69.037, 9.022 ], [ 69.048, 9.02 ], [ 69.052, 9.008 ], [ 69.044, 8.999 ], [ 69.048, 8.987 ], [ 69.059, 8.985 ], [ 69.063, 8.973 ], [ 69.056, 8.963 ], [ 69.06, 8.952 ], [ 69.071, 8.949 ], [ 69.075, 8.938 ], [ 69.067, 8.928 ], [ 69.071, 8.916 ], [ 69.082, 8.914 ], [ 69.086, 8.902 ], [ 69.097, 8.9 ], [ 69.101, 8.888 ], [ 69.094, 8.879 ], [ 69.097, 8.867 ], [ 69.109, 8.865 ], [ 69.112, 8.853 ], [ 69.105, 8.843 ], [ 69.109, 8.832 ], [ 69.12, 8.829 ], [ 69.124, 8.817 ], [ 69.135, 8.815 ], [ 69.139, 8.803 ], [ 69.131, 8.794 ], [ 69.135, 8.782 ], [ 69.146, 8.78 ], [ 69.15, 8.768 ], [ 69.143, 8.759 ], [ 69.147, 8.747 ], [ 69.158, 8.744 ], [ 69.162, 8.733 ], [ 69.154, 8.723 ], [ 69.158, 8.712 ], [ 69.169, 8.709 ], [ 69.173, 8.697 ], [ 69.184, 8.695 ], [ 69.188, 8.683 ], [ 69.181, 8.674 ], [ 69.185, 8.662 ], [ 69.196, 8.66 ], [ 69.199, 8.648 ], [ 69.192, 8.638 ], [ 69.196, 8.627 ], [ 69.207, 8.624 ], [ 69.211, 8.612 ], [ 69.222, 8.61 ], [ 69.226, 8.598 ], [ 69.219, 8.589 ], [ 69.222, 8.577 ], [ 69.233, 8.575 ], [ 69.237, 8.563 ], [ 69.23, 8.554 ], [ 69.234, 8.542 ], [ 69.245, 8.539 ], [ 69.249, 8.528 ], [ 69.26, 8.525 ], [ 69.264, 8.513 ], [ 69.275, 8.511 ], [ 69.279, 8.499 ], [ 69.271, 8.49 ], [ 69.275, 8.478 ], [ 69.286, 8.475 ], [ 69.29, 8.464 ], [ 69.301, 8.461 ], [ 69.305, 8.449 ], [ 69.298, 8.44 ], [ 69.301, 8.428 ], [ 69.313, 8.426 ], [ 69.316, 8.414 ], [ 69.327, 8.412 ], [ 69.331, 8.4 ], [ 69.324, 8.39 ], [ 69.328, 8.379 ], [ 69.339, 8.376 ], [ 69.343, 8.364 ], [ 69.354, 8.362 ], [ 69.358, 8.35 ], [ 69.35, 8.341 ], [ 69.354, 8.329 ], [ 69.365, 8.327 ], [ 69.369, 8.315 ], [ 69.38, 8.312 ], [ 69.384, 8.3 ], [ 69.377, 8.291 ], [ 69.381, 8.279 ], [ 69.392, 8.277 ], [ 69.395, 8.265 ], [ 69.407, 8.263 ], [ 69.41, 8.251 ], [ 69.422, 8.248 ], [ 69.425, 8.236 ], [ 69.436, 8.234 ], [ 69.44, 8.222 ], [ 69.433, 8.213 ], [ 69.437, 8.201 ], [ 69.448, 8.199 ], [ 69.452, 8.187 ], [ 69.463, 8.184 ], [ 69.467, 8.172 ], [ 69.478, 8.17 ], [ 69.482, 8.158 ], [ 69.493, 8.156 ], [ 69.497, 8.144 ], [ 69.489, 8.134 ], [ 69.493, 8.123 ], [ 69.504, 8.12 ], [ 69.508, 8.108 ], [ 69.519, 8.106 ], [ 69.523, 8.094 ], [ 69.534, 8.092 ], [ 69.538, 8.08 ], [ 69.549, 8.077 ], [ 69.553, 8.065 ], [ 69.546, 8.056 ], [ 69.549, 8.044 ], [ 69.56, 8.042 ], [ 69.564, 8.03 ], [ 69.557, 8.021 ], [ 69.561, 8.009 ], [ 69.572, 8.006 ], [ 69.579, 8.016 ], [ 69.59, 8.013 ], [ 69.598, 8.022 ], [ 69.609, 8.02 ], [ 69.616, 8.029 ], [ 69.627, 8.027 ], [ 69.631, 8.015 ], [ 69.642, 8.012 ], [ 69.65, 8.022 ], [ 69.661, 8.019 ], [ 69.668, 8.028 ], [ 69.679, 8.026 ], [ 69.687, 8.035 ], [ 69.698, 8.033 ], [ 69.705, 8.042 ], [ 69.716, 8.04 ], [ 69.724, 8.049 ], [ 69.735, 8.046 ], [ 69.739, 8.035 ], [ 69.75, 8.032 ], [ 69.757, 8.041 ], [ 69.768, 8.039 ], [ 69.776, 8.048 ], [ 69.787, 8.046 ], [ 69.794, 8.055 ], [ 69.805, 8.053 ], [ 69.813, 8.062 ], [ 69.824, 8.059 ], [ 69.828, 8.047 ], [ 69.839, 8.045 ], [ 69.846, 8.054 ], [ 69.857, 8.052 ], [ 69.865, 8.061 ], [ 69.876, 8.059 ], [ 69.883, 8.068 ], [ 69.894, 8.065 ], [ 69.902, 8.075 ], [ 69.913, 8.072 ], [ 69.92, 8.082 ], [ 69.932, 8.079 ], [ 69.935, 8.067 ], [ 69.947, 8.065 ], [ 69.954, 8.074 ], [ 69.965, 8.072 ], [ 69.972, 8.081 ], [ 69.984, 8.078 ], [ 69.991, 8.088 ], [ 70.002, 8.085 ], [ 70.01, 8.095 ], [ 70.021, 8.092 ], [ 70.028, 8.101 ], [ 70.039, 8.099 ], [ 70.043, 8.087 ], [ 70.055, 8.084 ], [ 70.062, 8.094 ], [ 70.073, 8.091 ], [ 70.081, 8.101 ], [ 70.092, 8.098 ], [ 70.099, 8.108 ], [ 70.11, 8.105 ], [ 70.118, 8.114 ], [ 70.129, 8.112 ], [ 70.136, 8.121 ], [ 70.148, 8.119 ], [ 70.152, 8.107 ], [ 70.163, 8.104 ], [ 70.17, 8.114 ], [ 70.181, 8.111 ], [ 70.189, 8.12 ], [ 70.2, 8.118 ], [ 70.207, 8.127 ], [ 70.219, 8.125 ], [ 70.226, 8.134 ], [ 70.237, 8.132 ], [ 70.241, 8.12 ], [ 70.252, 8.117 ], [ 70.26, 8.127 ], [ 70.271, 8.124 ], [ 70.279, 8.133 ], [ 70.29, 8.131 ], [ 70.297, 8.14 ], [ 70.309, 8.138 ], [ 70.312, 8.126 ], [ 70.324, 8.123 ], [ 70.331, 8.133 ], [ 70.342, 8.13 ], [ 70.346, 8.118 ], [ 70.357, 8.116 ], [ 70.365, 8.125 ], [ 70.376, 8.122 ], [ 70.384, 8.132 ], [ 70.395, 8.129 ], [ 70.399, 8.117 ], [ 70.41, 8.115 ], [ 70.417, 8.124 ], [ 70.429, 8.122 ], [ 70.433, 8.11 ], [ 70.444, 8.107 ], [ 70.451, 8.117 ], [ 70.463, 8.114 ], [ 70.466, 8.102 ], [ 70.478, 8.1 ], [ 70.485, 8.109 ], [ 70.497, 8.106 ], [ 70.5, 8.095 ], [ 70.512, 8.092 ], [ 70.519, 8.101 ], [ 70.53, 8.099 ], [ 70.534, 8.087 ], [ 70.546, 8.084 ], [ 70.553, 8.094 ], [ 70.564, 8.091 ], [ 70.572, 8.101 ], [ 70.583, 8.098 ], [ 70.587, 8.086 ], [ 70.598, 8.084 ], [ 70.606, 8.093 ], [ 70.617, 8.09 ], [ 70.621, 8.078 ], [ 70.632, 8.076 ], [ 70.64, 8.085 ], [ 70.651, 8.083 ], [ 70.655, 8.071 ], [ 70.666, 8.068 ], [ 70.674, 8.078 ], [ 70.685, 8.075 ], [ 70.689, 8.063 ], [ 70.7, 8.061 ], [ 70.708, 8.07 ], [ 70.719, 8.067 ], [ 70.723, 8.055 ], [ 70.734, 8.053 ], [ 70.742, 8.062 ], [ 70.753, 8.06 ], [ 70.757, 8.048 ] ], [ [ 72.193, 11.442 ], [ 72.185, 11.432 ], [ 72.173, 11.435 ], [ 72.169, 11.447 ], [ 72.157, 11.449 ], [ 72.15, 11.439 ], [ 72.138, 11.442 ], [ 72.134, 11.454 ], [ 72.122, 11.456 ], [ 72.118, 11.468 ], [ 72.107, 11.47 ], [ 72.099, 11.461 ], [ 72.087, 11.463 ], [ 72.083, 11.475 ], [ 72.072, 11.477 ], [ 72.068, 11.489 ], [ 72.056, 11.492 ], [ 72.052, 11.504 ], [ 72.06, 11.513 ], [ 72.056, 11.525 ], [ 72.044, 11.528 ], [ 72.04, 11.54 ], [ 72.029, 11.542 ], [ 72.025, 11.554 ], [ 72.032, 11.564 ], [ 72.028, 11.576 ], [ 72.017, 11.578 ], [ 72.013, 11.59 ], [ 72.021, 11.6 ], [ 72.017, 11.612 ], [ 72.024, 11.621 ], [ 72.021, 11.633 ], [ 72.028, 11.643 ], [ 72.024, 11.655 ], [ 72.032, 11.665 ], [ 72.044, 11.663 ], [ 72.052, 11.672 ], [ 72.048, 11.684 ], [ 72.056, 11.694 ], [ 72.052, 11.706 ], [ 72.059, 11.716 ], [ 72.071, 11.713 ], [ 72.079, 11.723 ], [ 72.091, 11.721 ], [ 72.098, 11.73 ], [ 72.11, 11.728 ], [ 72.118, 11.738 ], [ 72.13, 11.736 ], [ 72.137, 11.745 ], [ 72.149, 11.743 ], [ 72.157, 11.753 ], [ 72.169, 11.75 ], [ 72.177, 11.76 ], [ 72.188, 11.758 ], [ 72.196, 11.767 ], [ 72.208, 11.765 ], [ 72.212, 11.753 ], [ 72.223, 11.751 ], [ 72.231, 11.761 ], [ 72.243, 11.758 ], [ 72.247, 11.746 ], [ 72.259, 11.744 ], [ 72.263, 11.732 ], [ 72.274, 11.73 ], [ 72.278, 11.717 ], [ 72.29, 11.715 ], [ 72.294, 11.703 ], [ 72.306, 11.701 ], [ 72.31, 11.689 ], [ 72.321, 11.686 ], [ 72.325, 11.674 ], [ 72.337, 11.672 ], [ 72.341, 11.66 ], [ 72.333, 11.65 ], [ 72.337, 11.638 ], [ 72.349, 11.636 ], [ 72.353, 11.624 ], [ 72.345, 11.614 ], [ 72.349, 11.602 ], [ 72.341, 11.592 ], [ 72.345, 11.58 ], [ 72.357, 11.578 ], [ 72.361, 11.566 ], [ 72.353, 11.556 ], [ 72.341, 11.559 ], [ 72.333, 11.549 ], [ 72.337, 11.537 ], [ 72.329, 11.527 ], [ 72.333, 11.515 ], [ 72.325, 11.505 ], [ 72.314, 11.508 ], [ 72.306, 11.498 ], [ 72.31, 11.486 ], [ 72.302, 11.476 ], [ 72.29, 11.479 ], [ 72.282, 11.469 ], [ 72.271, 11.471 ], [ 72.263, 11.462 ], [ 72.251, 11.464 ], [ 72.243, 11.454 ], [ 72.232, 11.457 ], [ 72.224, 11.447 ], [ 72.212, 11.449 ], [ 72.204, 11.44 ], [ 72.193, 11.442 ] ], [ [ 72.576, 10.733 ], [ 72.588, 10.731 ], [ 72.596, 10.74 ], [ 72.608, 10.738 ], [ 72.612, 10.726 ], [ 72.623, 10.723 ], [ 72.631, 10.733 ], [ 72.643, 10.731 ], [ 72.651, 10.74 ], [ 72.663, 10.738 ], [ 72.667, 10.726 ], [ 72.678, 10.723 ], [ 72.686, 10.733 ], [ 72.698, 10.731 ], [ 72.702, 10.718 ], [ 72.714, 10.716 ], [ 72.722, 10.726 ], [ 72.733, 10.723 ], [ 72.737, 10.711 ], [ 72.749, 10.709 ], [ 72.753, 10.697 ], [ 72.765, 10.694 ], [ 72.769, 10.682 ], [ 72.78, 10.68 ], [ 72.784, 10.668 ], [ 72.776, 10.658 ], [ 72.78, 10.646 ], [ 72.792, 10.643 ], [ 72.796, 10.631 ], [ 72.808, 10.629 ], [ 72.812, 10.617 ], [ 72.804, 10.607 ], [ 72.808, 10.595 ], [ 72.8, 10.585 ], [ 72.804, 10.573 ], [ 72.816, 10.571 ], [ 72.82, 10.558 ], [ 72.812, 10.549 ], [ 72.816, 10.537 ], [ 72.808, 10.527 ], [ 72.812, 10.515 ], [ 72.804, 10.505 ], [ 72.792, 10.508 ], [ 72.784, 10.498 ], [ 72.788, 10.486 ], [ 72.78, 10.476 ], [ 72.784, 10.464 ], [ 72.776, 10.454 ], [ 72.765, 10.457 ], [ 72.757, 10.447 ], [ 72.745, 10.45 ], [ 72.737, 10.44 ], [ 72.741, 10.428 ], [ 72.733, 10.418 ], [ 72.721, 10.421 ], [ 72.714, 10.411 ], [ 72.702, 10.413 ], [ 72.694, 10.404 ], [ 72.682, 10.406 ], [ 72.674, 10.397 ], [ 72.663, 10.399 ], [ 72.655, 10.389 ], [ 72.643, 10.392 ], [ 72.635, 10.382 ], [ 72.623, 10.385 ], [ 72.616, 10.375 ], [ 72.604, 10.377 ], [ 72.6, 10.39 ], [ 72.588, 10.392 ], [ 72.58, 10.382 ], [ 72.569, 10.385 ], [ 72.565, 10.397 ], [ 72.553, 10.399 ], [ 72.549, 10.411 ], [ 72.537, 10.414 ], [ 72.529, 10.404 ], [ 72.518, 10.407 ], [ 72.514, 10.419 ], [ 72.502, 10.421 ], [ 72.498, 10.433 ], [ 72.486, 10.436 ], [ 72.482, 10.448 ], [ 72.49, 10.458 ], [ 72.486, 10.47 ], [ 72.475, 10.472 ], [ 72.471, 10.484 ], [ 72.459, 10.487 ], [ 72.455, 10.499 ], [ 72.463, 10.508 ], [ 72.459, 10.52 ], [ 72.467, 10.53 ], [ 72.463, 10.542 ], [ 72.451, 10.545 ], [ 72.447, 10.557 ], [ 72.455, 10.566 ], [ 72.451, 10.578 ], [ 72.459, 10.588 ], [ 72.471, 10.586 ], [ 72.479, 10.595 ], [ 72.475, 10.607 ], [ 72.482, 10.617 ], [ 72.479, 10.629 ], [ 72.486, 10.639 ], [ 72.498, 10.636 ], [ 72.506, 10.646 ], [ 72.502, 10.658 ], [ 72.51, 10.668 ], [ 72.506, 10.68 ], [ 72.514, 10.69 ], [ 72.525, 10.687 ], [ 72.533, 10.697 ], [ 72.545, 10.694 ], [ 72.553, 10.704 ], [ 72.549, 10.716 ], [ 72.557, 10.726 ], [ 72.569, 10.723 ], [ 72.576, 10.733 ] ], [ [ 72.463, 10.847 ], [ 72.451, 10.849 ], [ 72.443, 10.839 ], [ 72.431, 10.842 ], [ 72.424, 10.832 ], [ 72.428, 10.82 ], [ 72.42, 10.81 ], [ 72.408, 10.813 ], [ 72.4, 10.803 ], [ 72.389, 10.806 ], [ 72.381, 10.796 ], [ 72.369, 10.798 ], [ 72.361, 10.789 ], [ 72.349, 10.791 ], [ 72.342, 10.781 ], [ 72.33, 10.784 ], [ 72.322, 10.774 ], [ 72.326, 10.762 ], [ 72.318, 10.752 ], [ 72.322, 10.74 ], [ 72.314, 10.731 ], [ 72.303, 10.733 ], [ 72.295, 10.723 ], [ 72.299, 10.711 ], [ 72.291, 10.702 ], [ 72.279, 10.704 ], [ 72.271, 10.694 ], [ 72.26, 10.697 ], [ 72.252, 10.687 ], [ 72.256, 10.675 ], [ 72.248, 10.665 ], [ 72.236, 10.668 ], [ 72.229, 10.658 ], [ 72.217, 10.661 ], [ 72.209, 10.651 ], [ 72.197, 10.653 ], [ 72.194, 10.665 ], [ 72.182, 10.668 ], [ 72.174, 10.658 ], [ 72.162, 10.661 ], [ 72.155, 10.651 ], [ 72.143, 10.653 ], [ 72.139, 10.665 ], [ 72.127, 10.668 ], [ 72.12, 10.658 ], [ 72.108, 10.661 ], [ 72.104, 10.673 ], [ 72.092, 10.675 ], [ 72.088, 10.687 ], [ 72.077, 10.689 ], [ 72.069, 10.68 ], [ 72.057, 10.682 ], [ 72.053, 10.694 ], [ 72.042, 10.697 ], [ 72.038, 10.709 ], [ 72.046, 10.718 ], [ 72.042, 10.73 ], [ 72.03, 10.733 ], [ 72.026, 10.745 ], [ 72.014, 10.747 ], [ 72.011, 10.759 ], [ 72.018, 10.769 ], [ 72.014, 10.781 ], [ 72.003, 10.783 ], [ 71.999, 10.795 ], [ 72.007, 10.805 ], [ 72.003, 10.817 ], [ 72.01, 10.827 ], [ 72.006, 10.839 ], [ 72.014, 10.848 ], [ 72.01, 10.86 ], [ 72.018, 10.87 ], [ 72.014, 10.882 ], [ 72.022, 10.892 ], [ 72.034, 10.889 ], [ 72.041, 10.899 ], [ 72.037, 10.911 ], [ 72.045, 10.921 ], [ 72.041, 10.933 ], [ 72.049, 10.942 ], [ 72.045, 10.954 ], [ 72.053, 10.964 ], [ 72.065, 10.962 ], [ 72.072, 10.971 ], [ 72.084, 10.969 ], [ 72.092, 10.979 ], [ 72.088, 10.991 ], [ 72.096, 11.0 ], [ 72.107, 10.998 ], [ 72.115, 11.008 ], [ 72.127, 11.005 ], [ 72.135, 11.015 ], [ 72.131, 11.027 ], [ 72.138, 11.037 ], [ 72.15, 11.034 ], [ 72.158, 11.044 ], [ 72.17, 11.042 ], [ 72.177, 11.051 ], [ 72.174, 11.063 ], [ 72.181, 11.073 ], [ 72.193, 11.071 ], [ 72.201, 11.08 ], [ 72.213, 11.078 ], [ 72.22, 11.088 ], [ 72.232, 11.085 ], [ 72.24, 11.095 ], [ 72.252, 11.092 ], [ 72.259, 11.102 ], [ 72.271, 11.1 ], [ 72.279, 11.109 ], [ 72.291, 11.107 ], [ 72.298, 11.117 ], [ 72.31, 11.114 ], [ 72.318, 11.124 ], [ 72.33, 11.122 ], [ 72.334, 11.11 ], [ 72.345, 11.107 ], [ 72.353, 11.117 ], [ 72.365, 11.115 ], [ 72.369, 11.103 ], [ 72.38, 11.1 ], [ 72.388, 11.11 ], [ 72.4, 11.107 ], [ 72.404, 11.095 ], [ 72.416, 11.093 ], [ 72.42, 11.081 ], [ 72.431, 11.079 ], [ 72.435, 11.066 ], [ 72.447, 11.064 ], [ 72.451, 11.052 ], [ 72.463, 11.05 ], [ 72.467, 11.038 ], [ 72.478, 11.035 ], [ 72.482, 11.023 ], [ 72.494, 11.021 ], [ 72.498, 11.009 ], [ 72.49, 10.999 ], [ 72.494, 10.987 ], [ 72.486, 10.977 ], [ 72.49, 10.965 ], [ 72.502, 10.963 ], [ 72.506, 10.951 ], [ 72.498, 10.941 ], [ 72.502, 10.929 ], [ 72.494, 10.919 ], [ 72.498, 10.907 ], [ 72.49, 10.897 ], [ 72.478, 10.9 ], [ 72.471, 10.89 ], [ 72.475, 10.878 ], [ 72.467, 10.868 ], [ 72.471, 10.856 ], [ 72.463, 10.847 ] ], [ [ 73.581, 10.285 ], [ 73.577, 10.298 ], [ 73.585, 10.307 ], [ 73.597, 10.305 ], [ 73.605, 10.314 ], [ 73.617, 10.312 ], [ 73.625, 10.322 ], [ 73.637, 10.319 ], [ 73.641, 10.307 ], [ 73.653, 10.304 ], [ 73.661, 10.314 ], [ 73.673, 10.312 ], [ 73.681, 10.321 ], [ 73.693, 10.319 ], [ 73.697, 10.306 ], [ 73.709, 10.304 ], [ 73.713, 10.292 ], [ 73.724, 10.289 ], [ 73.732, 10.299 ], [ 73.744, 10.296 ], [ 73.748, 10.284 ], [ 73.76, 10.282 ], [ 73.764, 10.269 ], [ 73.776, 10.267 ], [ 73.78, 10.255 ], [ 73.792, 10.252 ], [ 73.796, 10.24 ], [ 73.808, 10.237 ], [ 73.812, 10.225 ], [ 73.804, 10.215 ], [ 73.808, 10.203 ], [ 73.82, 10.201 ], [ 73.824, 10.188 ], [ 73.816, 10.179 ], [ 73.82, 10.167 ], [ 73.831, 10.164 ], [ 73.835, 10.152 ], [ 73.827, 10.142 ], [ 73.831, 10.13 ], [ 73.823, 10.12 ], [ 73.827, 10.108 ], [ 73.819, 10.098 ], [ 73.823, 10.086 ], [ 73.815, 10.076 ], [ 73.819, 10.064 ], [ 73.811, 10.054 ], [ 73.815, 10.042 ], [ 73.807, 10.032 ], [ 73.811, 10.02 ], [ 73.803, 10.011 ], [ 73.807, 9.998 ], [ 73.799, 9.989 ], [ 73.787, 9.991 ], [ 73.779, 9.981 ], [ 73.783, 9.969 ], [ 73.775, 9.96 ], [ 73.763, 9.962 ], [ 73.755, 9.952 ], [ 73.759, 9.94 ], [ 73.751, 9.931 ], [ 73.739, 9.933 ], [ 73.731, 9.923 ], [ 73.719, 9.926 ], [ 73.711, 9.916 ], [ 73.699, 9.919 ], [ 73.691, 9.909 ], [ 73.679, 9.912 ], [ 73.671, 9.902 ], [ 73.659, 9.905 ], [ 73.652, 9.895 ], [ 73.64, 9.897 ], [ 73.636, 9.91 ], [ 73.624, 9.912 ], [ 73.616, 9.903 ], [ 73.604, 9.905 ], [ 73.6, 9.917 ], [ 73.588, 9.92 ], [ 73.58, 9.91 ], [ 73.568, 9.913 ], [ 73.564, 9.925 ], [ 73.552, 9.928 ], [ 73.549, 9.94 ], [ 73.537, 9.942 ], [ 73.533, 9.954 ], [ 73.521, 9.957 ], [ 73.517, 9.969 ], [ 73.505, 9.972 ], [ 73.501, 9.984 ], [ 73.489, 9.987 ], [ 73.485, 9.999 ], [ 73.473, 10.001 ], [ 73.47, 10.013 ], [ 73.477, 10.023 ], [ 73.474, 10.035 ], [ 73.462, 10.038 ], [ 73.458, 10.05 ], [ 73.466, 10.06 ], [ 73.462, 10.072 ], [ 73.47, 10.082 ], [ 73.466, 10.094 ], [ 73.474, 10.103 ], [ 73.47, 10.116 ], [ 73.478, 10.125 ], [ 73.474, 10.138 ], [ 73.482, 10.147 ], [ 73.494, 10.145 ], [ 73.502, 10.154 ], [ 73.498, 10.167 ], [ 73.506, 10.176 ], [ 73.502, 10.188 ], [ 73.51, 10.198 ], [ 73.506, 10.21 ], [ 73.514, 10.22 ], [ 73.51, 10.232 ], [ 73.518, 10.242 ], [ 73.53, 10.239 ], [ 73.538, 10.249 ], [ 73.534, 10.261 ], [ 73.542, 10.271 ], [ 73.554, 10.268 ], [ 73.562, 10.278 ], [ 73.573, 10.276 ], [ 73.581, 10.285 ] ], [ [ 73.508, 10.824 ], [ 73.496, 10.826 ], [ 73.492, 10.839 ], [ 73.5, 10.848 ], [ 73.496, 10.86 ], [ 73.504, 10.87 ], [ 73.516, 10.868 ], [ 73.524, 10.877 ], [ 73.52, 10.89 ], [ 73.528, 10.899 ], [ 73.524, 10.911 ], [ 73.532, 10.921 ], [ 73.544, 10.919 ], [ 73.552, 10.928 ], [ 73.564, 10.926 ], [ 73.572, 10.936 ], [ 73.568, 10.948 ], [ 73.576, 10.958 ], [ 73.588, 10.955 ], [ 73.596, 10.965 ], [ 73.608, 10.962 ], [ 73.616, 10.972 ], [ 73.627, 10.97 ], [ 73.635, 10.979 ], [ 73.647, 10.977 ], [ 73.655, 10.987 ], [ 73.667, 10.984 ], [ 73.671, 10.972 ], [ 73.683, 10.97 ], [ 73.691, 10.979 ], [ 73.703, 10.977 ], [ 73.707, 10.965 ], [ 73.719, 10.962 ], [ 73.727, 10.972 ], [ 73.739, 10.969 ], [ 73.743, 10.957 ], [ 73.755, 10.955 ], [ 73.763, 10.965 ], [ 73.775, 10.962 ], [ 73.779, 10.95 ], [ 73.791, 10.947 ], [ 73.795, 10.935 ], [ 73.807, 10.933 ], [ 73.811, 10.92 ], [ 73.823, 10.918 ], [ 73.827, 10.906 ], [ 73.839, 10.903 ], [ 73.842, 10.891 ], [ 73.854, 10.889 ], [ 73.858, 10.876 ], [ 73.85, 10.867 ], [ 73.854, 10.854 ], [ 73.866, 10.852 ], [ 73.87, 10.84 ], [ 73.862, 10.83 ], [ 73.866, 10.818 ], [ 73.858, 10.808 ], [ 73.862, 10.796 ], [ 73.854, 10.786 ], [ 73.858, 10.774 ], [ 73.85, 10.764 ], [ 73.854, 10.752 ], [ 73.846, 10.742 ], [ 73.85, 10.73 ], [ 73.842, 10.72 ], [ 73.83, 10.723 ], [ 73.822, 10.713 ], [ 73.826, 10.701 ], [ 73.818, 10.691 ], [ 73.806, 10.694 ], [ 73.798, 10.684 ], [ 73.786, 10.686 ], [ 73.778, 10.677 ], [ 73.766, 10.679 ], [ 73.758, 10.669 ], [ 73.746, 10.672 ], [ 73.738, 10.662 ], [ 73.726, 10.665 ], [ 73.718, 10.655 ], [ 73.706, 10.657 ], [ 73.698, 10.648 ], [ 73.686, 10.65 ], [ 73.678, 10.641 ], [ 73.666, 10.643 ], [ 73.662, 10.655 ], [ 73.65, 10.658 ], [ 73.642, 10.648 ], [ 73.63, 10.651 ], [ 73.626, 10.663 ], [ 73.614, 10.665 ], [ 73.607, 10.655 ], [ 73.595, 10.658 ], [ 73.591, 10.67 ], [ 73.579, 10.673 ], [ 73.575, 10.685 ], [ 73.563, 10.687 ], [ 73.559, 10.7 ], [ 73.547, 10.702 ], [ 73.543, 10.714 ], [ 73.531, 10.717 ], [ 73.527, 10.729 ], [ 73.515, 10.731 ], [ 73.511, 10.744 ], [ 73.519, 10.753 ], [ 73.515, 10.765 ], [ 73.504, 10.768 ], [ 73.5, 10.78 ], [ 73.508, 10.79 ], [ 73.504, 10.802 ], [ 73.512, 10.812 ], [ 73.508, 10.824 ] ], [ [ 72.93, 11.169 ], [ 72.923, 11.159 ], [ 72.927, 11.147 ], [ 72.919, 11.138 ], [ 72.923, 11.126 ], [ 72.915, 11.116 ], [ 72.903, 11.118 ], [ 72.895, 11.109 ], [ 72.899, 11.096 ], [ 72.891, 11.087 ], [ 72.895, 11.075 ], [ 72.887, 11.065 ], [ 72.875, 11.067 ], [ 72.867, 11.058 ], [ 72.871, 11.045 ], [ 72.863, 11.036 ], [ 72.867, 11.024 ], [ 72.859, 11.014 ], [ 72.848, 11.016 ], [ 72.84, 11.007 ], [ 72.828, 11.009 ], [ 72.82, 10.999 ], [ 72.824, 10.987 ], [ 72.816, 10.978 ], [ 72.804, 10.98 ], [ 72.796, 10.97 ], [ 72.785, 10.973 ], [ 72.777, 10.963 ], [ 72.765, 10.965 ], [ 72.757, 10.956 ], [ 72.745, 10.958 ], [ 72.737, 10.948 ], [ 72.726, 10.951 ], [ 72.722, 10.963 ], [ 72.71, 10.965 ], [ 72.702, 10.956 ], [ 72.69, 10.958 ], [ 72.686, 10.97 ], [ 72.674, 10.973 ], [ 72.667, 10.963 ], [ 72.655, 10.965 ], [ 72.651, 10.977 ], [ 72.639, 10.98 ], [ 72.635, 10.992 ], [ 72.623, 10.994 ], [ 72.62, 11.006 ], [ 72.608, 11.009 ], [ 72.604, 11.021 ], [ 72.592, 11.023 ], [ 72.588, 11.035 ], [ 72.576, 11.038 ], [ 72.572, 11.05 ], [ 72.561, 11.052 ], [ 72.557, 11.064 ], [ 72.565, 11.074 ], [ 72.561, 11.086 ], [ 72.549, 11.089 ], [ 72.545, 11.101 ], [ 72.553, 11.11 ], [ 72.549, 11.122 ], [ 72.557, 11.132 ], [ 72.553, 11.144 ], [ 72.561, 11.154 ], [ 72.557, 11.166 ], [ 72.565, 11.176 ], [ 72.561, 11.188 ], [ 72.569, 11.197 ], [ 72.58, 11.195 ], [ 72.588, 11.205 ], [ 72.584, 11.217 ], [ 72.592, 11.226 ], [ 72.604, 11.224 ], [ 72.612, 11.234 ], [ 72.608, 11.246 ], [ 72.616, 11.256 ], [ 72.612, 11.268 ], [ 72.62, 11.277 ], [ 72.616, 11.289 ], [ 72.624, 11.299 ], [ 72.635, 11.297 ], [ 72.643, 11.306 ], [ 72.639, 11.319 ], [ 72.647, 11.328 ], [ 72.643, 11.34 ], [ 72.651, 11.35 ], [ 72.663, 11.348 ], [ 72.671, 11.357 ], [ 72.667, 11.369 ], [ 72.675, 11.379 ], [ 72.686, 11.377 ], [ 72.694, 11.387 ], [ 72.706, 11.384 ], [ 72.714, 11.394 ], [ 72.726, 11.391 ], [ 72.734, 11.401 ], [ 72.745, 11.399 ], [ 72.753, 11.409 ], [ 72.765, 11.406 ], [ 72.773, 11.416 ], [ 72.785, 11.414 ], [ 72.793, 11.423 ], [ 72.805, 11.421 ], [ 72.809, 11.409 ], [ 72.82, 11.406 ], [ 72.828, 11.416 ], [ 72.84, 11.414 ], [ 72.848, 11.423 ], [ 72.844, 11.436 ], [ 72.852, 11.445 ], [ 72.848, 11.457 ], [ 72.836, 11.46 ], [ 72.832, 11.472 ], [ 72.84, 11.482 ], [ 72.836, 11.494 ], [ 72.844, 11.503 ], [ 72.84, 11.515 ], [ 72.848, 11.525 ], [ 72.844, 11.537 ], [ 72.852, 11.547 ], [ 72.848, 11.559 ], [ 72.856, 11.569 ], [ 72.852, 11.581 ], [ 72.84, 11.583 ], [ 72.832, 11.574 ], [ 72.82, 11.576 ], [ 72.813, 11.566 ], [ 72.817, 11.554 ], [ 72.809, 11.544 ], [ 72.797, 11.547 ], [ 72.789, 11.537 ], [ 72.777, 11.539 ], [ 72.769, 11.53 ], [ 72.757, 11.532 ], [ 72.749, 11.522 ], [ 72.738, 11.525 ], [ 72.734, 11.537 ], [ 72.722, 11.539 ], [ 72.714, 11.529 ], [ 72.702, 11.532 ], [ 72.694, 11.522 ], [ 72.683, 11.524 ], [ 72.679, 11.536 ], [ 72.667, 11.539 ], [ 72.659, 11.529 ], [ 72.647, 11.531 ], [ 72.643, 11.544 ], [ 72.631, 11.546 ], [ 72.627, 11.558 ], [ 72.616, 11.56 ], [ 72.612, 11.572 ], [ 72.6, 11.575 ], [ 72.592, 11.565 ], [ 72.58, 11.567 ], [ 72.576, 11.579 ], [ 72.584, 11.589 ], [ 72.58, 11.601 ], [ 72.569, 11.604 ], [ 72.565, 11.616 ], [ 72.553, 11.618 ], [ 72.549, 11.63 ], [ 72.557, 11.64 ], [ 72.553, 11.652 ], [ 72.541, 11.654 ], [ 72.537, 11.666 ], [ 72.545, 11.676 ], [ 72.541, 11.688 ], [ 72.549, 11.698 ], [ 72.545, 11.71 ], [ 72.553, 11.72 ], [ 72.549, 11.732 ], [ 72.557, 11.741 ], [ 72.553, 11.753 ], [ 72.561, 11.763 ], [ 72.572, 11.761 ], [ 72.58, 11.771 ], [ 72.576, 11.783 ], [ 72.584, 11.792 ], [ 72.58, 11.804 ], [ 72.588, 11.814 ], [ 72.6, 11.812 ], [ 72.608, 11.821 ], [ 72.62, 11.819 ], [ 72.628, 11.829 ], [ 72.624, 11.841 ], [ 72.631, 11.851 ], [ 72.643, 11.848 ], [ 72.651, 11.858 ], [ 72.663, 11.856 ], [ 72.671, 11.865 ], [ 72.683, 11.863 ], [ 72.687, 11.851 ], [ 72.698, 11.849 ], [ 72.706, 11.859 ], [ 72.718, 11.856 ], [ 72.726, 11.866 ], [ 72.738, 11.864 ], [ 72.742, 11.852 ], [ 72.754, 11.849 ], [ 72.762, 11.859 ], [ 72.773, 11.857 ], [ 72.777, 11.844 ], [ 72.789, 11.842 ], [ 72.793, 11.83 ], [ 72.805, 11.828 ], [ 72.809, 11.816 ], [ 72.821, 11.813 ], [ 72.825, 11.801 ], [ 72.836, 11.799 ], [ 72.84, 11.787 ], [ 72.852, 11.784 ], [ 72.856, 11.772 ], [ 72.868, 11.77 ], [ 72.872, 11.758 ], [ 72.864, 11.748 ], [ 72.868, 11.736 ], [ 72.88, 11.734 ], [ 72.884, 11.722 ], [ 72.876, 11.712 ], [ 72.88, 11.7 ], [ 72.872, 11.69 ], [ 72.876, 11.678 ], [ 72.868, 11.668 ], [ 72.872, 11.656 ], [ 72.864, 11.646 ], [ 72.868, 11.634 ], [ 72.86, 11.625 ], [ 72.864, 11.613 ], [ 72.876, 11.61 ], [ 72.884, 11.62 ], [ 72.895, 11.618 ], [ 72.903, 11.627 ], [ 72.915, 11.625 ], [ 72.923, 11.635 ], [ 72.935, 11.632 ], [ 72.943, 11.642 ], [ 72.955, 11.64 ], [ 72.963, 11.649 ], [ 72.975, 11.647 ], [ 72.982, 11.657 ], [ 72.994, 11.654 ], [ 73.002, 11.664 ], [ 73.014, 11.662 ], [ 73.018, 11.65 ], [ 73.03, 11.647 ], [ 73.038, 11.657 ], [ 73.05, 11.655 ], [ 73.054, 11.643 ], [ 73.066, 11.64 ], [ 73.069, 11.628 ], [ 73.081, 11.626 ], [ 73.089, 11.635 ], [ 73.101, 11.633 ], [ 73.105, 11.621 ], [ 73.117, 11.619 ], [ 73.121, 11.606 ], [ 73.133, 11.604 ], [ 73.137, 11.592 ], [ 73.149, 11.59 ], [ 73.153, 11.577 ], [ 73.145, 11.568 ], [ 73.149, 11.556 ], [ 73.16, 11.553 ], [ 73.164, 11.541 ], [ 73.156, 11.531 ], [ 73.16, 11.519 ], [ 73.172, 11.517 ], [ 73.176, 11.505 ], [ 73.168, 11.495 ], [ 73.172, 11.483 ], [ 73.164, 11.473 ], [ 73.168, 11.461 ], [ 73.16, 11.451 ], [ 73.164, 11.439 ], [ 73.156, 11.429 ], [ 73.16, 11.417 ], [ 73.152, 11.407 ], [ 73.156, 11.395 ], [ 73.148, 11.386 ], [ 73.136, 11.388 ], [ 73.128, 11.378 ], [ 73.132, 11.366 ], [ 73.124, 11.356 ], [ 73.113, 11.359 ], [ 73.105, 11.349 ], [ 73.093, 11.351 ], [ 73.085, 11.342 ], [ 73.089, 11.33 ], [ 73.081, 11.32 ], [ 73.069, 11.322 ], [ 73.061, 11.313 ], [ 73.049, 11.315 ], [ 73.041, 11.305 ], [ 73.029, 11.308 ], [ 73.025, 11.32 ], [ 73.014, 11.322 ], [ 73.006, 11.312 ], [ 72.994, 11.315 ], [ 72.986, 11.305 ], [ 72.974, 11.307 ], [ 72.97, 11.32 ], [ 72.958, 11.322 ], [ 72.95, 11.312 ], [ 72.954, 11.3 ], [ 72.946, 11.29 ], [ 72.95, 11.278 ], [ 72.942, 11.269 ], [ 72.946, 11.256 ], [ 72.958, 11.254 ], [ 72.962, 11.242 ], [ 72.954, 11.232 ], [ 72.942, 11.235 ], [ 72.934, 11.225 ], [ 72.938, 11.213 ], [ 72.931, 11.203 ], [ 72.934, 11.191 ], [ 72.927, 11.181 ], [ 72.93, 11.169 ] ], [ [ 73.225, 8.275 ], [ 73.229, 8.262 ], [ 73.221, 8.253 ], [ 73.225, 8.241 ], [ 73.217, 8.231 ], [ 73.221, 8.219 ], [ 73.213, 8.209 ], [ 73.201, 8.212 ], [ 73.193, 8.203 ], [ 73.197, 8.19 ], [ 73.189, 8.181 ], [ 73.177, 8.184 ], [ 73.17, 8.174 ], [ 73.173, 8.162 ], [ 73.166, 8.152 ], [ 73.154, 8.155 ], [ 73.146, 8.145 ], [ 73.134, 8.148 ], [ 73.126, 8.139 ], [ 73.13, 8.126 ], [ 73.122, 8.117 ], [ 73.111, 8.119 ], [ 73.103, 8.11 ], [ 73.091, 8.113 ], [ 73.083, 8.103 ], [ 73.071, 8.106 ], [ 73.064, 8.096 ], [ 73.052, 8.099 ], [ 73.048, 8.111 ], [ 73.036, 8.114 ], [ 73.028, 8.104 ], [ 73.017, 8.107 ], [ 73.013, 8.119 ], [ 73.001, 8.122 ], [ 72.993, 8.112 ], [ 72.982, 8.115 ], [ 72.978, 8.127 ], [ 72.966, 8.13 ], [ 72.958, 8.12 ], [ 72.946, 8.123 ], [ 72.943, 8.135 ], [ 72.931, 8.138 ], [ 72.927, 8.15 ], [ 72.915, 8.153 ], [ 72.911, 8.165 ], [ 72.9, 8.167 ], [ 72.896, 8.18 ], [ 72.884, 8.182 ], [ 72.88, 8.194 ], [ 72.868, 8.197 ], [ 72.865, 8.209 ], [ 72.872, 8.219 ], [ 72.868, 8.231 ], [ 72.857, 8.234 ], [ 72.853, 8.246 ], [ 72.861, 8.255 ], [ 72.857, 8.267 ], [ 72.845, 8.27 ], [ 72.841, 8.282 ], [ 72.849, 8.292 ], [ 72.845, 8.304 ], [ 72.853, 8.313 ], [ 72.849, 8.326 ], [ 72.857, 8.335 ], [ 72.853, 8.347 ], [ 72.861, 8.357 ], [ 72.872, 8.354 ], [ 72.88, 8.364 ], [ 72.876, 8.376 ], [ 72.884, 8.385 ], [ 72.88, 8.398 ], [ 72.888, 8.407 ], [ 72.9, 8.404 ], [ 72.908, 8.414 ], [ 72.904, 8.426 ], [ 72.912, 8.436 ], [ 72.923, 8.433 ], [ 72.931, 8.443 ], [ 72.943, 8.44 ], [ 72.951, 8.45 ], [ 72.962, 8.447 ], [ 72.97, 8.456 ], [ 72.982, 8.454 ], [ 72.99, 8.463 ], [ 73.002, 8.461 ], [ 73.009, 8.47 ], [ 73.021, 8.468 ], [ 73.029, 8.477 ], [ 73.041, 8.475 ], [ 73.049, 8.484 ], [ 73.06, 8.481 ], [ 73.068, 8.491 ], [ 73.08, 8.488 ], [ 73.084, 8.476 ], [ 73.096, 8.474 ], [ 73.103, 8.483 ], [ 73.115, 8.48 ], [ 73.119, 8.468 ], [ 73.131, 8.466 ], [ 73.139, 8.475 ], [ 73.15, 8.473 ], [ 73.154, 8.46 ], [ 73.166, 8.458 ], [ 73.17, 8.446 ], [ 73.182, 8.443 ], [ 73.186, 8.431 ], [ 73.197, 8.428 ], [ 73.201, 8.416 ], [ 73.213, 8.413 ], [ 73.217, 8.401 ], [ 73.229, 8.398 ], [ 73.233, 8.386 ], [ 73.225, 8.377 ], [ 73.229, 8.364 ], [ 73.241, 8.362 ], [ 73.244, 8.349 ], [ 73.237, 8.34 ], [ 73.24, 8.328 ], [ 73.233, 8.318 ], [ 73.236, 8.306 ], [ 73.229, 8.296 ], [ 73.232, 8.284 ], [ 73.225, 8.275 ] ], [ [ 72.494, 10.073 ], [ 72.486, 10.064 ], [ 72.49, 10.052 ], [ 72.483, 10.042 ], [ 72.487, 10.03 ], [ 72.479, 10.02 ], [ 72.467, 10.023 ], [ 72.459, 10.013 ], [ 72.463, 10.001 ], [ 72.455, 9.991 ], [ 72.444, 9.994 ], [ 72.436, 9.984 ], [ 72.44, 9.972 ], [ 72.432, 9.962 ], [ 72.42, 9.965 ], [ 72.412, 9.955 ], [ 72.416, 9.943 ], [ 72.409, 9.934 ], [ 72.397, 9.936 ], [ 72.389, 9.926 ], [ 72.393, 9.914 ], [ 72.385, 9.905 ], [ 72.373, 9.907 ], [ 72.366, 9.898 ], [ 72.354, 9.9 ], [ 72.346, 9.891 ], [ 72.335, 9.893 ], [ 72.327, 9.883 ], [ 72.315, 9.886 ], [ 72.307, 9.876 ], [ 72.296, 9.879 ], [ 72.292, 9.891 ], [ 72.28, 9.893 ], [ 72.272, 9.884 ], [ 72.261, 9.886 ], [ 72.253, 9.877 ], [ 72.241, 9.879 ], [ 72.237, 9.891 ], [ 72.226, 9.894 ], [ 72.222, 9.906 ], [ 72.21, 9.908 ], [ 72.202, 9.899 ], [ 72.191, 9.901 ], [ 72.187, 9.913 ], [ 72.175, 9.916 ], [ 72.171, 9.928 ], [ 72.159, 9.93 ], [ 72.156, 9.942 ], [ 72.144, 9.945 ], [ 72.14, 9.957 ], [ 72.148, 9.966 ], [ 72.144, 9.978 ], [ 72.132, 9.981 ], [ 72.128, 9.993 ], [ 72.136, 10.003 ], [ 72.132, 10.015 ], [ 72.121, 10.017 ], [ 72.117, 10.029 ], [ 72.124, 10.039 ], [ 72.12, 10.051 ], [ 72.128, 10.06 ], [ 72.124, 10.073 ], [ 72.132, 10.082 ], [ 72.128, 10.094 ], [ 72.136, 10.104 ], [ 72.132, 10.116 ], [ 72.14, 10.125 ], [ 72.151, 10.123 ], [ 72.159, 10.133 ], [ 72.155, 10.145 ], [ 72.163, 10.154 ], [ 72.175, 10.152 ], [ 72.182, 10.161 ], [ 72.179, 10.174 ], [ 72.186, 10.183 ], [ 72.182, 10.195 ], [ 72.19, 10.205 ], [ 72.186, 10.217 ], [ 72.194, 10.227 ], [ 72.206, 10.224 ], [ 72.214, 10.234 ], [ 72.21, 10.246 ], [ 72.217, 10.255 ], [ 72.229, 10.253 ], [ 72.237, 10.263 ], [ 72.233, 10.275 ], [ 72.241, 10.284 ], [ 72.252, 10.282 ], [ 72.26, 10.291 ], [ 72.272, 10.289 ], [ 72.28, 10.299 ], [ 72.291, 10.296 ], [ 72.295, 10.284 ], [ 72.307, 10.282 ], [ 72.315, 10.291 ], [ 72.326, 10.289 ], [ 72.334, 10.299 ], [ 72.346, 10.296 ], [ 72.35, 10.284 ], [ 72.362, 10.282 ], [ 72.369, 10.291 ], [ 72.381, 10.289 ], [ 72.385, 10.277 ], [ 72.397, 10.274 ], [ 72.404, 10.284 ], [ 72.416, 10.281 ], [ 72.42, 10.269 ], [ 72.432, 10.267 ], [ 72.436, 10.255 ], [ 72.447, 10.252 ], [ 72.451, 10.24 ], [ 72.463, 10.238 ], [ 72.467, 10.226 ], [ 72.459, 10.216 ], [ 72.463, 10.204 ], [ 72.475, 10.201 ], [ 72.479, 10.189 ], [ 72.49, 10.187 ], [ 72.494, 10.175 ], [ 72.486, 10.165 ], [ 72.49, 10.153 ], [ 72.483, 10.143 ], [ 72.486, 10.131 ], [ 72.498, 10.129 ], [ 72.502, 10.117 ], [ 72.494, 10.107 ], [ 72.498, 10.095 ], [ 72.49, 10.085 ], [ 72.494, 10.073 ] ] ] ] } },
{ "type": "Feature", "properties": { "POLYGON.ID": 1009.0, "subregion": "India--Lakshadweep--Minicoy Island", "FILTER": "Lakshadweep", "POLYGON": "India--Lakshadweep--Minicoy Island", "STATE": "Lakshadweep", "COUNTY": "Lakshadweep", "OWNER": null }, "geometry": { "type": "MultiPolygon", "coordinates": [ [ [ [ 73.036, 8.249 ], [ 73.044, 8.259 ], [ 73.056, 8.256 ], [ 73.064, 8.266 ], [ 73.076, 8.263 ], [ 73.084, 8.273 ], [ 73.08, 8.285 ], [ 73.087, 8.294 ], [ 73.084, 8.307 ], [ 73.091, 8.316 ], [ 73.088, 8.328 ], [ 73.076, 8.331 ], [ 73.068, 8.321 ], [ 73.056, 8.324 ], [ 73.048, 8.315 ], [ 73.052, 8.302 ], [ 73.044, 8.293 ], [ 73.033, 8.295 ], [ 73.029, 8.308 ], [ 73.017, 8.31 ], [ 73.009, 8.301 ], [ 73.013, 8.289 ], [ 73.005, 8.279 ], [ 73.009, 8.267 ], [ 73.021, 8.264 ], [ 73.025, 8.252 ], [ 73.036, 8.249 ] ] ] ] } },
{ "type": "Feature", "properties": { "POLYGON.ID": 1010.0, "subregion": "India--Lakshadweep--Kalpeni Island", "FILTER": "Lakshadweep", "POLYGON": "India--Lakshadweep--Kalpeni Island", "STATE": "Lakshadweep", "COUNTY": "Lakshadweep", "OWNER": null }, "geometry": { "type": "MultiPolygon", "coordinates": [ [ [ [ 73.652, 10.168 ], [ 73.645, 10.158 ], [ 73.648, 10.146 ], [ 73.64, 10.136 ], [ 73.644, 10.124 ], [ 73.636, 10.114 ], [ 73.64, 10.102 ], [ 73.632, 10.092 ], [ 73.62, 10.095 ], [ 73.612, 10.085 ], [ 73.616, 10.073 ], [ 73.608, 10.063 ], [ 73.612, 10.051 ], [ 73.624, 10.049 ], [ 73.628, 10.036 ], [ 73.64, 10.034 ], [ 73.648, 10.044 ], [ 73.66, 10.041 ], [ 73.668, 10.051 ], [ 73.664, 10.063 ], [ 73.672, 10.073 ], [ 73.668, 10.085 ], [ 73.676, 10.095 ], [ 73.672, 10.107 ], [ 73.68, 10.116 ], [ 73.676, 10.129 ], [ 73.684, 10.138 ], [ 73.68, 10.151 ], [ 73.668, 10.153 ], [ 73.664, 10.165 ], [ 73.652, 10.168 ] ] ] ] } },
{ "type": "Feature", "properties": { "POLYGON.ID": 1011.0, "subregion": "India--Lakshadweep--Cheriyakara and Valiyakara Islands", "FILTER": "Lakshadweep", "POLYGON": "India--Lakshadweep--Cheriyakara and Valiyakara Islands", "STATE": "Lakshadweep", "COUNTY": "Lakshadweep", "OWNER": null }, "geometry": { "type": "MultiPolygon", "coordinates": [ [ [ [ 72.268, 10.031 ], [ 72.28, 10.028 ], [ 72.288, 10.038 ], [ 72.299, 10.036 ], [ 72.307, 10.045 ], [ 72.303, 10.057 ], [ 72.292, 10.06 ], [ 72.284, 10.05 ], [ 72.272, 10.053 ], [ 72.264, 10.043 ], [ 72.268, 10.031 ] ] ], [ [ [ 72.311, 10.101 ], [ 72.315, 10.089 ], [ 72.307, 10.079 ], [ 72.311, 10.067 ], [ 72.323, 10.064 ], [ 72.33, 10.074 ], [ 72.342, 10.072 ], [ 72.35, 10.081 ], [ 72.346, 10.093 ], [ 72.354, 10.103 ], [ 72.35, 10.115 ], [ 72.338, 10.117 ], [ 72.334, 10.13 ], [ 72.342, 10.139 ], [ 72.338, 10.151 ], [ 72.327, 10.154 ], [ 72.319, 10.144 ], [ 72.323, 10.132 ], [ 72.315, 10.122 ], [ 72.319, 10.11 ], [ 72.311, 10.101 ] ] ] ] } },
{ "type": "Feature", "properties": { "POLYGON.ID": 1012.0, "subregion": "India--Lakshadweep--Agatti Island", "FILTER": "Lakshadweep", "POLYGON": "India--Lakshadweep--Agatti Island", "STATE": "Lakshadweep", "COUNTY": "Lakshadweep", "OWNER": null }, "geometry": { "type": "MultiPolygon", "coordinates": [ [ [ [ 72.17, 10.839 ], [ 72.174, 10.827 ], [ 72.166, 10.817 ], [ 72.154, 10.82 ], [ 72.147, 10.81 ], [ 72.151, 10.798 ], [ 72.162, 10.796 ], [ 72.17, 10.805 ], [ 72.182, 10.803 ], [ 72.189, 10.813 ], [ 72.186, 10.825 ], [ 72.193, 10.834 ], [ 72.205, 10.832 ], [ 72.213, 10.842 ], [ 72.209, 10.854 ], [ 72.217, 10.863 ], [ 72.213, 10.875 ], [ 72.221, 10.885 ], [ 72.217, 10.897 ], [ 72.205, 10.899 ], [ 72.197, 10.89 ], [ 72.185, 10.892 ], [ 72.178, 10.882 ], [ 72.182, 10.87 ], [ 72.174, 10.861 ], [ 72.178, 10.849 ], [ 72.17, 10.839 ] ] ] ] } },
{ "type": "Feature", "properties": { "POLYGON.ID": 1013.0, "subregion": "India--Lakshadweep--Bangaram and Tinnikara Islands", "FILTER": "Lakshadweep", "POLYGON": "India--Lakshadweep--Bangaram and Tinnikara Islands", "STATE": "Lakshadweep", "COUNTY": "Lakshadweep", "OWNER": null }, "geometry": { "type": "MultiPolygon", "coordinates": [ [ [ [ 72.287, 10.95 ], [ 72.279, 10.941 ], [ 72.283, 10.928 ], [ 72.295, 10.926 ], [ 72.302, 10.936 ], [ 72.314, 10.933 ], [ 72.322, 10.943 ], [ 72.334, 10.941 ], [ 72.342, 10.95 ], [ 72.338, 10.962 ], [ 72.326, 10.965 ], [ 72.318, 10.955 ], [ 72.306, 10.958 ], [ 72.299, 10.948 ], [ 72.287, 10.95 ] ] ] ] } },
{ "type": "Feature", "properties": { "POLYGON.ID": 1014.0, "subregion": "India--Lakshadweep--Amini Island", "FILTER": "Lakshadweep", "POLYGON": "India--Lakshadweep--Amini Island", "STATE": "Lakshadweep", "COUNTY": "Lakshadweep", "OWNER": null }, "geometry": { "type": "MultiPolygon", "coordinates": [ [ [ [ 72.706, 11.147 ], [ 72.698, 11.137 ], [ 72.702, 11.125 ], [ 72.694, 11.115 ], [ 72.698, 11.103 ], [ 72.71, 11.101 ], [ 72.714, 11.089 ], [ 72.726, 11.086 ], [ 72.733, 11.096 ], [ 72.73, 11.108 ], [ 72.737, 11.118 ], [ 72.734, 11.13 ], [ 72.741, 11.14 ], [ 72.737, 11.152 ], [ 72.726, 11.154 ], [ 72.718, 11.145 ], [ 72.706, 11.147 ] ] ] ] } },
{ "type": "Feature", "properties": { "POLYGON.ID": 1015.0, "subregion": "India--Lakshadweep--Kadmat Island", "FILTER": "Lakshadweep", "POLYGON": "India--Lakshadweep--Kadmat Island", "STATE": "Lakshadweep", "COUNTY": "Lakshadweep", "OWNER": null }, "geometry": { "type": "MultiPolygon", "coordinates": [ [ [ [ 72.785, 11.176 ], [ 72.781, 11.188 ], [ 72.789, 11.198 ], [ 72.785, 11.21 ], [ 72.793, 11.22 ], [ 72.789, 11.232 ], [ 72.797, 11.242 ], [ 72.793, 11.254 ], [ 72.801, 11.263 ], [ 72.797, 11.275 ], [ 72.785, 11.278 ], [ 72.777, 11.268 ], [ 72.781, 11.256 ], [ 72.773, 11.246 ], [ 72.761, 11.249 ], [ 72.753, 11.239 ], [ 72.757, 11.227 ], [ 72.749, 11.217 ], [ 72.753, 11.205 ], [ 72.745, 11.195 ], [ 72.749, 11.183 ], [ 72.741, 11.174 ], [ 72.745, 11.162 ], [ 72.757, 11.159 ], [ 72.765, 11.169 ], [ 72.777, 11.166 ], [ 72.785, 11.176 ] ] ] ] } },
{ "type": "Feature", "properties": { "POLYGON.ID": 1016.0, "subregion": "India--Lakshadweep--Andrott Island", "FILTER": "Lakshadweep", "POLYGON": "India--Lakshadweep--Andrott Island", "STATE": "Lakshadweep", "COUNTY": "Lakshadweep", "OWNER": null }, "geometry": { "type": "MultiPolygon", "coordinates": [ [ [ [ 73.655, 10.816 ], [ 73.659, 10.804 ], [ 73.671, 10.801 ], [ 73.675, 10.789 ], [ 73.687, 10.787 ], [ 73.695, 10.796 ], [ 73.706, 10.794 ], [ 73.715, 10.804 ], [ 73.711, 10.816 ], [ 73.719, 10.826 ], [ 73.715, 10.838 ], [ 73.703, 10.84 ], [ 73.695, 10.831 ], [ 73.683, 10.833 ], [ 73.675, 10.823 ], [ 73.663, 10.826 ], [ 73.655, 10.816 ] ] ] ] } },
{ "type": "Feature", "properties": { "POLYGON.ID": 1017.0, "subregion": "India--Lakshadweep--Kiltan Island", "FILTER": "Lakshadweep", "POLYGON": "India--Lakshadweep--Kiltan Island", "STATE": "Lakshadweep", "COUNTY": "Lakshadweep", "OWNER": null }, "geometry": { "type": "MultiPolygon", "coordinates": [ [ [ [ 73.014, 11.458 ], [ 73.022, 11.468 ], [ 73.018, 11.48 ], [ 73.026, 11.49 ], [ 73.022, 11.502 ], [ 73.01, 11.504 ], [ 73.006, 11.516 ], [ 72.994, 11.519 ], [ 72.986, 11.509 ], [ 72.99, 11.497 ], [ 72.982, 11.487 ], [ 72.986, 11.475 ], [ 72.998, 11.472 ], [ 73.002, 11.46 ], [ 73.014, 11.458 ] ] ] ] } },
{ "type": "Feature", "properties": { "POLYGON.ID": 1018.0, "subregion": "India--Lakshadweep--Chetlat Island", "FILTER": "Lakshadweep", "POLYGON": "India--Lakshadweep--Chetlat Island", "STATE": "Lakshadweep", "COUNTY": "Lakshadweep", "OWNER": null }, "geometry": { "type": "MultiPolygon", "coordinates": [ [ [ [ 72.694, 11.691 ], [ 72.687, 11.682 ], [ 72.69, 11.67 ], [ 72.702, 11.667 ], [ 72.71, 11.677 ], [ 72.722, 11.675 ], [ 72.73, 11.684 ], [ 72.726, 11.696 ], [ 72.734, 11.706 ], [ 72.73, 11.718 ], [ 72.718, 11.721 ], [ 72.71, 11.711 ], [ 72.698, 11.713 ], [ 72.69, 11.704 ], [ 72.694, 11.691 ] ] ] ] } },
{ "type": "Feature", "properties": { "POLYGON.ID": 1019.0, "subregion": "India--Lakshadweep--Bitra Island", "FILTER": "Lakshadweep", "POLYGON": "India--Lakshadweep--Bitra Island", "STATE": "Lakshadweep", "COUNTY": "Lakshadweep", "OWNER": null }, "geometry": { "type": "MultiPolygon", "coordinates": [ [ [ [ 72.192, 11.577 ], [ 72.2, 11.587 ], [ 72.196, 11.599 ], [ 72.204, 11.608 ], [ 72.2, 11.62 ], [ 72.188, 11.623 ], [ 72.181, 11.613 ], [ 72.169, 11.615 ], [ 72.161, 11.606 ], [ 72.165, 11.594 ], [ 72.177, 11.591 ], [ 72.181, 11.579 ], [ 72.192, 11.577 ] ] ] ] } },
{ "type": "Feature", "properties": { "POLYGON.ID": 1020.0, "subregion": "India--Lakshadweep--Pitti Island", "FILTER": "Lakshadweep", "POLYGON": "India--Lakshadweep--Pitti Island", "STATE": "Lakshadweep", "COUNTY": "Lakshadweep", "OWNER": null }, "geometry": { "type": "MultiPolygon", "coordinates": [ [ [ [ 72.529, 10.777 ], [ 72.522, 10.767 ], [ 72.525, 10.755 ], [ 72.537, 10.752 ], [ 72.545, 10.762 ], [ 72.541, 10.774 ], [ 72.549, 10.784 ], [ 72.545, 10.796 ], [ 72.533, 10.798 ], [ 72.525, 10.789 ], [ 72.529, 10.777 ] ] ] ] } }
]
}
