{
"type": "FeatureCollection",
"name": "Manipur",
"crs": { "type": "name", "properties": { "name": "urn:ogc:def:crs:OGC:1.3:CRS84" } },
"features": [
{ "type": "Feature", "properties": { "POLYGON.ID": 948.0, "subregion": "India--Manipur--Churachandpur--mid elevations (east)", "POLYGON": "India--Manipur--Churachandpur--mid elevations (east)", "SHOW": "1", "FILTER": "Not-Assigned", "FILTER.ID": null, "OLD.POLYGON": null, "STATE": "Manipur", "COUNTY": "Churachandpur", "OWNER": null }, "geometry": { "type": "MultiPolygon", "coordinates": [ [ [ [ 93.586, 24.089 ], [ 93.59, 24.077 ], [ 93.579, 24.067 ], [ 93.583, 24.055 ], [ 93.597, 24.051 ], [ 93.601, 24.039 ], [ 93.591, 24.029 ], [ 93.595, 24.017 ], [ 93.584, 24.007 ], [ 93.588, 23.995 ], [ 93.578, 23.985 ], [ 93.582, 23.973 ], [ 93.571, 23.963 ], [ 93.575, 23.951 ], [ 93.59, 23.948 ], [ 93.6, 23.957 ], [ 93.614, 23.954 ], [ 93.625, 23.963 ], [ 93.621, 23.976 ], [ 93.631, 23.985 ], [ 93.627, 23.998 ], [ 93.638, 24.007 ], [ 93.652, 24.004 ], [ 93.656, 23.991 ], [ 93.67, 23.988 ], [ 93.68, 23.998 ], [ 93.695, 23.994 ], [ 93.699, 23.982 ], [ 93.713, 23.979 ], [ 93.723, 23.988 ], [ 93.738, 23.985 ], [ 93.748, 23.994 ], [ 93.744, 24.007 ], [ 93.754, 24.016 ], [ 93.751, 24.029 ], [ 93.761, 24.038 ], [ 93.757, 24.051 ], [ 93.767, 24.06 ], [ 93.764, 24.073 ], [ 93.774, 24.082 ], [ 93.77, 24.095 ], [ 93.781, 24.104 ], [ 93.777, 24.117 ], [ 93.787, 24.126 ], [ 93.783, 24.139 ], [ 93.794, 24.148 ], [ 93.808, 24.145 ], [ 93.818, 24.154 ], [ 93.814, 24.167 ], [ 93.825, 24.176 ], [ 93.821, 24.189 ], [ 93.807, 24.192 ], [ 93.803, 24.204 ], [ 93.813, 24.214 ], [ 93.809, 24.226 ], [ 93.82, 24.236 ], [ 93.816, 24.248 ], [ 93.802, 24.252 ], [ 93.798, 24.264 ], [ 93.783, 24.267 ], [ 93.779, 24.28 ], [ 93.765, 24.283 ], [ 93.761, 24.296 ], [ 93.747, 24.299 ], [ 93.737, 24.289 ], [ 93.722, 24.293 ], [ 93.712, 24.283 ], [ 93.698, 24.286 ], [ 93.687, 24.277 ], [ 93.691, 24.265 ], [ 93.681, 24.255 ], [ 93.685, 24.243 ], [ 93.674, 24.233 ], [ 93.678, 24.221 ], [ 93.668, 24.211 ], [ 93.672, 24.199 ], [ 93.661, 24.189 ], [ 93.647, 24.193 ], [ 93.637, 24.183 ], [ 93.64, 24.171 ], [ 93.63, 24.161 ], [ 93.634, 24.149 ], [ 93.624, 24.139 ], [ 93.609, 24.142 ], [ 93.599, 24.133 ], [ 93.603, 24.12 ], [ 93.592, 24.111 ], [ 93.596, 24.099 ], [ 93.586, 24.089 ] ] ] ] } },
{ "type": "Feature", "properties": { "POLYGON.ID": 947.0, "subregion": "India--Manipur--Senapati--high elevations--approach to Senapati", "POLYGON": "India--Manipur--Senapati--high elevations--approach to Senapati", "SHOW": "1", "FILTER": "Not-Assigned", "FILTER.ID": null, "OLD.POLYGON": null, "STATE": "Manipur", "COUNTY": "Senapati", "OWNER": null }, "geometry": { "type": "MultiPolygon", "coordinates": [ [ [ [ 93.869, 25.493 ], [ 93.872, 25.48 ], [ 93.887, 25.477 ], [ 93.897, 25.486 ], [ 93.912, 25.483 ], [ 93.916, 25.471 ], [ 93.93, 25.468 ], [ 93.934, 25.455 ], [ 93.948, 25.452 ], [ 93.952, 25.44 ], [ 93.966, 25.436 ], [ 93.977, 25.446 ], [ 93.991, 25.442 ], [ 94.002, 25.452 ], [ 94.016, 25.449 ], [ 94.026, 25.458 ], [ 94.022, 25.47 ], [ 94.008, 25.473 ], [ 94.004, 25.486 ], [ 94.015, 25.495 ], [ 94.011, 25.507 ], [ 93.996, 25.511 ], [ 93.993, 25.523 ], [ 93.978, 25.526 ], [ 93.974, 25.539 ], [ 93.96, 25.542 ], [ 93.956, 25.554 ], [ 93.942, 25.557 ], [ 93.931, 25.548 ], [ 93.917, 25.551 ], [ 93.913, 25.564 ], [ 93.899, 25.567 ], [ 93.888, 25.558 ], [ 93.874, 25.561 ], [ 93.863, 25.552 ], [ 93.849, 25.555 ], [ 93.839, 25.545 ], [ 93.824, 25.549 ], [ 93.814, 25.539 ], [ 93.8, 25.542 ], [ 93.789, 25.533 ], [ 93.775, 25.536 ], [ 93.764, 25.527 ], [ 93.768, 25.515 ], [ 93.758, 25.505 ], [ 93.762, 25.493 ], [ 93.776, 25.49 ], [ 93.786, 25.499 ], [ 93.801, 25.496 ], [ 93.805, 25.484 ], [ 93.819, 25.48 ], [ 93.829, 25.49 ], [ 93.844, 25.487 ], [ 93.854, 25.496 ], [ 93.869, 25.493 ] ] ] ] } },
{ "type": "Feature", "properties": { "POLYGON.ID": 946.0, "subregion": "India--Manipur--Senapati--around town", "POLYGON": "India--Manipur--Senapati--around town", "SHOW": "1", "FILTER": "Not-Assigned", "FILTER.ID": null, "OLD.POLYGON": null, "STATE": "Manipur", "COUNTY": "Senapati", "OWNER": null }, "geometry": { "type": "MultiPolygon", "coordinates": [ [ [ [ 93.854, 25.114 ], [ 93.85, 25.126 ], [ 93.835, 25.129 ], [ 93.832, 25.142 ], [ 93.817, 25.145 ], [ 93.813, 25.157 ], [ 93.824, 25.167 ], [ 93.82, 25.179 ], [ 93.83, 25.188 ], [ 93.845, 25.185 ], [ 93.855, 25.195 ], [ 93.869, 25.191 ], [ 93.873, 25.179 ], [ 93.888, 25.176 ], [ 93.898, 25.185 ], [ 93.912, 25.182 ], [ 93.923, 25.191 ], [ 93.937, 25.188 ], [ 93.948, 25.197 ], [ 93.962, 25.194 ], [ 93.966, 25.182 ], [ 93.98, 25.178 ], [ 93.991, 25.188 ], [ 94.005, 25.185 ], [ 94.015, 25.194 ], [ 94.03, 25.191 ], [ 94.034, 25.178 ], [ 94.048, 25.175 ], [ 94.052, 25.163 ], [ 94.066, 25.159 ], [ 94.077, 25.169 ], [ 94.091, 25.165 ], [ 94.101, 25.175 ], [ 94.097, 25.187 ], [ 94.108, 25.196 ], [ 94.104, 25.209 ], [ 94.114, 25.218 ], [ 94.111, 25.231 ], [ 94.121, 25.24 ], [ 94.117, 25.252 ], [ 94.128, 25.262 ], [ 94.124, 25.274 ], [ 94.134, 25.283 ], [ 94.13, 25.296 ], [ 94.141, 25.305 ], [ 94.137, 25.317 ], [ 94.147, 25.327 ], [ 94.162, 25.324 ], [ 94.172, 25.333 ], [ 94.186, 25.33 ], [ 94.197, 25.339 ], [ 94.211, 25.336 ], [ 94.222, 25.345 ], [ 94.218, 25.357 ], [ 94.228, 25.367 ], [ 94.224, 25.379 ], [ 94.21, 25.382 ], [ 94.2, 25.373 ], [ 94.185, 25.376 ], [ 94.181, 25.389 ], [ 94.192, 25.398 ], [ 94.206, 25.395 ], [ 94.217, 25.404 ], [ 94.231, 25.401 ], [ 94.242, 25.41 ], [ 94.256, 25.407 ], [ 94.266, 25.416 ], [ 94.262, 25.428 ], [ 94.273, 25.438 ], [ 94.269, 25.45 ], [ 94.28, 25.459 ], [ 94.294, 25.456 ], [ 94.304, 25.465 ], [ 94.3, 25.478 ], [ 94.311, 25.487 ], [ 94.307, 25.499 ], [ 94.293, 25.503 ], [ 94.282, 25.493 ], [ 94.268, 25.497 ], [ 94.257, 25.487 ], [ 94.243, 25.491 ], [ 94.233, 25.481 ], [ 94.218, 25.485 ], [ 94.214, 25.497 ], [ 94.225, 25.506 ], [ 94.221, 25.519 ], [ 94.207, 25.522 ], [ 94.203, 25.534 ], [ 94.188, 25.537 ], [ 94.185, 25.55 ], [ 94.17, 25.553 ], [ 94.16, 25.544 ], [ 94.145, 25.547 ], [ 94.135, 25.538 ], [ 94.121, 25.541 ], [ 94.11, 25.532 ], [ 94.114, 25.519 ], [ 94.103, 25.51 ], [ 94.107, 25.498 ], [ 94.097, 25.488 ], [ 94.083, 25.492 ], [ 94.072, 25.482 ], [ 94.076, 25.47 ], [ 94.066, 25.461 ], [ 94.051, 25.464 ], [ 94.041, 25.455 ], [ 94.026, 25.458 ], [ 94.016, 25.449 ], [ 94.002, 25.452 ], [ 93.991, 25.442 ], [ 93.977, 25.446 ], [ 93.966, 25.436 ], [ 93.952, 25.44 ], [ 93.942, 25.43 ], [ 93.945, 25.418 ], [ 93.935, 25.409 ], [ 93.939, 25.396 ], [ 93.953, 25.393 ], [ 93.957, 25.381 ], [ 93.947, 25.371 ], [ 93.951, 25.359 ], [ 93.94, 25.35 ], [ 93.944, 25.337 ], [ 93.958, 25.334 ], [ 93.962, 25.322 ], [ 93.952, 25.312 ], [ 93.956, 25.3 ], [ 93.945, 25.291 ], [ 93.931, 25.294 ], [ 93.927, 25.306 ], [ 93.913, 25.309 ], [ 93.909, 25.322 ], [ 93.894, 25.325 ], [ 93.884, 25.316 ], [ 93.888, 25.303 ], [ 93.877, 25.294 ], [ 93.863, 25.297 ], [ 93.853, 25.288 ], [ 93.856, 25.275 ], [ 93.846, 25.266 ], [ 93.85, 25.254 ], [ 93.84, 25.244 ], [ 93.825, 25.248 ], [ 93.815, 25.238 ], [ 93.8, 25.241 ], [ 93.79, 25.232 ], [ 93.794, 25.22 ], [ 93.783, 25.21 ], [ 93.787, 25.198 ], [ 93.777, 25.189 ], [ 93.763, 25.192 ], [ 93.752, 25.183 ], [ 93.738, 25.186 ], [ 93.727, 25.176 ], [ 93.713, 25.18 ], [ 93.703, 25.17 ], [ 93.706, 25.158 ], [ 93.696, 25.148 ], [ 93.7, 25.136 ], [ 93.714, 25.133 ], [ 93.725, 25.142 ], [ 93.739, 25.139 ], [ 93.749, 25.148 ], [ 93.764, 25.145 ], [ 93.768, 25.133 ], [ 93.782, 25.13 ], [ 93.786, 25.117 ], [ 93.8, 25.114 ], [ 93.804, 25.101 ], [ 93.818, 25.098 ], [ 93.822, 25.086 ], [ 93.837, 25.083 ], [ 93.847, 25.092 ], [ 93.843, 25.104 ], [ 93.854, 25.114 ] ] ] ] } },
{ "type": "Feature", "properties": { "POLYGON.ID": 938.0, "subregion": "India--Manipur--Senapati--high elevations", "POLYGON": "India--Manipur--Senapati--high elevations", "SHOW": "1", "FILTER": "Not-Assigned", "FILTER.ID": null, "OLD.POLYGON": null, "STATE": "Manipur", "COUNTY": "Senapati", "OWNER": null }, "geometry": { "type": "MultiPolygon", "coordinates": [ [ [ [ 94.031, 25.572 ], [ 94.016, 25.576 ], [ 94.006, 25.566 ], [ 93.991, 25.57 ], [ 93.981, 25.56 ], [ 93.967, 25.563 ], [ 93.956, 25.554 ], [ 93.96, 25.542 ], [ 93.974, 25.539 ], [ 93.978, 25.526 ], [ 93.993, 25.523 ], [ 93.996, 25.511 ], [ 94.011, 25.507 ], [ 94.015, 25.495 ], [ 94.004, 25.486 ], [ 94.008, 25.473 ], [ 94.022, 25.47 ], [ 94.026, 25.458 ], [ 94.041, 25.455 ], [ 94.051, 25.464 ], [ 94.066, 25.461 ], [ 94.076, 25.47 ], [ 94.072, 25.482 ], [ 94.083, 25.492 ], [ 94.097, 25.488 ], [ 94.107, 25.498 ], [ 94.103, 25.51 ], [ 94.114, 25.519 ], [ 94.11, 25.532 ], [ 94.121, 25.541 ], [ 94.117, 25.553 ], [ 94.102, 25.557 ], [ 94.098, 25.569 ], [ 94.084, 25.572 ], [ 94.074, 25.563 ], [ 94.059, 25.566 ], [ 94.055, 25.579 ], [ 94.041, 25.582 ], [ 94.031, 25.572 ] ] ] ] } },
{ "type": "Feature", "properties": { "POLYGON.ID": 937.0, "subregion": "India--Manipur--Tamenglong--high elevations (east)", "POLYGON": "India--Manipur--Tamenglong--high elevations (east)", "SHOW": "1", "FILTER": "Not-Assigned", "FILTER.ID": null, "OLD.POLYGON": null, "STATE": "Manipur", "COUNTY": "Tamenglong", "OWNER": null }, "geometry": { "type": "MultiPolygon", "coordinates": [ [ [ [ 93.739, 24.884 ], [ 93.753, 24.88 ], [ 93.763, 24.89 ], [ 93.778, 24.887 ], [ 93.788, 24.896 ], [ 93.784, 24.908 ], [ 93.795, 24.918 ], [ 93.791, 24.93 ], [ 93.801, 24.939 ], [ 93.797, 24.952 ], [ 93.808, 24.961 ], [ 93.804, 24.974 ], [ 93.814, 24.983 ], [ 93.81, 24.996 ], [ 93.821, 25.005 ], [ 93.835, 25.002 ], [ 93.846, 25.011 ], [ 93.86, 25.008 ], [ 93.87, 25.017 ], [ 93.867, 25.03 ], [ 93.877, 25.039 ], [ 93.873, 25.051 ], [ 93.883, 25.061 ], [ 93.88, 25.073 ], [ 93.89, 25.082 ], [ 93.886, 25.095 ], [ 93.897, 25.104 ], [ 93.893, 25.117 ], [ 93.903, 25.126 ], [ 93.917, 25.123 ], [ 93.928, 25.132 ], [ 93.924, 25.144 ], [ 93.934, 25.154 ], [ 93.931, 25.166 ], [ 93.941, 25.176 ], [ 93.937, 25.188 ], [ 93.923, 25.191 ], [ 93.912, 25.182 ], [ 93.898, 25.185 ], [ 93.888, 25.176 ], [ 93.873, 25.179 ], [ 93.869, 25.191 ], [ 93.855, 25.195 ], [ 93.845, 25.185 ], [ 93.83, 25.188 ], [ 93.82, 25.179 ], [ 93.824, 25.167 ], [ 93.813, 25.157 ], [ 93.817, 25.145 ], [ 93.832, 25.142 ], [ 93.835, 25.129 ], [ 93.85, 25.126 ], [ 93.854, 25.114 ], [ 93.843, 25.104 ], [ 93.847, 25.092 ], [ 93.837, 25.083 ], [ 93.822, 25.086 ], [ 93.818, 25.098 ], [ 93.804, 25.101 ], [ 93.8, 25.114 ], [ 93.786, 25.117 ], [ 93.782, 25.13 ], [ 93.768, 25.133 ], [ 93.764, 25.145 ], [ 93.749, 25.148 ], [ 93.739, 25.139 ], [ 93.725, 25.142 ], [ 93.714, 25.133 ], [ 93.7, 25.136 ], [ 93.69, 25.127 ], [ 93.693, 25.114 ], [ 93.683, 25.105 ], [ 93.687, 25.093 ], [ 93.676, 25.083 ], [ 93.68, 25.071 ], [ 93.695, 25.068 ], [ 93.699, 25.055 ], [ 93.713, 25.052 ], [ 93.717, 25.039 ], [ 93.731, 25.036 ], [ 93.735, 25.024 ], [ 93.725, 25.015 ], [ 93.728, 25.002 ], [ 93.718, 24.993 ], [ 93.722, 24.98 ], [ 93.711, 24.971 ], [ 93.715, 24.958 ], [ 93.705, 24.949 ], [ 93.709, 24.937 ], [ 93.698, 24.927 ], [ 93.702, 24.915 ], [ 93.717, 24.912 ], [ 93.72, 24.899 ], [ 93.735, 24.896 ], [ 93.739, 24.884 ] ] ] ] } },
{ "type": "Feature", "properties": { "POLYGON.ID": 936.0, "subregion": "India--Manipur--Tamenglong--high elevations", "POLYGON": "India--Manipur--Tamenglong--high elevations", "SHOW": "1", "FILTER": "Not-Assigned", "FILTER.ID": null, "OLD.POLYGON": null, "STATE": "Manipur", "COUNTY": "Tamenglong", "OWNER": null }, "geometry": { "type": "MultiPolygon", "coordinates": [ [ [ [ 93.426, 24.987 ], [ 93.441, 24.984 ], [ 93.451, 24.993 ], [ 93.465, 24.99 ], [ 93.476, 25.0 ], [ 93.49, 24.996 ], [ 93.501, 25.006 ], [ 93.515, 25.003 ], [ 93.519, 24.99 ], [ 93.533, 24.987 ], [ 93.544, 24.996 ], [ 93.54, 25.009 ], [ 93.55, 25.018 ], [ 93.564, 25.015 ], [ 93.575, 25.024 ], [ 93.571, 25.037 ], [ 93.581, 25.046 ], [ 93.577, 25.059 ], [ 93.588, 25.068 ], [ 93.584, 25.08 ], [ 93.594, 25.09 ], [ 93.591, 25.102 ], [ 93.601, 25.111 ], [ 93.615, 25.108 ], [ 93.626, 25.118 ], [ 93.622, 25.13 ], [ 93.632, 25.139 ], [ 93.647, 25.136 ], [ 93.657, 25.145 ], [ 93.653, 25.158 ], [ 93.664, 25.167 ], [ 93.678, 25.164 ], [ 93.688, 25.173 ], [ 93.703, 25.17 ], [ 93.713, 25.18 ], [ 93.727, 25.176 ], [ 93.738, 25.186 ], [ 93.752, 25.183 ], [ 93.763, 25.192 ], [ 93.777, 25.189 ], [ 93.787, 25.198 ], [ 93.783, 25.21 ], [ 93.794, 25.22 ], [ 93.79, 25.232 ], [ 93.8, 25.241 ], [ 93.815, 25.238 ], [ 93.825, 25.248 ], [ 93.84, 25.244 ], [ 93.85, 25.254 ], [ 93.846, 25.266 ], [ 93.856, 25.275 ], [ 93.853, 25.288 ], [ 93.863, 25.297 ], [ 93.877, 25.294 ], [ 93.888, 25.303 ], [ 93.884, 25.316 ], [ 93.894, 25.325 ], [ 93.909, 25.322 ], [ 93.913, 25.309 ], [ 93.927, 25.306 ], [ 93.931, 25.294 ], [ 93.945, 25.291 ], [ 93.956, 25.3 ], [ 93.952, 25.312 ], [ 93.962, 25.322 ], [ 93.958, 25.334 ], [ 93.944, 25.337 ], [ 93.94, 25.35 ], [ 93.951, 25.359 ], [ 93.947, 25.371 ], [ 93.957, 25.381 ], [ 93.953, 25.393 ], [ 93.939, 25.396 ], [ 93.935, 25.409 ], [ 93.945, 25.418 ], [ 93.942, 25.43 ], [ 93.952, 25.44 ], [ 93.948, 25.452 ], [ 93.934, 25.455 ], [ 93.93, 25.468 ], [ 93.916, 25.471 ], [ 93.912, 25.483 ], [ 93.897, 25.486 ], [ 93.887, 25.477 ], [ 93.872, 25.48 ], [ 93.869, 25.493 ], [ 93.854, 25.496 ], [ 93.844, 25.487 ], [ 93.829, 25.49 ], [ 93.819, 25.48 ], [ 93.805, 25.484 ], [ 93.794, 25.474 ], [ 93.798, 25.462 ], [ 93.788, 25.453 ], [ 93.792, 25.44 ], [ 93.781, 25.431 ], [ 93.767, 25.434 ], [ 93.756, 25.425 ], [ 93.76, 25.412 ], [ 93.75, 25.403 ], [ 93.735, 25.406 ], [ 93.725, 25.397 ], [ 93.729, 25.385 ], [ 93.718, 25.375 ], [ 93.722, 25.363 ], [ 93.712, 25.354 ], [ 93.698, 25.357 ], [ 93.687, 25.347 ], [ 93.691, 25.335 ], [ 93.681, 25.326 ], [ 93.666, 25.329 ], [ 93.656, 25.32 ], [ 93.66, 25.307 ], [ 93.649, 25.298 ], [ 93.653, 25.285 ], [ 93.643, 25.276 ], [ 93.647, 25.264 ], [ 93.636, 25.254 ], [ 93.64, 25.242 ], [ 93.63, 25.233 ], [ 93.615, 25.236 ], [ 93.605, 25.226 ], [ 93.609, 25.214 ], [ 93.598, 25.205 ], [ 93.584, 25.208 ], [ 93.58, 25.22 ], [ 93.566, 25.223 ], [ 93.562, 25.236 ], [ 93.548, 25.239 ], [ 93.544, 25.251 ], [ 93.529, 25.255 ], [ 93.519, 25.245 ], [ 93.505, 25.248 ], [ 93.501, 25.261 ], [ 93.486, 25.264 ], [ 93.483, 25.276 ], [ 93.468, 25.28 ], [ 93.464, 25.292 ], [ 93.45, 25.295 ], [ 93.44, 25.286 ], [ 93.425, 25.289 ], [ 93.415, 25.28 ], [ 93.419, 25.267 ], [ 93.408, 25.258 ], [ 93.394, 25.261 ], [ 93.384, 25.252 ], [ 93.387, 25.239 ], [ 93.377, 25.23 ], [ 93.381, 25.218 ], [ 93.37, 25.208 ], [ 93.374, 25.196 ], [ 93.364, 25.186 ], [ 93.35, 25.19 ], [ 93.339, 25.18 ], [ 93.343, 25.168 ], [ 93.333, 25.159 ], [ 93.337, 25.146 ], [ 93.351, 25.143 ], [ 93.355, 25.131 ], [ 93.344, 25.121 ], [ 93.348, 25.109 ], [ 93.338, 25.099 ], [ 93.324, 25.103 ], [ 93.313, 25.093 ], [ 93.317, 25.081 ], [ 93.307, 25.071 ], [ 93.311, 25.059 ], [ 93.3, 25.05 ], [ 93.286, 25.053 ], [ 93.275, 25.043 ], [ 93.261, 25.047 ], [ 93.251, 25.037 ], [ 93.255, 25.025 ], [ 93.244, 25.015 ], [ 93.248, 25.003 ], [ 93.262, 25.0 ], [ 93.266, 24.987 ], [ 93.281, 24.984 ], [ 93.291, 24.994 ], [ 93.305, 24.99 ], [ 93.316, 25.0 ], [ 93.33, 24.997 ], [ 93.334, 24.984 ], [ 93.348, 24.981 ], [ 93.359, 24.99 ], [ 93.373, 24.987 ], [ 93.377, 24.975 ], [ 93.391, 24.972 ], [ 93.402, 24.981 ], [ 93.416, 24.978 ], [ 93.426, 24.987 ] ] ] ] } },
{ "type": "Feature", "properties": { "POLYGON.ID": 935.0, "subregion": "India--Manipur--Churachandpur--low elevations", "POLYGON": "India--Manipur--Churachandpur--low elevations", "SHOW": "1", "FILTER": "Not-Assigned", "FILTER.ID": null, "OLD.POLYGON": null, "STATE": "Manipur", "COUNTY": "Churachandpur", "OWNER": null }, "geometry": { "type": "MultiPolygon", "coordinates": [ [ [ [ 93.661, 24.189 ], [ 93.672, 24.199 ], [ 93.668, 24.211 ], [ 93.678, 24.221 ], [ 93.674, 24.233 ], [ 93.685, 24.243 ], [ 93.681, 24.255 ], [ 93.691, 24.265 ], [ 93.687, 24.277 ], [ 93.698, 24.286 ], [ 93.712, 24.283 ], [ 93.722, 24.293 ], [ 93.718, 24.305 ], [ 93.729, 24.315 ], [ 93.725, 24.327 ], [ 93.735, 24.336 ], [ 93.732, 24.349 ], [ 93.717, 24.352 ], [ 93.713, 24.365 ], [ 93.699, 24.368 ], [ 93.689, 24.359 ], [ 93.674, 24.362 ], [ 93.664, 24.352 ], [ 93.65, 24.356 ], [ 93.639, 24.346 ], [ 93.643, 24.334 ], [ 93.633, 24.324 ], [ 93.637, 24.312 ], [ 93.626, 24.302 ], [ 93.63, 24.29 ], [ 93.62, 24.28 ], [ 93.624, 24.268 ], [ 93.613, 24.259 ], [ 93.617, 24.246 ], [ 93.607, 24.237 ], [ 93.611, 24.224 ], [ 93.6, 24.215 ], [ 93.604, 24.202 ], [ 93.594, 24.193 ], [ 93.598, 24.18 ], [ 93.587, 24.171 ], [ 93.591, 24.158 ], [ 93.581, 24.149 ], [ 93.566, 24.152 ], [ 93.556, 24.143 ], [ 93.56, 24.13 ], [ 93.55, 24.121 ], [ 93.553, 24.108 ], [ 93.543, 24.099 ], [ 93.547, 24.086 ], [ 93.537, 24.077 ], [ 93.54, 24.064 ], [ 93.555, 24.061 ], [ 93.559, 24.048 ], [ 93.548, 24.039 ], [ 93.552, 24.026 ], [ 93.542, 24.017 ], [ 93.546, 24.004 ], [ 93.535, 23.995 ], [ 93.539, 23.982 ], [ 93.529, 23.973 ], [ 93.533, 23.96 ], [ 93.522, 23.951 ], [ 93.526, 23.938 ], [ 93.54, 23.935 ], [ 93.551, 23.945 ], [ 93.565, 23.942 ], [ 93.575, 23.951 ], [ 93.571, 23.963 ], [ 93.582, 23.973 ], [ 93.578, 23.985 ], [ 93.588, 23.995 ], [ 93.584, 24.007 ], [ 93.595, 24.017 ], [ 93.591, 24.029 ], [ 93.601, 24.039 ], [ 93.597, 24.051 ], [ 93.583, 24.055 ], [ 93.579, 24.067 ], [ 93.59, 24.077 ], [ 93.586, 24.089 ], [ 93.596, 24.099 ], [ 93.592, 24.111 ], [ 93.603, 24.12 ], [ 93.599, 24.133 ], [ 93.609, 24.142 ], [ 93.624, 24.139 ], [ 93.634, 24.149 ], [ 93.63, 24.161 ], [ 93.64, 24.171 ], [ 93.637, 24.183 ], [ 93.647, 24.193 ], [ 93.661, 24.189 ] ] ] ] } },
{ "type": "Feature", "properties": { "POLYGON.ID": 939.0, "subregion": "India--Manipur--Chandel--Myanmar lowlands", "POLYGON": "India--Manipur--Chandel--Myanmar lowlands", "SHOW": "1", "FILTER": "Not-Assigned", "FILTER.ID": null, "OLD.POLYGON": null, "STATE": "Manipur", "COUNTY": "Chandel", "OWNER": null }, "geometry": { "type": "MultiPolygon", "coordinates": [ [ [ [ 94.154, 23.926 ], [ 94.158, 23.913 ], [ 94.147, 23.904 ], [ 94.151, 23.891 ], [ 94.141, 23.882 ], [ 94.145, 23.869 ], [ 94.134, 23.86 ], [ 94.138, 23.847 ], [ 94.128, 23.838 ], [ 94.114, 23.841 ], [ 94.103, 23.832 ], [ 94.107, 23.819 ], [ 94.121, 23.816 ], [ 94.125, 23.803 ], [ 94.139, 23.8 ], [ 94.15, 23.809 ], [ 94.164, 23.806 ], [ 94.174, 23.816 ], [ 94.171, 23.828 ], [ 94.181, 23.838 ], [ 94.177, 23.85 ], [ 94.188, 23.86 ], [ 94.184, 23.872 ], [ 94.194, 23.882 ], [ 94.19, 23.894 ], [ 94.201, 23.904 ], [ 94.197, 23.916 ], [ 94.207, 23.926 ], [ 94.203, 23.938 ], [ 94.214, 23.948 ], [ 94.21, 23.96 ], [ 94.22, 23.969 ], [ 94.216, 23.982 ], [ 94.227, 23.991 ], [ 94.241, 23.988 ], [ 94.252, 23.998 ], [ 94.248, 24.01 ], [ 94.258, 24.02 ], [ 94.254, 24.032 ], [ 94.265, 24.041 ], [ 94.261, 24.054 ], [ 94.271, 24.063 ], [ 94.267, 24.076 ], [ 94.278, 24.085 ], [ 94.274, 24.098 ], [ 94.284, 24.107 ], [ 94.281, 24.12 ], [ 94.266, 24.123 ], [ 94.256, 24.114 ], [ 94.242, 24.117 ], [ 94.231, 24.108 ], [ 94.235, 24.095 ], [ 94.225, 24.086 ], [ 94.228, 24.073 ], [ 94.218, 24.064 ], [ 94.222, 24.051 ], [ 94.211, 24.042 ], [ 94.197, 24.045 ], [ 94.187, 24.036 ], [ 94.191, 24.023 ], [ 94.18, 24.014 ], [ 94.184, 24.001 ], [ 94.174, 23.992 ], [ 94.178, 23.979 ], [ 94.167, 23.97 ], [ 94.171, 23.957 ], [ 94.161, 23.948 ], [ 94.164, 23.935 ], [ 94.154, 23.926 ] ] ] ] } },
{ "type": "Feature", "properties": { "POLYGON.ID": 940.0, "subregion": "India--Manipur--Tengnoupal--Myanmar lowlands", "POLYGON": "India--Manipur--Tengnoupal--Myanmar lowlands", "SHOW": "1", "FILTER": "Not-Assigned", "FILTER.ID": null, "OLD.POLYGON": null, "STATE": "Manipur", "COUNTY": "Tengnoupal", "OWNER": null }, "geometry": { "type": "MultiPolygon", "coordinates": [ [ [ [ 94.34, 24.317 ], [ 94.35, 24.327 ], [ 94.364, 24.323 ], [ 94.375, 24.333 ], [ 94.371, 24.345 ], [ 94.381, 24.354 ], [ 94.396, 24.351 ], [ 94.406, 24.361 ], [ 94.402, 24.373 ], [ 94.413, 24.382 ], [ 94.409, 24.395 ], [ 94.419, 24.404 ], [ 94.415, 24.417 ], [ 94.426, 24.426 ], [ 94.422, 24.439 ], [ 94.432, 24.448 ], [ 94.429, 24.461 ], [ 94.439, 24.47 ], [ 94.435, 24.482 ], [ 94.421, 24.486 ], [ 94.41, 24.476 ], [ 94.396, 24.48 ], [ 94.386, 24.47 ], [ 94.371, 24.474 ], [ 94.361, 24.464 ], [ 94.347, 24.468 ], [ 94.336, 24.458 ], [ 94.322, 24.461 ], [ 94.311, 24.452 ], [ 94.315, 24.44 ], [ 94.305, 24.43 ], [ 94.291, 24.434 ], [ 94.28, 24.424 ], [ 94.266, 24.427 ], [ 94.255, 24.418 ], [ 94.259, 24.406 ], [ 94.249, 24.396 ], [ 94.253, 24.384 ], [ 94.242, 24.374 ], [ 94.246, 24.362 ], [ 94.236, 24.352 ], [ 94.24, 24.34 ], [ 94.229, 24.331 ], [ 94.233, 24.318 ], [ 94.223, 24.309 ], [ 94.226, 24.296 ], [ 94.241, 24.293 ], [ 94.245, 24.28 ], [ 94.234, 24.271 ], [ 94.238, 24.258 ], [ 94.252, 24.255 ], [ 94.256, 24.243 ], [ 94.246, 24.233 ], [ 94.25, 24.221 ], [ 94.239, 24.211 ], [ 94.243, 24.199 ], [ 94.257, 24.195 ], [ 94.261, 24.183 ], [ 94.251, 24.174 ], [ 94.255, 24.161 ], [ 94.244, 24.152 ], [ 94.248, 24.139 ], [ 94.238, 24.13 ], [ 94.242, 24.117 ], [ 94.256, 24.114 ], [ 94.266, 24.123 ], [ 94.281, 24.12 ], [ 94.291, 24.129 ], [ 94.287, 24.142 ], [ 94.297, 24.151 ], [ 94.294, 24.164 ], [ 94.304, 24.173 ], [ 94.3, 24.186 ], [ 94.311, 24.195 ], [ 94.307, 24.208 ], [ 94.317, 24.217 ], [ 94.313, 24.23 ], [ 94.324, 24.239 ], [ 94.32, 24.251 ], [ 94.33, 24.261 ], [ 94.326, 24.273 ], [ 94.337, 24.283 ], [ 94.333, 24.295 ], [ 94.343, 24.305 ], [ 94.34, 24.317 ] ] ] ] } },
{ "type": "Feature", "properties": { "POLYGON.ID": 941.0, "subregion": "India--Manipur--Kamjong--Myanmar lowlands", "POLYGON": "India--Manipur--Kamjong--Myanmar lowlands", "SHOW": "1", "FILTER": "Not-Assigned", "FILTER.ID": null, "OLD.POLYGON": null, "STATE": "Manipur", "COUNTY": "Kamjong", "OWNER": null }, "geometry": { "type": "MultiPolygon", "coordinates": [ [ [ [ 94.634, 24.962 ], [ 94.623, 24.953 ], [ 94.609, 24.956 ], [ 94.598, 24.947 ], [ 94.602, 24.934 ], [ 94.592, 24.925 ], [ 94.596, 24.912 ], [ 94.585, 24.903 ], [ 94.589, 24.891 ], [ 94.579, 24.881 ], [ 94.582, 24.869 ], [ 94.572, 24.86 ], [ 94.576, 24.847 ], [ 94.565, 24.838 ], [ 94.551, 24.841 ], [ 94.541, 24.832 ], [ 94.526, 24.835 ], [ 94.522, 24.848 ], [ 94.508, 24.851 ], [ 94.498, 24.841 ], [ 94.483, 24.845 ], [ 94.473, 24.835 ], [ 94.477, 24.823 ], [ 94.466, 24.814 ], [ 94.47, 24.801 ], [ 94.484, 24.798 ], [ 94.488, 24.785 ], [ 94.503, 24.782 ], [ 94.506, 24.77 ], [ 94.521, 24.766 ], [ 94.525, 24.754 ], [ 94.514, 24.745 ], [ 94.518, 24.732 ], [ 94.508, 24.723 ], [ 94.511, 24.71 ], [ 94.501, 24.701 ], [ 94.505, 24.688 ], [ 94.494, 24.679 ], [ 94.498, 24.667 ], [ 94.488, 24.657 ], [ 94.492, 24.645 ], [ 94.481, 24.635 ], [ 94.485, 24.623 ], [ 94.475, 24.614 ], [ 94.46, 24.617 ], [ 94.45, 24.608 ], [ 94.454, 24.595 ], [ 94.443, 24.586 ], [ 94.429, 24.589 ], [ 94.419, 24.58 ], [ 94.422, 24.567 ], [ 94.412, 24.558 ], [ 94.416, 24.545 ], [ 94.405, 24.536 ], [ 94.409, 24.523 ], [ 94.399, 24.514 ], [ 94.403, 24.502 ], [ 94.392, 24.492 ], [ 94.396, 24.48 ], [ 94.41, 24.476 ], [ 94.421, 24.486 ], [ 94.435, 24.482 ], [ 94.446, 24.492 ], [ 94.442, 24.504 ], [ 94.452, 24.514 ], [ 94.448, 24.526 ], [ 94.459, 24.536 ], [ 94.455, 24.548 ], [ 94.465, 24.557 ], [ 94.48, 24.554 ], [ 94.49, 24.563 ], [ 94.486, 24.576 ], [ 94.497, 24.585 ], [ 94.511, 24.582 ], [ 94.521, 24.591 ], [ 94.536, 24.588 ], [ 94.546, 24.597 ], [ 94.542, 24.61 ], [ 94.553, 24.619 ], [ 94.549, 24.632 ], [ 94.559, 24.641 ], [ 94.555, 24.654 ], [ 94.566, 24.663 ], [ 94.562, 24.675 ], [ 94.573, 24.685 ], [ 94.587, 24.681 ], [ 94.597, 24.691 ], [ 94.593, 24.703 ], [ 94.604, 24.712 ], [ 94.618, 24.709 ], [ 94.629, 24.718 ], [ 94.625, 24.731 ], [ 94.635, 24.74 ], [ 94.631, 24.753 ], [ 94.642, 24.762 ], [ 94.638, 24.775 ], [ 94.648, 24.784 ], [ 94.645, 24.796 ], [ 94.655, 24.806 ], [ 94.651, 24.818 ], [ 94.662, 24.827 ], [ 94.658, 24.84 ], [ 94.668, 24.849 ], [ 94.683, 24.846 ], [ 94.693, 24.855 ], [ 94.689, 24.868 ], [ 94.7, 24.877 ], [ 94.714, 24.874 ], [ 94.724, 24.883 ], [ 94.721, 24.896 ], [ 94.731, 24.905 ], [ 94.727, 24.917 ], [ 94.738, 24.927 ], [ 94.734, 24.939 ], [ 94.72, 24.942 ], [ 94.716, 24.955 ], [ 94.726, 24.964 ], [ 94.722, 24.977 ], [ 94.708, 24.98 ], [ 94.698, 24.971 ], [ 94.683, 24.974 ], [ 94.679, 24.986 ], [ 94.665, 24.99 ], [ 94.655, 24.98 ], [ 94.64, 24.984 ], [ 94.63, 24.974 ], [ 94.634, 24.962 ] ] ] ] } },
{ "type": "Feature", "properties": { "POLYGON.ID": 942.0, "subregion": "India--Manipur--Shirui", "POLYGON": "India--Manipur--Shirui", "SHOW": "1", "FILTER": "Not-Assigned", "FILTER.ID": null, "OLD.POLYGON": null, "STATE": "Manipur", "COUNTY": "spl_region", "OWNER": null }, "geometry": { "type": "MultiPolygon", "coordinates": [ [ [ [ 94.63, 24.974 ], [ 94.64, 24.984 ], [ 94.655, 24.98 ], [ 94.665, 24.99 ], [ 94.679, 24.986 ], [ 94.683, 24.974 ], [ 94.698, 24.971 ], [ 94.708, 24.98 ], [ 94.722, 24.977 ], [ 94.733, 24.986 ], [ 94.747, 24.983 ], [ 94.758, 24.992 ], [ 94.754, 25.004 ], [ 94.764, 25.014 ], [ 94.76, 25.026 ], [ 94.771, 25.035 ], [ 94.767, 25.048 ], [ 94.753, 25.051 ], [ 94.749, 25.064 ], [ 94.759, 25.073 ], [ 94.755, 25.085 ], [ 94.766, 25.095 ], [ 94.762, 25.107 ], [ 94.773, 25.116 ], [ 94.769, 25.129 ], [ 94.754, 25.132 ], [ 94.75, 25.145 ], [ 94.736, 25.148 ], [ 94.732, 25.16 ], [ 94.718, 25.164 ], [ 94.714, 25.176 ], [ 94.7, 25.179 ], [ 94.696, 25.192 ], [ 94.682, 25.195 ], [ 94.671, 25.186 ], [ 94.657, 25.189 ], [ 94.653, 25.202 ], [ 94.639, 25.205 ], [ 94.635, 25.217 ], [ 94.62, 25.221 ], [ 94.617, 25.233 ], [ 94.627, 25.242 ], [ 94.623, 25.255 ], [ 94.634, 25.264 ], [ 94.63, 25.276 ], [ 94.64, 25.286 ], [ 94.636, 25.298 ], [ 94.647, 25.307 ], [ 94.643, 25.32 ], [ 94.654, 25.329 ], [ 94.65, 25.341 ], [ 94.66, 25.351 ], [ 94.656, 25.363 ], [ 94.667, 25.372 ], [ 94.663, 25.385 ], [ 94.673, 25.394 ], [ 94.67, 25.406 ], [ 94.68, 25.416 ], [ 94.676, 25.428 ], [ 94.687, 25.437 ], [ 94.683, 25.45 ], [ 94.668, 25.453 ], [ 94.658, 25.444 ], [ 94.644, 25.447 ], [ 94.64, 25.46 ], [ 94.625, 25.463 ], [ 94.622, 25.475 ], [ 94.607, 25.478 ], [ 94.603, 25.491 ], [ 94.589, 25.494 ], [ 94.578, 25.485 ], [ 94.564, 25.488 ], [ 94.554, 25.479 ], [ 94.558, 25.466 ], [ 94.547, 25.457 ], [ 94.551, 25.445 ], [ 94.54, 25.436 ], [ 94.544, 25.423 ], [ 94.559, 25.42 ], [ 94.562, 25.407 ], [ 94.552, 25.398 ], [ 94.556, 25.386 ], [ 94.545, 25.377 ], [ 94.549, 25.364 ], [ 94.539, 25.355 ], [ 94.524, 25.358 ], [ 94.514, 25.349 ], [ 94.518, 25.336 ], [ 94.507, 25.327 ], [ 94.493, 25.33 ], [ 94.483, 25.321 ], [ 94.468, 25.324 ], [ 94.458, 25.315 ], [ 94.462, 25.303 ], [ 94.476, 25.3 ], [ 94.48, 25.287 ], [ 94.469, 25.278 ], [ 94.473, 25.265 ], [ 94.463, 25.256 ], [ 94.467, 25.244 ], [ 94.456, 25.234 ], [ 94.46, 25.222 ], [ 94.474, 25.219 ], [ 94.478, 25.206 ], [ 94.468, 25.197 ], [ 94.472, 25.184 ], [ 94.461, 25.175 ], [ 94.465, 25.163 ], [ 94.455, 25.154 ], [ 94.458, 25.141 ], [ 94.448, 25.132 ], [ 94.434, 25.135 ], [ 94.43, 25.147 ], [ 94.415, 25.151 ], [ 94.405, 25.141 ], [ 94.409, 25.129 ], [ 94.398, 25.12 ], [ 94.384, 25.123 ], [ 94.374, 25.114 ], [ 94.377, 25.101 ], [ 94.367, 25.092 ], [ 94.371, 25.079 ], [ 94.36, 25.07 ], [ 94.364, 25.058 ], [ 94.354, 25.048 ], [ 94.358, 25.036 ], [ 94.372, 25.033 ], [ 94.376, 25.02 ], [ 94.365, 25.011 ], [ 94.369, 24.998 ], [ 94.384, 24.995 ], [ 94.387, 24.983 ], [ 94.402, 24.98 ], [ 94.406, 24.967 ], [ 94.395, 24.958 ], [ 94.399, 24.945 ], [ 94.389, 24.936 ], [ 94.392, 24.923 ], [ 94.382, 24.914 ], [ 94.386, 24.902 ], [ 94.4, 24.898 ], [ 94.404, 24.886 ], [ 94.418, 24.883 ], [ 94.422, 24.87 ], [ 94.437, 24.867 ], [ 94.447, 24.876 ], [ 94.461, 24.873 ], [ 94.472, 24.882 ], [ 94.468, 24.895 ], [ 94.454, 24.898 ], [ 94.45, 24.911 ], [ 94.435, 24.914 ], [ 94.432, 24.926 ], [ 94.442, 24.936 ], [ 94.438, 24.948 ], [ 94.449, 24.957 ], [ 94.445, 24.97 ], [ 94.455, 24.979 ], [ 94.47, 24.976 ], [ 94.473, 24.963 ], [ 94.488, 24.96 ], [ 94.498, 24.969 ], [ 94.494, 24.982 ], [ 94.505, 24.991 ], [ 94.519, 24.988 ], [ 94.53, 24.997 ], [ 94.544, 24.994 ], [ 94.548, 24.981 ], [ 94.562, 24.978 ], [ 94.572, 24.987 ], [ 94.587, 24.984 ], [ 94.597, 24.993 ], [ 94.612, 24.99 ], [ 94.615, 24.978 ], [ 94.63, 24.974 ] ] ] ] } },
{ "type": "Feature", "properties": { "POLYGON.ID": 943.0, "subregion": "India--Manipur--Plains", "POLYGON": "India--Manipur--Plains", "SHOW": "1", "FILTER": "Not-Assigned", "FILTER.ID": null, "OLD.POLYGON": null, "STATE": "Manipur", "COUNTY": "spl_region", "OWNER": null }, "geometry": { "type": "MultiPolygon", "coordinates": [ [ [ [ 93.805, 24.799 ], [ 93.795, 24.79 ], [ 93.798, 24.777 ], [ 93.813, 24.774 ], [ 93.817, 24.762 ], [ 93.806, 24.752 ], [ 93.792, 24.755 ], [ 93.781, 24.746 ], [ 93.785, 24.734 ], [ 93.775, 24.724 ], [ 93.779, 24.712 ], [ 93.768, 24.702 ], [ 93.772, 24.69 ], [ 93.762, 24.681 ], [ 93.766, 24.668 ], [ 93.755, 24.659 ], [ 93.759, 24.646 ], [ 93.749, 24.637 ], [ 93.753, 24.624 ], [ 93.742, 24.615 ], [ 93.746, 24.603 ], [ 93.736, 24.593 ], [ 93.74, 24.581 ], [ 93.729, 24.571 ], [ 93.733, 24.559 ], [ 93.723, 24.549 ], [ 93.727, 24.537 ], [ 93.716, 24.528 ], [ 93.72, 24.515 ], [ 93.734, 24.512 ], [ 93.738, 24.499 ], [ 93.728, 24.49 ], [ 93.732, 24.477 ], [ 93.721, 24.468 ], [ 93.725, 24.456 ], [ 93.715, 24.446 ], [ 93.719, 24.434 ], [ 93.733, 24.43 ], [ 93.737, 24.418 ], [ 93.751, 24.415 ], [ 93.755, 24.402 ], [ 93.769, 24.399 ], [ 93.78, 24.408 ], [ 93.794, 24.405 ], [ 93.798, 24.393 ], [ 93.812, 24.389 ], [ 93.816, 24.377 ], [ 93.83, 24.374 ], [ 93.834, 24.361 ], [ 93.848, 24.358 ], [ 93.852, 24.345 ], [ 93.867, 24.342 ], [ 93.877, 24.352 ], [ 93.891, 24.348 ], [ 93.902, 24.358 ], [ 93.898, 24.37 ], [ 93.908, 24.38 ], [ 93.904, 24.392 ], [ 93.915, 24.401 ], [ 93.911, 24.414 ], [ 93.921, 24.423 ], [ 93.936, 24.42 ], [ 93.946, 24.429 ], [ 93.942, 24.442 ], [ 93.953, 24.451 ], [ 93.949, 24.464 ], [ 93.959, 24.473 ], [ 93.955, 24.486 ], [ 93.966, 24.495 ], [ 93.98, 24.492 ], [ 93.984, 24.479 ], [ 93.998, 24.476 ], [ 94.002, 24.464 ], [ 94.016, 24.46 ], [ 94.027, 24.47 ], [ 94.023, 24.482 ], [ 94.033, 24.492 ], [ 94.029, 24.504 ], [ 94.04, 24.514 ], [ 94.036, 24.526 ], [ 94.046, 24.535 ], [ 94.061, 24.532 ], [ 94.071, 24.541 ], [ 94.067, 24.554 ], [ 94.078, 24.563 ], [ 94.092, 24.56 ], [ 94.102, 24.569 ], [ 94.099, 24.582 ], [ 94.084, 24.585 ], [ 94.08, 24.598 ], [ 94.091, 24.607 ], [ 94.087, 24.62 ], [ 94.097, 24.629 ], [ 94.093, 24.641 ], [ 94.104, 24.651 ], [ 94.1, 24.663 ], [ 94.11, 24.673 ], [ 94.107, 24.685 ], [ 94.117, 24.694 ], [ 94.113, 24.707 ], [ 94.099, 24.71 ], [ 94.088, 24.701 ], [ 94.074, 24.704 ], [ 94.064, 24.695 ], [ 94.049, 24.698 ], [ 94.046, 24.71 ], [ 94.031, 24.714 ], [ 94.021, 24.704 ], [ 94.006, 24.708 ], [ 94.003, 24.72 ], [ 93.988, 24.723 ], [ 93.984, 24.736 ], [ 93.97, 24.739 ], [ 93.966, 24.752 ], [ 93.977, 24.761 ], [ 93.973, 24.773 ], [ 93.983, 24.783 ], [ 93.979, 24.795 ], [ 93.99, 24.804 ], [ 93.986, 24.817 ], [ 93.996, 24.826 ], [ 93.992, 24.839 ], [ 94.003, 24.848 ], [ 93.999, 24.861 ], [ 94.009, 24.87 ], [ 94.024, 24.867 ], [ 94.034, 24.876 ], [ 94.048, 24.873 ], [ 94.059, 24.882 ], [ 94.055, 24.895 ], [ 94.041, 24.898 ], [ 94.03, 24.888 ], [ 94.016, 24.892 ], [ 94.006, 24.882 ], [ 93.991, 24.886 ], [ 93.981, 24.876 ], [ 93.985, 24.864 ], [ 93.974, 24.854 ], [ 93.96, 24.858 ], [ 93.956, 24.87 ], [ 93.942, 24.873 ], [ 93.938, 24.886 ], [ 93.924, 24.889 ], [ 93.92, 24.902 ], [ 93.905, 24.905 ], [ 93.901, 24.917 ], [ 93.887, 24.92 ], [ 93.883, 24.933 ], [ 93.869, 24.936 ], [ 93.865, 24.949 ], [ 93.851, 24.952 ], [ 93.84, 24.942 ], [ 93.844, 24.93 ], [ 93.834, 24.921 ], [ 93.838, 24.908 ], [ 93.827, 24.899 ], [ 93.831, 24.886 ], [ 93.821, 24.877 ], [ 93.825, 24.865 ], [ 93.814, 24.855 ], [ 93.818, 24.843 ], [ 93.808, 24.833 ], [ 93.811, 24.821 ], [ 93.801, 24.812 ], [ 93.805, 24.799 ] ], [ [ 93.867, 24.727 ], [ 93.871, 24.715 ], [ 93.885, 24.711 ], [ 93.889, 24.699 ], [ 93.904, 24.696 ], [ 93.908, 24.683 ], [ 93.897, 24.674 ], [ 93.901, 24.661 ], [ 93.915, 24.658 ], [ 93.919, 24.646 ], [ 93.933, 24.642 ], [ 93.944, 24.652 ], [ 93.958, 24.648 ], [ 93.962, 24.636 ], [ 93.976, 24.633 ], [ 93.98, 24.62 ], [ 93.995, 24.617 ], [ 93.998, 24.604 ], [ 93.988, 24.595 ], [ 93.992, 24.583 ], [ 94.006, 24.579 ], [ 94.01, 24.567 ], [ 94.0, 24.558 ], [ 94.004, 24.545 ], [ 94.018, 24.542 ], [ 94.022, 24.529 ], [ 94.011, 24.52 ], [ 93.997, 24.523 ], [ 93.987, 24.514 ], [ 93.972, 24.517 ], [ 93.968, 24.53 ], [ 93.954, 24.533 ], [ 93.944, 24.523 ], [ 93.948, 24.511 ], [ 93.937, 24.502 ], [ 93.941, 24.489 ], [ 93.931, 24.48 ], [ 93.934, 24.467 ], [ 93.924, 24.458 ], [ 93.928, 24.445 ], [ 93.917, 24.436 ], [ 93.903, 24.439 ], [ 93.893, 24.43 ], [ 93.897, 24.417 ], [ 93.886, 24.408 ], [ 93.872, 24.411 ], [ 93.868, 24.424 ], [ 93.854, 24.427 ], [ 93.843, 24.417 ], [ 93.829, 24.421 ], [ 93.819, 24.411 ], [ 93.804, 24.415 ], [ 93.8, 24.427 ], [ 93.786, 24.43 ], [ 93.782, 24.443 ], [ 93.793, 24.452 ], [ 93.789, 24.465 ], [ 93.775, 24.468 ], [ 93.771, 24.48 ], [ 93.756, 24.484 ], [ 93.752, 24.496 ], [ 93.763, 24.505 ], [ 93.759, 24.518 ], [ 93.745, 24.521 ], [ 93.741, 24.534 ], [ 93.751, 24.543 ], [ 93.747, 24.556 ], [ 93.758, 24.565 ], [ 93.754, 24.577 ], [ 93.764, 24.587 ], [ 93.76, 24.599 ], [ 93.771, 24.609 ], [ 93.767, 24.621 ], [ 93.777, 24.631 ], [ 93.773, 24.643 ], [ 93.784, 24.652 ], [ 93.78, 24.665 ], [ 93.79, 24.674 ], [ 93.787, 24.687 ], [ 93.797, 24.696 ], [ 93.811, 24.693 ], [ 93.822, 24.702 ], [ 93.818, 24.715 ], [ 93.828, 24.724 ], [ 93.843, 24.721 ], [ 93.853, 24.73 ], [ 93.867, 24.727 ] ] ] ] } },
{ "type": "Feature", "properties": { "POLYGON.ID": 944.0, "subregion": "India--Manipur--Loktak Lake", "POLYGON": "India--Manipur--Loktak Lake", "SHOW": "1", "FILTER": "Not-Assigned", "FILTER.ID": null, "OLD.POLYGON": null, "STATE": "Manipur", "COUNTY": "spl_region", "OWNER": null }, "geometry": { "type": "MultiPolygon", "coordinates": [ [ [ [ 94.01, 24.567 ], [ 94.006, 24.579 ], [ 93.992, 24.583 ], [ 93.988, 24.595 ], [ 93.998, 24.604 ], [ 93.995, 24.617 ], [ 93.98, 24.62 ], [ 93.976, 24.633 ], [ 93.962, 24.636 ], [ 93.958, 24.648 ], [ 93.944, 24.652 ], [ 93.933, 24.642 ], [ 93.919, 24.646 ], [ 93.915, 24.658 ], [ 93.901, 24.661 ], [ 93.897, 24.674 ], [ 93.908, 24.683 ], [ 93.904, 24.696 ], [ 93.889, 24.699 ], [ 93.885, 24.711 ], [ 93.871, 24.715 ], [ 93.867, 24.727 ], [ 93.853, 24.73 ], [ 93.843, 24.721 ], [ 93.828, 24.724 ], [ 93.818, 24.715 ], [ 93.822, 24.702 ], [ 93.811, 24.693 ], [ 93.797, 24.696 ], [ 93.787, 24.687 ], [ 93.79, 24.674 ], [ 93.78, 24.665 ], [ 93.784, 24.652 ], [ 93.773, 24.643 ], [ 93.777, 24.631 ], [ 93.767, 24.621 ], [ 93.771, 24.609 ], [ 93.76, 24.599 ], [ 93.764, 24.587 ], [ 93.754, 24.577 ], [ 93.758, 24.565 ], [ 93.747, 24.556 ], [ 93.751, 24.543 ], [ 93.741, 24.534 ], [ 93.745, 24.521 ], [ 93.759, 24.518 ], [ 93.763, 24.505 ], [ 93.752, 24.496 ], [ 93.756, 24.484 ], [ 93.771, 24.48 ], [ 93.775, 24.468 ], [ 93.789, 24.465 ], [ 93.793, 24.452 ], [ 93.782, 24.443 ], [ 93.786, 24.43 ], [ 93.8, 24.427 ], [ 93.804, 24.415 ], [ 93.819, 24.411 ], [ 93.829, 24.421 ], [ 93.843, 24.417 ], [ 93.854, 24.427 ], [ 93.868, 24.424 ], [ 93.872, 24.411 ], [ 93.886, 24.408 ], [ 93.897, 24.417 ], [ 93.893, 24.43 ], [ 93.903, 24.439 ], [ 93.917, 24.436 ], [ 93.928, 24.445 ], [ 93.924, 24.458 ], [ 93.934, 24.467 ], [ 93.931, 24.48 ], [ 93.941, 24.489 ], [ 93.937, 24.502 ], [ 93.948, 24.511 ], [ 93.944, 24.523 ], [ 93.954, 24.533 ], [ 93.968, 24.53 ], [ 93.972, 24.517 ], [ 93.987, 24.514 ], [ 93.997, 24.523 ], [ 94.011, 24.52 ], [ 94.022, 24.529 ], [ 94.018, 24.542 ], [ 94.004, 24.545 ], [ 94.0, 24.558 ], [ 94.01, 24.567 ] ] ] ] } },
{ "type": "Feature", "properties": { "POLYGON.ID": 945.0, "subregion": "India--Manipur--Plains Foothills", "POLYGON": "India--Manipur--Plains Foothills", "SHOW": "1", "FILTER": "Not-Assigned", "FILTER.ID": null, "OLD.POLYGON": null, "STATE": "Manipur", "COUNTY": "spl_region", "OWNER": null }, "geometry": { "type": "MultiPolygon", "coordinates": [ [ [ [ 94.216, 25.021 ], [ 94.212, 25.034 ], [ 94.197, 25.037 ], [ 94.194, 25.05 ], [ 94.179, 25.053 ], [ 94.175, 25.065 ], [ 94.161, 25.068 ], [ 94.157, 25.081 ], [ 94.168, 25.09 ], [ 94.164, 25.103 ], [ 94.174, 25.112 ], [ 94.17, 25.124 ], [ 94.181, 25.134 ], [ 94.177, 25.146 ], [ 94.163, 25.149 ], [ 94.152, 25.14 ], [ 94.138, 25.143 ], [ 94.127, 25.134 ], [ 94.113, 25.137 ], [ 94.109, 25.15 ], [ 94.095, 25.153 ], [ 94.091, 25.165 ], [ 94.077, 25.169 ], [ 94.066, 25.159 ], [ 94.052, 25.163 ], [ 94.048, 25.175 ], [ 94.034, 25.178 ], [ 94.03, 25.191 ], [ 94.015, 25.194 ], [ 94.005, 25.185 ], [ 93.991, 25.188 ], [ 93.98, 25.178 ], [ 93.966, 25.182 ], [ 93.962, 25.194 ], [ 93.948, 25.197 ], [ 93.937, 25.188 ], [ 93.941, 25.176 ], [ 93.931, 25.166 ], [ 93.934, 25.154 ], [ 93.924, 25.144 ], [ 93.928, 25.132 ], [ 93.917, 25.123 ], [ 93.903, 25.126 ], [ 93.893, 25.117 ], [ 93.897, 25.104 ], [ 93.886, 25.095 ], [ 93.89, 25.082 ], [ 93.88, 25.073 ], [ 93.883, 25.061 ], [ 93.873, 25.051 ], [ 93.877, 25.039 ], [ 93.867, 25.03 ], [ 93.87, 25.017 ], [ 93.86, 25.008 ], [ 93.846, 25.011 ], [ 93.835, 25.002 ], [ 93.821, 25.005 ], [ 93.81, 24.996 ], [ 93.814, 24.983 ], [ 93.804, 24.974 ], [ 93.808, 24.961 ], [ 93.797, 24.952 ], [ 93.801, 24.939 ], [ 93.791, 24.93 ], [ 93.795, 24.918 ], [ 93.784, 24.908 ], [ 93.788, 24.896 ], [ 93.778, 24.887 ], [ 93.763, 24.89 ], [ 93.753, 24.88 ], [ 93.757, 24.868 ], [ 93.746, 24.859 ], [ 93.732, 24.862 ], [ 93.722, 24.852 ], [ 93.726, 24.84 ], [ 93.715, 24.831 ], [ 93.701, 24.834 ], [ 93.69, 24.824 ], [ 93.676, 24.828 ], [ 93.666, 24.818 ], [ 93.67, 24.806 ], [ 93.659, 24.797 ], [ 93.645, 24.8 ], [ 93.634, 24.79 ], [ 93.62, 24.794 ], [ 93.61, 24.784 ], [ 93.614, 24.772 ], [ 93.603, 24.762 ], [ 93.607, 24.75 ], [ 93.597, 24.741 ], [ 93.601, 24.728 ], [ 93.59, 24.719 ], [ 93.594, 24.706 ], [ 93.584, 24.697 ], [ 93.588, 24.684 ], [ 93.577, 24.675 ], [ 93.581, 24.662 ], [ 93.595, 24.659 ], [ 93.599, 24.647 ], [ 93.614, 24.644 ], [ 93.617, 24.631 ], [ 93.632, 24.628 ], [ 93.636, 24.615 ], [ 93.65, 24.612 ], [ 93.654, 24.6 ], [ 93.643, 24.59 ], [ 93.647, 24.578 ], [ 93.637, 24.569 ], [ 93.641, 24.556 ], [ 93.63, 24.547 ], [ 93.634, 24.534 ], [ 93.649, 24.531 ], [ 93.652, 24.518 ], [ 93.642, 24.509 ], [ 93.646, 24.497 ], [ 93.66, 24.493 ], [ 93.664, 24.481 ], [ 93.654, 24.471 ], [ 93.658, 24.459 ], [ 93.647, 24.45 ], [ 93.651, 24.437 ], [ 93.641, 24.428 ], [ 93.645, 24.415 ], [ 93.634, 24.406 ], [ 93.638, 24.393 ], [ 93.652, 24.39 ], [ 93.656, 24.378 ], [ 93.646, 24.368 ], [ 93.65, 24.356 ], [ 93.664, 24.352 ], [ 93.674, 24.362 ], [ 93.689, 24.359 ], [ 93.699, 24.368 ], [ 93.713, 24.365 ], [ 93.717, 24.352 ], [ 93.732, 24.349 ], [ 93.735, 24.336 ], [ 93.725, 24.327 ], [ 93.729, 24.315 ], [ 93.718, 24.305 ], [ 93.722, 24.293 ], [ 93.737, 24.289 ], [ 93.747, 24.299 ], [ 93.761, 24.296 ], [ 93.765, 24.283 ], [ 93.779, 24.28 ], [ 93.783, 24.267 ], [ 93.798, 24.264 ], [ 93.802, 24.252 ], [ 93.816, 24.248 ], [ 93.82, 24.236 ], [ 93.809, 24.226 ], [ 93.813, 24.214 ], [ 93.803, 24.204 ], [ 93.807, 24.192 ], [ 93.821, 24.189 ], [ 93.825, 24.176 ], [ 93.814, 24.167 ], [ 93.818, 24.154 ], [ 93.833, 24.151 ], [ 93.836, 24.138 ], [ 93.851, 24.135 ], [ 93.861, 24.145 ], [ 93.857, 24.157 ], [ 93.868, 24.167 ], [ 93.882, 24.163 ], [ 93.892, 24.173 ], [ 93.907, 24.169 ], [ 93.917, 24.179 ], [ 93.913, 24.191 ], [ 93.924, 24.201 ], [ 93.92, 24.213 ], [ 93.93, 24.223 ], [ 93.926, 24.235 ], [ 93.937, 24.245 ], [ 93.933, 24.257 ], [ 93.943, 24.267 ], [ 93.957, 24.263 ], [ 93.968, 24.273 ], [ 93.964, 24.285 ], [ 93.974, 24.295 ], [ 93.989, 24.291 ], [ 93.999, 24.301 ], [ 93.995, 24.313 ], [ 94.006, 24.323 ], [ 94.02, 24.319 ], [ 94.03, 24.329 ], [ 94.026, 24.341 ], [ 94.037, 24.351 ], [ 94.033, 24.363 ], [ 94.019, 24.366 ], [ 94.015, 24.379 ], [ 94.025, 24.388 ], [ 94.04, 24.385 ], [ 94.05, 24.394 ], [ 94.046, 24.407 ], [ 94.057, 24.416 ], [ 94.053, 24.429 ], [ 94.063, 24.438 ], [ 94.077, 24.435 ], [ 94.088, 24.444 ], [ 94.102, 24.441 ], [ 94.113, 24.45 ], [ 94.127, 24.447 ], [ 94.137, 24.457 ], [ 94.133, 24.469 ], [ 94.144, 24.478 ], [ 94.14, 24.491 ], [ 94.15, 24.5 ], [ 94.146, 24.513 ], [ 94.157, 24.522 ], [ 94.153, 24.535 ], [ 94.163, 24.544 ], [ 94.16, 24.557 ], [ 94.145, 24.56 ], [ 94.141, 24.572 ], [ 94.152, 24.582 ], [ 94.148, 24.594 ], [ 94.158, 24.604 ], [ 94.155, 24.616 ], [ 94.165, 24.625 ], [ 94.161, 24.638 ], [ 94.172, 24.647 ], [ 94.168, 24.66 ], [ 94.178, 24.669 ], [ 94.174, 24.682 ], [ 94.185, 24.691 ], [ 94.181, 24.703 ], [ 94.191, 24.713 ], [ 94.187, 24.725 ], [ 94.198, 24.735 ], [ 94.194, 24.747 ], [ 94.18, 24.75 ], [ 94.176, 24.763 ], [ 94.186, 24.772 ], [ 94.182, 24.785 ], [ 94.193, 24.794 ], [ 94.189, 24.806 ], [ 94.199, 24.816 ], [ 94.195, 24.828 ], [ 94.181, 24.831 ], [ 94.177, 24.844 ], [ 94.163, 24.847 ], [ 94.159, 24.86 ], [ 94.17, 24.869 ], [ 94.166, 24.881 ], [ 94.176, 24.891 ], [ 94.19, 24.888 ], [ 94.201, 24.897 ], [ 94.215, 24.894 ], [ 94.226, 24.903 ], [ 94.222, 24.915 ], [ 94.232, 24.925 ], [ 94.228, 24.937 ], [ 94.239, 24.946 ], [ 94.235, 24.959 ], [ 94.245, 24.968 ], [ 94.242, 24.981 ], [ 94.252, 24.99 ], [ 94.248, 25.002 ], [ 94.234, 25.006 ], [ 94.23, 25.018 ], [ 94.216, 25.021 ] ], [ [ 94.084, 24.585 ], [ 94.099, 24.582 ], [ 94.102, 24.569 ], [ 94.092, 24.56 ], [ 94.078, 24.563 ], [ 94.067, 24.554 ], [ 94.071, 24.541 ], [ 94.061, 24.532 ], [ 94.046, 24.535 ], [ 94.036, 24.526 ], [ 94.04, 24.514 ], [ 94.029, 24.504 ], [ 94.033, 24.492 ], [ 94.023, 24.482 ], [ 94.027, 24.47 ], [ 94.016, 24.46 ], [ 94.002, 24.464 ], [ 93.998, 24.476 ], [ 93.984, 24.479 ], [ 93.98, 24.492 ], [ 93.966, 24.495 ], [ 93.955, 24.486 ], [ 93.959, 24.473 ], [ 93.949, 24.464 ], [ 93.953, 24.451 ], [ 93.942, 24.442 ], [ 93.946, 24.429 ], [ 93.936, 24.42 ], [ 93.921, 24.423 ], [ 93.911, 24.414 ], [ 93.915, 24.401 ], [ 93.904, 24.392 ], [ 93.908, 24.38 ], [ 93.898, 24.37 ], [ 93.902, 24.358 ], [ 93.891, 24.348 ], [ 93.877, 24.352 ], [ 93.867, 24.342 ], [ 93.852, 24.345 ], [ 93.848, 24.358 ], [ 93.834, 24.361 ], [ 93.83, 24.374 ], [ 93.816, 24.377 ], [ 93.812, 24.389 ], [ 93.798, 24.393 ], [ 93.794, 24.405 ], [ 93.78, 24.408 ], [ 93.769, 24.399 ], [ 93.755, 24.402 ], [ 93.751, 24.415 ], [ 93.737, 24.418 ], [ 93.733, 24.43 ], [ 93.719, 24.434 ], [ 93.715, 24.446 ], [ 93.725, 24.456 ], [ 93.721, 24.468 ], [ 93.732, 24.477 ], [ 93.728, 24.49 ], [ 93.738, 24.499 ], [ 93.734, 24.512 ], [ 93.72, 24.515 ], [ 93.716, 24.528 ], [ 93.727, 24.537 ], [ 93.723, 24.549 ], [ 93.733, 24.559 ], [ 93.729, 24.571 ], [ 93.74, 24.581 ], [ 93.736, 24.593 ], [ 93.746, 24.603 ], [ 93.742, 24.615 ], [ 93.753, 24.624 ], [ 93.749, 24.637 ], [ 93.759, 24.646 ], [ 93.755, 24.659 ], [ 93.766, 24.668 ], [ 93.762, 24.681 ], [ 93.772, 24.69 ], [ 93.768, 24.702 ], [ 93.779, 24.712 ], [ 93.775, 24.724 ], [ 93.785, 24.734 ], [ 93.781, 24.746 ], [ 93.792, 24.755 ], [ 93.806, 24.752 ], [ 93.817, 24.762 ], [ 93.813, 24.774 ], [ 93.798, 24.777 ], [ 93.795, 24.79 ], [ 93.805, 24.799 ], [ 93.801, 24.812 ], [ 93.811, 24.821 ], [ 93.808, 24.833 ], [ 93.818, 24.843 ], [ 93.814, 24.855 ], [ 93.825, 24.865 ], [ 93.821, 24.877 ], [ 93.831, 24.886 ], [ 93.827, 24.899 ], [ 93.838, 24.908 ], [ 93.834, 24.921 ], [ 93.844, 24.93 ], [ 93.84, 24.942 ], [ 93.851, 24.952 ], [ 93.865, 24.949 ], [ 93.869, 24.936 ], [ 93.883, 24.933 ], [ 93.887, 24.92 ], [ 93.901, 24.917 ], [ 93.905, 24.905 ], [ 93.92, 24.902 ], [ 93.924, 24.889 ], [ 93.938, 24.886 ], [ 93.942, 24.873 ], [ 93.956, 24.87 ], [ 93.96, 24.858 ], [ 93.974, 24.854 ], [ 93.985, 24.864 ], [ 93.981, 24.876 ], [ 93.991, 24.886 ], [ 94.006, 24.882 ], [ 94.016, 24.892 ], [ 94.03, 24.888 ], [ 94.041, 24.898 ], [ 94.055, 24.895 ], [ 94.059, 24.882 ], [ 94.048, 24.873 ], [ 94.034, 24.876 ], [ 94.024, 24.867 ], [ 94.009, 24.87 ], [ 93.999, 24.861 ], [ 94.003, 24.848 ], [ 93.992, 24.839 ], [ 93.996, 24.826 ], [ 93.986, 24.817 ], [ 93.99, 24.804 ], [ 93.979, 24.795 ], [ 93.983, 24.783 ], [ 93.973, 24.773 ], [ 93.977, 24.761 ], [ 93.966, 24.752 ], [ 93.97, 24.739 ], [ 93.984, 24.736 ], [ 93.988, 24.723 ], [ 94.003, 24.72 ], [ 94.006, 24.708 ], [ 94.021, 24.704 ], [ 94.031, 24.714 ], [ 94.046, 24.71 ], [ 94.049, 24.698 ], [ 94.064, 24.695 ], [ 94.074, 24.704 ], [ 94.088, 24.701 ], [ 94.099, 24.71 ], [ 94.113, 24.707 ], [ 94.117, 24.694 ], [ 94.107, 24.685 ], [ 94.11, 24.673 ], [ 94.1, 24.663 ], [ 94.104, 24.651 ], [ 94.093, 24.641 ], [ 94.097, 24.629 ], [ 94.087, 24.62 ], [ 94.091, 24.607 ], [ 94.08, 24.598 ], [ 94.084, 24.585 ] ] ] ] } }
]
}
