{
"type": "FeatureCollection",
"name": "Meghalaya",
"crs": { "type": "name", "properties": { "name": "urn:ogc:def:crs:OGC:1.3:CRS84" } },
"features": [
{ "type": "Feature", "properties": { "POLYGON.ID": 199.0, "subregion": "India--Meghalaya--Lowland Garo Hills_CL32173", "FILTER": "Meghalaya", "POLYGON": "India--Meghalaya--Lowland Garo Hills_CL32173", "STATE": "Meghalaya", "COUNTY": "spl_region", "OWNER": null }, "geometry": { "type": "MultiPolygon", "coordinates": [ [ [ [ 90.52, 25.971 ], [ 90.505, 25.973 ], [ 90.501, 25.986 ], [ 90.487, 25.988 ], [ 90.483, 26.001 ], [ 90.469, 26.003 ], [ 90.458, 25.994 ], [ 90.444, 25.997 ], [ 90.434, 25.987 ], [ 90.438, 25.975 ], [ 90.427, 25.966 ], [ 90.432, 25.954 ], [ 90.421, 25.944 ], [ 90.425, 25.932 ], [ 90.415, 25.922 ], [ 90.419, 25.91 ], [ 90.409, 25.901 ], [ 90.394, 25.904 ], [ 90.384, 25.894 ], [ 90.388, 25.882 ], [ 90.378, 25.872 ], [ 90.382, 25.86 ], [ 90.372, 25.851 ], [ 90.376, 25.839 ], [ 90.365, 25.829 ], [ 90.351, 25.832 ], [ 90.341, 25.822 ], [ 90.345, 25.81 ], [ 90.359, 25.807 ], [ 90.363, 25.795 ], [ 90.377, 25.792 ], [ 90.388, 25.802 ], [ 90.402, 25.799 ], [ 90.406, 25.787 ], [ 90.396, 25.777 ], [ 90.4, 25.765 ], [ 90.414, 25.762 ], [ 90.418, 25.75 ], [ 90.432, 25.747 ], [ 90.436, 25.735 ], [ 90.451, 25.732 ], [ 90.455, 25.72 ], [ 90.469, 25.717 ], [ 90.479, 25.727 ], [ 90.493, 25.724 ], [ 90.504, 25.733 ], [ 90.518, 25.73 ], [ 90.528, 25.74 ], [ 90.524, 25.752 ], [ 90.535, 25.762 ], [ 90.531, 25.774 ], [ 90.541, 25.783 ], [ 90.555, 25.78 ], [ 90.559, 25.768 ], [ 90.573, 25.765 ], [ 90.577, 25.753 ], [ 90.592, 25.75 ], [ 90.596, 25.738 ], [ 90.61, 25.735 ], [ 90.62, 25.745 ], [ 90.635, 25.742 ], [ 90.645, 25.751 ], [ 90.641, 25.764 ], [ 90.651, 25.773 ], [ 90.665, 25.77 ], [ 90.676, 25.78 ], [ 90.69, 25.777 ], [ 90.7, 25.786 ], [ 90.715, 25.783 ], [ 90.725, 25.793 ], [ 90.739, 25.79 ], [ 90.749, 25.799 ], [ 90.764, 25.797 ], [ 90.774, 25.806 ], [ 90.788, 25.803 ], [ 90.799, 25.813 ], [ 90.813, 25.81 ], [ 90.823, 25.819 ], [ 90.838, 25.816 ], [ 90.842, 25.804 ], [ 90.856, 25.801 ], [ 90.86, 25.789 ], [ 90.874, 25.786 ], [ 90.878, 25.774 ], [ 90.892, 25.771 ], [ 90.896, 25.759 ], [ 90.911, 25.756 ], [ 90.915, 25.744 ], [ 90.929, 25.741 ], [ 90.939, 25.75 ], [ 90.935, 25.762 ], [ 90.946, 25.772 ], [ 90.96, 25.769 ], [ 90.97, 25.778 ], [ 90.966, 25.791 ], [ 90.977, 25.8 ], [ 90.991, 25.797 ], [ 91.001, 25.807 ], [ 90.997, 25.819 ], [ 91.007, 25.828 ], [ 91.003, 25.841 ], [ 91.014, 25.85 ], [ 91.01, 25.862 ], [ 91.02, 25.872 ], [ 91.016, 25.884 ], [ 91.002, 25.887 ], [ 90.991, 25.877 ], [ 90.977, 25.88 ], [ 90.973, 25.892 ], [ 90.959, 25.895 ], [ 90.955, 25.908 ], [ 90.965, 25.917 ], [ 90.961, 25.929 ], [ 90.947, 25.932 ], [ 90.943, 25.944 ], [ 90.929, 25.947 ], [ 90.918, 25.938 ], [ 90.904, 25.941 ], [ 90.894, 25.931 ], [ 90.879, 25.934 ], [ 90.875, 25.946 ], [ 90.861, 25.949 ], [ 90.851, 25.94 ], [ 90.836, 25.943 ], [ 90.832, 25.955 ], [ 90.818, 25.958 ], [ 90.808, 25.948 ], [ 90.793, 25.951 ], [ 90.783, 25.942 ], [ 90.787, 25.929 ], [ 90.777, 25.92 ], [ 90.781, 25.908 ], [ 90.771, 25.898 ], [ 90.756, 25.901 ], [ 90.752, 25.913 ], [ 90.763, 25.923 ], [ 90.759, 25.935 ], [ 90.744, 25.938 ], [ 90.74, 25.95 ], [ 90.726, 25.953 ], [ 90.716, 25.944 ], [ 90.701, 25.946 ], [ 90.691, 25.937 ], [ 90.677, 25.94 ], [ 90.666, 25.93 ], [ 90.652, 25.933 ], [ 90.642, 25.924 ], [ 90.628, 25.927 ], [ 90.624, 25.939 ], [ 90.609, 25.942 ], [ 90.605, 25.954 ], [ 90.591, 25.957 ], [ 90.581, 25.947 ], [ 90.585, 25.935 ], [ 90.574, 25.926 ], [ 90.56, 25.928 ], [ 90.55, 25.919 ], [ 90.536, 25.922 ], [ 90.532, 25.934 ], [ 90.542, 25.943 ], [ 90.538, 25.956 ], [ 90.524, 25.958 ], [ 90.52, 25.971 ] ] ], [ [ [ 89.996, 25.328 ], [ 90.006, 25.337 ], [ 90.02, 25.334 ], [ 90.03, 25.344 ], [ 90.045, 25.341 ], [ 90.055, 25.351 ], [ 90.069, 25.348 ], [ 90.079, 25.357 ], [ 90.094, 25.355 ], [ 90.104, 25.364 ], [ 90.118, 25.361 ], [ 90.128, 25.371 ], [ 90.143, 25.368 ], [ 90.153, 25.377 ], [ 90.149, 25.39 ], [ 90.159, 25.399 ], [ 90.155, 25.411 ], [ 90.165, 25.421 ], [ 90.161, 25.433 ], [ 90.171, 25.443 ], [ 90.167, 25.455 ], [ 90.178, 25.464 ], [ 90.174, 25.477 ], [ 90.159, 25.48 ], [ 90.155, 25.492 ], [ 90.166, 25.501 ], [ 90.162, 25.514 ], [ 90.172, 25.523 ], [ 90.168, 25.535 ], [ 90.154, 25.538 ], [ 90.15, 25.55 ], [ 90.135, 25.553 ], [ 90.131, 25.565 ], [ 90.117, 25.568 ], [ 90.113, 25.58 ], [ 90.099, 25.583 ], [ 90.095, 25.595 ], [ 90.08, 25.598 ], [ 90.07, 25.589 ], [ 90.056, 25.591 ], [ 90.052, 25.604 ], [ 90.038, 25.606 ], [ 90.027, 25.597 ], [ 90.013, 25.6 ], [ 90.003, 25.59 ], [ 89.989, 25.593 ], [ 89.978, 25.584 ], [ 89.964, 25.586 ], [ 89.96, 25.599 ], [ 89.946, 25.601 ], [ 89.936, 25.592 ], [ 89.921, 25.595 ], [ 89.911, 25.585 ], [ 89.897, 25.588 ], [ 89.887, 25.578 ], [ 89.891, 25.566 ], [ 89.881, 25.557 ], [ 89.885, 25.544 ], [ 89.874, 25.535 ], [ 89.878, 25.523 ], [ 89.868, 25.513 ], [ 89.872, 25.501 ], [ 89.862, 25.491 ], [ 89.866, 25.479 ], [ 89.856, 25.47 ], [ 89.842, 25.472 ], [ 89.831, 25.463 ], [ 89.835, 25.451 ], [ 89.825, 25.441 ], [ 89.829, 25.429 ], [ 89.819, 25.419 ], [ 89.823, 25.407 ], [ 89.813, 25.398 ], [ 89.798, 25.4 ], [ 89.788, 25.391 ], [ 89.792, 25.379 ], [ 89.807, 25.376 ], [ 89.811, 25.364 ], [ 89.8, 25.354 ], [ 89.804, 25.342 ], [ 89.819, 25.339 ], [ 89.823, 25.327 ], [ 89.837, 25.324 ], [ 89.847, 25.334 ], [ 89.861, 25.331 ], [ 89.865, 25.319 ], [ 89.88, 25.316 ], [ 89.884, 25.304 ], [ 89.898, 25.301 ], [ 89.908, 25.31 ], [ 89.922, 25.307 ], [ 89.933, 25.317 ], [ 89.947, 25.314 ], [ 89.951, 25.302 ], [ 89.965, 25.299 ], [ 89.975, 25.309 ], [ 89.989, 25.306 ], [ 90.0, 25.315 ], [ 89.996, 25.328 ] ] ] ] } },
{ "type": "Feature", "properties": { "POLYGON.ID": 200.0, "subregion": "India--Meghalaya--Middle Garo Hills_CL32174", "FILTER": "Meghalaya", "POLYGON": "India--Meghalaya--Middle Garo Hills_CL32174", "STATE": "Meghalaya", "COUNTY": "spl_region", "OWNER": null }, "geometry": { "type": "MultiPolygon", "coordinates": [ [ [ [ 90.155, 25.411 ], [ 90.159, 25.399 ], [ 90.149, 25.39 ], [ 90.153, 25.377 ], [ 90.143, 25.368 ], [ 90.128, 25.371 ], [ 90.118, 25.361 ], [ 90.104, 25.364 ], [ 90.094, 25.355 ], [ 90.079, 25.357 ], [ 90.069, 25.348 ], [ 90.055, 25.351 ], [ 90.045, 25.341 ], [ 90.03, 25.344 ], [ 90.02, 25.334 ], [ 90.006, 25.337 ], [ 89.996, 25.328 ], [ 90.0, 25.315 ], [ 89.989, 25.306 ], [ 89.994, 25.294 ], [ 90.008, 25.291 ], [ 90.012, 25.279 ], [ 90.026, 25.276 ], [ 90.036, 25.285 ], [ 90.05, 25.282 ], [ 90.054, 25.27 ], [ 90.069, 25.267 ], [ 90.073, 25.255 ], [ 90.087, 25.252 ], [ 90.091, 25.24 ], [ 90.105, 25.237 ], [ 90.109, 25.225 ], [ 90.124, 25.222 ], [ 90.134, 25.232 ], [ 90.148, 25.229 ], [ 90.158, 25.238 ], [ 90.172, 25.236 ], [ 90.183, 25.245 ], [ 90.197, 25.242 ], [ 90.201, 25.23 ], [ 90.215, 25.227 ], [ 90.225, 25.237 ], [ 90.24, 25.234 ], [ 90.25, 25.243 ], [ 90.246, 25.256 ], [ 90.256, 25.265 ], [ 90.252, 25.277 ], [ 90.262, 25.287 ], [ 90.258, 25.299 ], [ 90.269, 25.309 ], [ 90.265, 25.321 ], [ 90.275, 25.33 ], [ 90.271, 25.343 ], [ 90.281, 25.352 ], [ 90.295, 25.349 ], [ 90.306, 25.359 ], [ 90.302, 25.371 ], [ 90.312, 25.381 ], [ 90.308, 25.393 ], [ 90.318, 25.402 ], [ 90.314, 25.415 ], [ 90.3, 25.418 ], [ 90.296, 25.43 ], [ 90.306, 25.439 ], [ 90.302, 25.452 ], [ 90.288, 25.454 ], [ 90.284, 25.467 ], [ 90.269, 25.469 ], [ 90.259, 25.46 ], [ 90.245, 25.463 ], [ 90.241, 25.475 ], [ 90.227, 25.478 ], [ 90.223, 25.49 ], [ 90.208, 25.493 ], [ 90.204, 25.505 ], [ 90.215, 25.515 ], [ 90.211, 25.527 ], [ 90.221, 25.536 ], [ 90.235, 25.534 ], [ 90.245, 25.543 ], [ 90.26, 25.54 ], [ 90.264, 25.528 ], [ 90.278, 25.525 ], [ 90.288, 25.535 ], [ 90.302, 25.532 ], [ 90.306, 25.52 ], [ 90.321, 25.517 ], [ 90.331, 25.526 ], [ 90.327, 25.539 ], [ 90.337, 25.548 ], [ 90.352, 25.545 ], [ 90.362, 25.555 ], [ 90.376, 25.552 ], [ 90.38, 25.54 ], [ 90.37, 25.53 ], [ 90.374, 25.518 ], [ 90.388, 25.515 ], [ 90.392, 25.503 ], [ 90.406, 25.5 ], [ 90.41, 25.488 ], [ 90.425, 25.485 ], [ 90.435, 25.494 ], [ 90.449, 25.492 ], [ 90.459, 25.501 ], [ 90.474, 25.498 ], [ 90.484, 25.508 ], [ 90.498, 25.505 ], [ 90.508, 25.514 ], [ 90.523, 25.511 ], [ 90.527, 25.499 ], [ 90.516, 25.49 ], [ 90.52, 25.477 ], [ 90.535, 25.475 ], [ 90.545, 25.484 ], [ 90.559, 25.481 ], [ 90.563, 25.469 ], [ 90.578, 25.466 ], [ 90.582, 25.454 ], [ 90.596, 25.451 ], [ 90.606, 25.46 ], [ 90.62, 25.458 ], [ 90.624, 25.445 ], [ 90.639, 25.442 ], [ 90.649, 25.452 ], [ 90.663, 25.449 ], [ 90.673, 25.459 ], [ 90.669, 25.471 ], [ 90.68, 25.48 ], [ 90.676, 25.493 ], [ 90.686, 25.502 ], [ 90.7, 25.499 ], [ 90.711, 25.509 ], [ 90.707, 25.521 ], [ 90.717, 25.53 ], [ 90.731, 25.528 ], [ 90.741, 25.537 ], [ 90.737, 25.549 ], [ 90.748, 25.559 ], [ 90.762, 25.556 ], [ 90.772, 25.565 ], [ 90.768, 25.578 ], [ 90.779, 25.587 ], [ 90.793, 25.584 ], [ 90.797, 25.572 ], [ 90.811, 25.569 ], [ 90.821, 25.579 ], [ 90.817, 25.591 ], [ 90.828, 25.6 ], [ 90.842, 25.597 ], [ 90.852, 25.607 ], [ 90.867, 25.604 ], [ 90.877, 25.613 ], [ 90.873, 25.626 ], [ 90.883, 25.635 ], [ 90.897, 25.632 ], [ 90.908, 25.642 ], [ 90.904, 25.654 ], [ 90.914, 25.663 ], [ 90.928, 25.661 ], [ 90.939, 25.67 ], [ 90.935, 25.682 ], [ 90.945, 25.692 ], [ 90.941, 25.704 ], [ 90.951, 25.713 ], [ 90.966, 25.711 ], [ 90.976, 25.72 ], [ 90.972, 25.732 ], [ 90.982, 25.742 ], [ 90.978, 25.754 ], [ 90.964, 25.757 ], [ 90.954, 25.747 ], [ 90.939, 25.75 ], [ 90.929, 25.741 ], [ 90.915, 25.744 ], [ 90.911, 25.756 ], [ 90.896, 25.759 ], [ 90.892, 25.771 ], [ 90.878, 25.774 ], [ 90.874, 25.786 ], [ 90.86, 25.789 ], [ 90.856, 25.801 ], [ 90.842, 25.804 ], [ 90.838, 25.816 ], [ 90.823, 25.819 ], [ 90.813, 25.81 ], [ 90.799, 25.813 ], [ 90.788, 25.803 ], [ 90.774, 25.806 ], [ 90.764, 25.797 ], [ 90.749, 25.799 ], [ 90.739, 25.79 ], [ 90.725, 25.793 ], [ 90.715, 25.783 ], [ 90.7, 25.786 ], [ 90.69, 25.777 ], [ 90.676, 25.78 ], [ 90.665, 25.77 ], [ 90.651, 25.773 ], [ 90.641, 25.764 ], [ 90.645, 25.751 ], [ 90.635, 25.742 ], [ 90.62, 25.745 ], [ 90.61, 25.735 ], [ 90.596, 25.738 ], [ 90.592, 25.75 ], [ 90.577, 25.753 ], [ 90.573, 25.765 ], [ 90.559, 25.768 ], [ 90.555, 25.78 ], [ 90.541, 25.783 ], [ 90.531, 25.774 ], [ 90.535, 25.762 ], [ 90.524, 25.752 ], [ 90.528, 25.74 ], [ 90.518, 25.73 ], [ 90.504, 25.733 ], [ 90.493, 25.724 ], [ 90.479, 25.727 ], [ 90.469, 25.717 ], [ 90.455, 25.72 ], [ 90.451, 25.732 ], [ 90.436, 25.735 ], [ 90.432, 25.747 ], [ 90.418, 25.75 ], [ 90.414, 25.762 ], [ 90.4, 25.765 ], [ 90.396, 25.777 ], [ 90.406, 25.787 ], [ 90.402, 25.799 ], [ 90.388, 25.802 ], [ 90.377, 25.792 ], [ 90.363, 25.795 ], [ 90.359, 25.807 ], [ 90.345, 25.81 ], [ 90.341, 25.822 ], [ 90.351, 25.832 ], [ 90.365, 25.829 ], [ 90.376, 25.839 ], [ 90.372, 25.851 ], [ 90.382, 25.86 ], [ 90.378, 25.872 ], [ 90.388, 25.882 ], [ 90.384, 25.894 ], [ 90.394, 25.904 ], [ 90.409, 25.901 ], [ 90.419, 25.91 ], [ 90.415, 25.922 ], [ 90.425, 25.932 ], [ 90.421, 25.944 ], [ 90.432, 25.954 ], [ 90.427, 25.966 ], [ 90.438, 25.975 ], [ 90.434, 25.987 ], [ 90.419, 25.99 ], [ 90.415, 26.002 ], [ 90.401, 26.005 ], [ 90.397, 26.017 ], [ 90.383, 26.02 ], [ 90.373, 26.011 ], [ 90.358, 26.014 ], [ 90.348, 26.004 ], [ 90.334, 26.007 ], [ 90.323, 25.997 ], [ 90.327, 25.985 ], [ 90.317, 25.976 ], [ 90.303, 25.979 ], [ 90.293, 25.969 ], [ 90.278, 25.972 ], [ 90.268, 25.962 ], [ 90.254, 25.965 ], [ 90.244, 25.956 ], [ 90.229, 25.959 ], [ 90.219, 25.949 ], [ 90.205, 25.952 ], [ 90.194, 25.942 ], [ 90.18, 25.945 ], [ 90.176, 25.957 ], [ 90.162, 25.96 ], [ 90.152, 25.951 ], [ 90.137, 25.954 ], [ 90.133, 25.966 ], [ 90.119, 25.968 ], [ 90.109, 25.959 ], [ 90.113, 25.947 ], [ 90.103, 25.937 ], [ 90.088, 25.94 ], [ 90.078, 25.931 ], [ 90.082, 25.918 ], [ 90.072, 25.909 ], [ 90.058, 25.912 ], [ 90.047, 25.902 ], [ 90.033, 25.905 ], [ 90.023, 25.896 ], [ 90.027, 25.883 ], [ 90.017, 25.874 ], [ 90.021, 25.862 ], [ 90.01, 25.852 ], [ 90.014, 25.84 ], [ 90.004, 25.831 ], [ 89.99, 25.833 ], [ 89.98, 25.824 ], [ 89.965, 25.827 ], [ 89.955, 25.817 ], [ 89.959, 25.805 ], [ 89.949, 25.795 ], [ 89.953, 25.783 ], [ 89.943, 25.774 ], [ 89.947, 25.762 ], [ 89.936, 25.752 ], [ 89.94, 25.74 ], [ 89.93, 25.73 ], [ 89.916, 25.733 ], [ 89.912, 25.745 ], [ 89.898, 25.748 ], [ 89.887, 25.739 ], [ 89.891, 25.726 ], [ 89.906, 25.724 ], [ 89.91, 25.711 ], [ 89.924, 25.709 ], [ 89.928, 25.696 ], [ 89.942, 25.694 ], [ 89.946, 25.681 ], [ 89.936, 25.672 ], [ 89.94, 25.66 ], [ 89.954, 25.657 ], [ 89.958, 25.645 ], [ 89.973, 25.642 ], [ 89.977, 25.63 ], [ 89.991, 25.627 ], [ 89.995, 25.615 ], [ 90.009, 25.612 ], [ 90.013, 25.6 ], [ 90.027, 25.597 ], [ 90.038, 25.606 ], [ 90.052, 25.604 ], [ 90.056, 25.591 ], [ 90.07, 25.589 ], [ 90.08, 25.598 ], [ 90.095, 25.595 ], [ 90.099, 25.583 ], [ 90.113, 25.58 ], [ 90.117, 25.568 ], [ 90.131, 25.565 ], [ 90.135, 25.553 ], [ 90.15, 25.55 ], [ 90.154, 25.538 ], [ 90.168, 25.535 ], [ 90.172, 25.523 ], [ 90.162, 25.514 ], [ 90.166, 25.501 ], [ 90.155, 25.492 ], [ 90.159, 25.48 ], [ 90.174, 25.477 ], [ 90.178, 25.464 ], [ 90.167, 25.455 ], [ 90.171, 25.443 ], [ 90.161, 25.433 ], [ 90.165, 25.421 ], [ 90.155, 25.411 ] ], [ [ 90.591, 25.67 ], [ 90.601, 25.68 ], [ 90.597, 25.692 ], [ 90.608, 25.701 ], [ 90.622, 25.698 ], [ 90.632, 25.708 ], [ 90.647, 25.705 ], [ 90.651, 25.693 ], [ 90.665, 25.69 ], [ 90.669, 25.678 ], [ 90.659, 25.668 ], [ 90.663, 25.656 ], [ 90.677, 25.653 ], [ 90.681, 25.641 ], [ 90.671, 25.631 ], [ 90.675, 25.619 ], [ 90.664, 25.61 ], [ 90.65, 25.613 ], [ 90.646, 25.625 ], [ 90.632, 25.628 ], [ 90.628, 25.64 ], [ 90.613, 25.643 ], [ 90.609, 25.655 ], [ 90.595, 25.658 ], [ 90.591, 25.67 ] ] ] ] } },
{ "type": "Feature", "properties": { "POLYGON.ID": 201.0, "subregion": "India--Meghalaya--South Garo Hills_CL32175", "FILTER": "Meghalaya", "POLYGON": "India--Meghalaya--South Garo Hills_CL32175", "STATE": "Meghalaya", "COUNTY": "South Garo Hills", "OWNER": null }, "geometry": { "type": "MultiPolygon", "coordinates": [ [ [ [ 90.752, 25.259 ], [ 90.748, 25.271 ], [ 90.733, 25.274 ], [ 90.723, 25.264 ], [ 90.709, 25.267 ], [ 90.705, 25.28 ], [ 90.691, 25.283 ], [ 90.687, 25.295 ], [ 90.672, 25.298 ], [ 90.668, 25.31 ], [ 90.679, 25.319 ], [ 90.675, 25.332 ], [ 90.685, 25.341 ], [ 90.699, 25.338 ], [ 90.709, 25.348 ], [ 90.705, 25.36 ], [ 90.716, 25.37 ], [ 90.73, 25.367 ], [ 90.74, 25.376 ], [ 90.755, 25.373 ], [ 90.765, 25.383 ], [ 90.761, 25.395 ], [ 90.771, 25.405 ], [ 90.767, 25.417 ], [ 90.753, 25.42 ], [ 90.749, 25.432 ], [ 90.759, 25.442 ], [ 90.755, 25.454 ], [ 90.765, 25.463 ], [ 90.78, 25.46 ], [ 90.79, 25.47 ], [ 90.786, 25.482 ], [ 90.796, 25.492 ], [ 90.792, 25.504 ], [ 90.778, 25.507 ], [ 90.774, 25.519 ], [ 90.784, 25.528 ], [ 90.78, 25.541 ], [ 90.766, 25.544 ], [ 90.762, 25.556 ], [ 90.748, 25.559 ], [ 90.737, 25.549 ], [ 90.741, 25.537 ], [ 90.731, 25.528 ], [ 90.717, 25.53 ], [ 90.707, 25.521 ], [ 90.711, 25.509 ], [ 90.7, 25.499 ], [ 90.686, 25.502 ], [ 90.676, 25.493 ], [ 90.68, 25.48 ], [ 90.669, 25.471 ], [ 90.673, 25.459 ], [ 90.663, 25.449 ], [ 90.667, 25.437 ], [ 90.681, 25.434 ], [ 90.685, 25.422 ], [ 90.675, 25.412 ], [ 90.679, 25.4 ], [ 90.669, 25.39 ], [ 90.673, 25.378 ], [ 90.663, 25.369 ], [ 90.648, 25.372 ], [ 90.644, 25.384 ], [ 90.63, 25.387 ], [ 90.62, 25.377 ], [ 90.606, 25.38 ], [ 90.602, 25.392 ], [ 90.587, 25.395 ], [ 90.577, 25.386 ], [ 90.563, 25.389 ], [ 90.559, 25.401 ], [ 90.545, 25.404 ], [ 90.534, 25.394 ], [ 90.52, 25.397 ], [ 90.516, 25.409 ], [ 90.502, 25.412 ], [ 90.491, 25.403 ], [ 90.477, 25.406 ], [ 90.473, 25.418 ], [ 90.459, 25.421 ], [ 90.455, 25.433 ], [ 90.441, 25.436 ], [ 90.43, 25.426 ], [ 90.416, 25.429 ], [ 90.406, 25.42 ], [ 90.392, 25.422 ], [ 90.388, 25.435 ], [ 90.373, 25.438 ], [ 90.363, 25.428 ], [ 90.349, 25.431 ], [ 90.345, 25.443 ], [ 90.331, 25.446 ], [ 90.32, 25.436 ], [ 90.306, 25.439 ], [ 90.296, 25.43 ], [ 90.3, 25.418 ], [ 90.314, 25.415 ], [ 90.318, 25.402 ], [ 90.308, 25.393 ], [ 90.312, 25.381 ], [ 90.302, 25.371 ], [ 90.306, 25.359 ], [ 90.295, 25.349 ], [ 90.281, 25.352 ], [ 90.271, 25.343 ], [ 90.275, 25.33 ], [ 90.265, 25.321 ], [ 90.269, 25.309 ], [ 90.258, 25.299 ], [ 90.262, 25.287 ], [ 90.252, 25.277 ], [ 90.256, 25.265 ], [ 90.246, 25.256 ], [ 90.25, 25.243 ], [ 90.24, 25.234 ], [ 90.225, 25.237 ], [ 90.215, 25.227 ], [ 90.219, 25.215 ], [ 90.233, 25.212 ], [ 90.244, 25.222 ], [ 90.258, 25.219 ], [ 90.262, 25.206 ], [ 90.276, 25.204 ], [ 90.286, 25.213 ], [ 90.301, 25.21 ], [ 90.305, 25.198 ], [ 90.319, 25.195 ], [ 90.329, 25.205 ], [ 90.343, 25.202 ], [ 90.347, 25.189 ], [ 90.362, 25.187 ], [ 90.366, 25.174 ], [ 90.38, 25.172 ], [ 90.39, 25.181 ], [ 90.404, 25.178 ], [ 90.415, 25.188 ], [ 90.429, 25.185 ], [ 90.433, 25.173 ], [ 90.447, 25.17 ], [ 90.457, 25.179 ], [ 90.472, 25.176 ], [ 90.476, 25.164 ], [ 90.49, 25.161 ], [ 90.5, 25.171 ], [ 90.514, 25.168 ], [ 90.525, 25.177 ], [ 90.539, 25.175 ], [ 90.549, 25.184 ], [ 90.563, 25.181 ], [ 90.574, 25.191 ], [ 90.588, 25.188 ], [ 90.598, 25.197 ], [ 90.613, 25.194 ], [ 90.617, 25.182 ], [ 90.631, 25.179 ], [ 90.641, 25.189 ], [ 90.655, 25.186 ], [ 90.666, 25.195 ], [ 90.68, 25.192 ], [ 90.684, 25.18 ], [ 90.698, 25.177 ], [ 90.702, 25.165 ], [ 90.716, 25.162 ], [ 90.727, 25.172 ], [ 90.741, 25.169 ], [ 90.751, 25.178 ], [ 90.765, 25.175 ], [ 90.776, 25.185 ], [ 90.79, 25.182 ], [ 90.8, 25.191 ], [ 90.814, 25.189 ], [ 90.818, 25.176 ], [ 90.833, 25.173 ], [ 90.837, 25.161 ], [ 90.851, 25.158 ], [ 90.861, 25.168 ], [ 90.876, 25.165 ], [ 90.886, 25.174 ], [ 90.9, 25.171 ], [ 90.91, 25.181 ], [ 90.925, 25.178 ], [ 90.935, 25.187 ], [ 90.931, 25.2 ], [ 90.917, 25.203 ], [ 90.906, 25.193 ], [ 90.892, 25.196 ], [ 90.882, 25.187 ], [ 90.868, 25.189 ], [ 90.857, 25.18 ], [ 90.843, 25.183 ], [ 90.839, 25.195 ], [ 90.825, 25.198 ], [ 90.821, 25.21 ], [ 90.807, 25.213 ], [ 90.803, 25.226 ], [ 90.788, 25.228 ], [ 90.784, 25.241 ], [ 90.77, 25.244 ], [ 90.766, 25.256 ], [ 90.752, 25.259 ] ] ], [ [ [ 90.978, 25.179 ], [ 90.974, 25.191 ], [ 90.959, 25.194 ], [ 90.949, 25.184 ], [ 90.953, 25.172 ], [ 90.967, 25.169 ], [ 90.978, 25.179 ] ] ] ] } },
{ "type": "Feature", "properties": { "POLYGON.ID": 202.0, "subregion": "India--Meghalaya--North Khasi Hills_CL32176", "FILTER": "Meghalaya", "POLYGON": "India--Meghalaya--North Khasi Hills_CL32176", "STATE": "Meghalaya", "COUNTY": "spl_region", "OWNER": null }, "geometry": { "type": "MultiPolygon", "coordinates": [ [ [ [ 91.502, 25.912 ], [ 91.506, 25.9 ], [ 91.495, 25.891 ], [ 91.481, 25.894 ], [ 91.471, 25.884 ], [ 91.475, 25.872 ], [ 91.464, 25.863 ], [ 91.468, 25.85 ], [ 91.458, 25.841 ], [ 91.444, 25.844 ], [ 91.44, 25.856 ], [ 91.425, 25.859 ], [ 91.415, 25.85 ], [ 91.401, 25.853 ], [ 91.391, 25.843 ], [ 91.376, 25.846 ], [ 91.366, 25.837 ], [ 91.352, 25.84 ], [ 91.341, 25.83 ], [ 91.327, 25.833 ], [ 91.317, 25.824 ], [ 91.321, 25.811 ], [ 91.31, 25.802 ], [ 91.314, 25.79 ], [ 91.304, 25.78 ], [ 91.29, 25.783 ], [ 91.279, 25.774 ], [ 91.283, 25.762 ], [ 91.273, 25.752 ], [ 91.259, 25.755 ], [ 91.248, 25.746 ], [ 91.252, 25.733 ], [ 91.242, 25.724 ], [ 91.228, 25.727 ], [ 91.217, 25.717 ], [ 91.203, 25.72 ], [ 91.199, 25.733 ], [ 91.185, 25.735 ], [ 91.181, 25.748 ], [ 91.191, 25.757 ], [ 91.187, 25.769 ], [ 91.173, 25.772 ], [ 91.169, 25.785 ], [ 91.179, 25.794 ], [ 91.175, 25.806 ], [ 91.185, 25.816 ], [ 91.181, 25.828 ], [ 91.192, 25.837 ], [ 91.188, 25.85 ], [ 91.173, 25.852 ], [ 91.163, 25.843 ], [ 91.149, 25.846 ], [ 91.139, 25.837 ], [ 91.124, 25.839 ], [ 91.114, 25.83 ], [ 91.1, 25.833 ], [ 91.089, 25.823 ], [ 91.075, 25.826 ], [ 91.071, 25.839 ], [ 91.057, 25.841 ], [ 91.046, 25.832 ], [ 91.032, 25.835 ], [ 91.022, 25.825 ], [ 91.007, 25.828 ], [ 90.997, 25.819 ], [ 91.001, 25.807 ], [ 90.991, 25.797 ], [ 90.977, 25.8 ], [ 90.966, 25.791 ], [ 90.97, 25.778 ], [ 90.96, 25.769 ], [ 90.946, 25.772 ], [ 90.935, 25.762 ], [ 90.939, 25.75 ], [ 90.954, 25.747 ], [ 90.964, 25.757 ], [ 90.978, 25.754 ], [ 90.982, 25.742 ], [ 90.972, 25.732 ], [ 90.976, 25.72 ], [ 90.966, 25.711 ], [ 90.951, 25.713 ], [ 90.941, 25.704 ], [ 90.945, 25.692 ], [ 90.935, 25.682 ], [ 90.939, 25.67 ], [ 90.928, 25.661 ], [ 90.914, 25.663 ], [ 90.904, 25.654 ], [ 90.908, 25.642 ], [ 90.897, 25.632 ], [ 90.883, 25.635 ], [ 90.873, 25.626 ], [ 90.877, 25.613 ], [ 90.867, 25.604 ], [ 90.852, 25.607 ], [ 90.842, 25.597 ], [ 90.828, 25.6 ], [ 90.817, 25.591 ], [ 90.821, 25.579 ], [ 90.811, 25.569 ], [ 90.797, 25.572 ], [ 90.793, 25.584 ], [ 90.779, 25.587 ], [ 90.768, 25.578 ], [ 90.772, 25.565 ], [ 90.762, 25.556 ], [ 90.766, 25.544 ], [ 90.78, 25.541 ], [ 90.784, 25.528 ], [ 90.774, 25.519 ], [ 90.778, 25.507 ], [ 90.792, 25.504 ], [ 90.796, 25.492 ], [ 90.786, 25.482 ], [ 90.79, 25.47 ], [ 90.78, 25.46 ], [ 90.765, 25.463 ], [ 90.755, 25.454 ], [ 90.759, 25.442 ], [ 90.749, 25.432 ], [ 90.753, 25.42 ], [ 90.767, 25.417 ], [ 90.771, 25.405 ], [ 90.785, 25.402 ], [ 90.796, 25.411 ], [ 90.81, 25.408 ], [ 90.82, 25.418 ], [ 90.835, 25.415 ], [ 90.845, 25.424 ], [ 90.859, 25.422 ], [ 90.869, 25.431 ], [ 90.884, 25.428 ], [ 90.894, 25.438 ], [ 90.89, 25.45 ], [ 90.9, 25.459 ], [ 90.915, 25.456 ], [ 90.925, 25.466 ], [ 90.921, 25.478 ], [ 90.931, 25.488 ], [ 90.945, 25.485 ], [ 90.956, 25.494 ], [ 90.97, 25.491 ], [ 90.974, 25.479 ], [ 90.988, 25.476 ], [ 90.992, 25.464 ], [ 91.007, 25.461 ], [ 91.011, 25.449 ], [ 91.025, 25.446 ], [ 91.035, 25.455 ], [ 91.049, 25.452 ], [ 91.053, 25.44 ], [ 91.068, 25.437 ], [ 91.072, 25.425 ], [ 91.061, 25.415 ], [ 91.065, 25.403 ], [ 91.055, 25.394 ], [ 91.041, 25.397 ], [ 91.03, 25.387 ], [ 91.016, 25.39 ], [ 91.006, 25.381 ], [ 91.01, 25.368 ], [ 91.024, 25.365 ], [ 91.028, 25.353 ], [ 91.042, 25.35 ], [ 91.053, 25.36 ], [ 91.067, 25.357 ], [ 91.071, 25.344 ], [ 91.085, 25.341 ], [ 91.096, 25.351 ], [ 91.092, 25.363 ], [ 91.102, 25.373 ], [ 91.116, 25.37 ], [ 91.126, 25.379 ], [ 91.122, 25.392 ], [ 91.133, 25.401 ], [ 91.129, 25.413 ], [ 91.115, 25.416 ], [ 91.111, 25.428 ], [ 91.121, 25.438 ], [ 91.117, 25.45 ], [ 91.127, 25.46 ], [ 91.141, 25.457 ], [ 91.152, 25.466 ], [ 91.166, 25.463 ], [ 91.17, 25.451 ], [ 91.184, 25.448 ], [ 91.195, 25.458 ], [ 91.209, 25.455 ], [ 91.219, 25.464 ], [ 91.234, 25.461 ], [ 91.237, 25.449 ], [ 91.252, 25.446 ], [ 91.256, 25.434 ], [ 91.27, 25.431 ], [ 91.28, 25.44 ], [ 91.276, 25.452 ], [ 91.262, 25.455 ], [ 91.258, 25.468 ], [ 91.268, 25.477 ], [ 91.264, 25.489 ], [ 91.275, 25.499 ], [ 91.289, 25.496 ], [ 91.299, 25.505 ], [ 91.295, 25.518 ], [ 91.306, 25.527 ], [ 91.302, 25.539 ], [ 91.287, 25.542 ], [ 91.283, 25.555 ], [ 91.294, 25.564 ], [ 91.29, 25.576 ], [ 91.3, 25.586 ], [ 91.314, 25.583 ], [ 91.325, 25.592 ], [ 91.339, 25.589 ], [ 91.349, 25.599 ], [ 91.364, 25.596 ], [ 91.368, 25.584 ], [ 91.382, 25.581 ], [ 91.386, 25.568 ], [ 91.4, 25.565 ], [ 91.404, 25.553 ], [ 91.418, 25.55 ], [ 91.422, 25.538 ], [ 91.437, 25.535 ], [ 91.447, 25.544 ], [ 91.461, 25.541 ], [ 91.465, 25.529 ], [ 91.48, 25.526 ], [ 91.49, 25.536 ], [ 91.504, 25.533 ], [ 91.515, 25.542 ], [ 91.529, 25.539 ], [ 91.533, 25.527 ], [ 91.547, 25.524 ], [ 91.558, 25.533 ], [ 91.572, 25.53 ], [ 91.582, 25.54 ], [ 91.596, 25.537 ], [ 91.607, 25.546 ], [ 91.603, 25.559 ], [ 91.613, 25.568 ], [ 91.609, 25.58 ], [ 91.595, 25.583 ], [ 91.591, 25.596 ], [ 91.601, 25.605 ], [ 91.597, 25.617 ], [ 91.608, 25.627 ], [ 91.604, 25.639 ], [ 91.614, 25.648 ], [ 91.61, 25.661 ], [ 91.62, 25.67 ], [ 91.635, 25.667 ], [ 91.645, 25.677 ], [ 91.659, 25.674 ], [ 91.67, 25.683 ], [ 91.684, 25.68 ], [ 91.694, 25.689 ], [ 91.709, 25.686 ], [ 91.713, 25.674 ], [ 91.727, 25.671 ], [ 91.731, 25.659 ], [ 91.721, 25.65 ], [ 91.725, 25.637 ], [ 91.714, 25.628 ], [ 91.718, 25.616 ], [ 91.732, 25.613 ], [ 91.743, 25.622 ], [ 91.757, 25.619 ], [ 91.767, 25.628 ], [ 91.782, 25.625 ], [ 91.786, 25.613 ], [ 91.8, 25.61 ], [ 91.81, 25.62 ], [ 91.825, 25.617 ], [ 91.835, 25.626 ], [ 91.831, 25.638 ], [ 91.841, 25.648 ], [ 91.838, 25.66 ], [ 91.848, 25.669 ], [ 91.862, 25.666 ], [ 91.873, 25.676 ], [ 91.887, 25.673 ], [ 91.897, 25.682 ], [ 91.912, 25.679 ], [ 91.916, 25.667 ], [ 91.905, 25.658 ], [ 91.909, 25.645 ], [ 91.923, 25.642 ], [ 91.934, 25.652 ], [ 91.948, 25.649 ], [ 91.958, 25.658 ], [ 91.973, 25.655 ], [ 91.977, 25.643 ], [ 91.991, 25.64 ], [ 92.001, 25.649 ], [ 92.016, 25.646 ], [ 92.026, 25.656 ], [ 92.04, 25.653 ], [ 92.044, 25.64 ], [ 92.059, 25.637 ], [ 92.069, 25.647 ], [ 92.083, 25.644 ], [ 92.087, 25.631 ], [ 92.102, 25.628 ], [ 92.112, 25.638 ], [ 92.126, 25.635 ], [ 92.137, 25.644 ], [ 92.151, 25.641 ], [ 92.161, 25.651 ], [ 92.158, 25.663 ], [ 92.168, 25.672 ], [ 92.164, 25.685 ], [ 92.15, 25.688 ], [ 92.146, 25.7 ], [ 92.156, 25.709 ], [ 92.152, 25.722 ], [ 92.162, 25.731 ], [ 92.158, 25.743 ], [ 92.169, 25.753 ], [ 92.165, 25.765 ], [ 92.151, 25.768 ], [ 92.147, 25.78 ], [ 92.157, 25.79 ], [ 92.153, 25.802 ], [ 92.163, 25.811 ], [ 92.159, 25.823 ], [ 92.17, 25.833 ], [ 92.166, 25.845 ], [ 92.176, 25.854 ], [ 92.172, 25.867 ], [ 92.183, 25.876 ], [ 92.197, 25.873 ], [ 92.207, 25.882 ], [ 92.203, 25.895 ], [ 92.214, 25.904 ], [ 92.21, 25.916 ], [ 92.196, 25.919 ], [ 92.185, 25.91 ], [ 92.171, 25.913 ], [ 92.167, 25.925 ], [ 92.152, 25.928 ], [ 92.149, 25.941 ], [ 92.159, 25.95 ], [ 92.155, 25.962 ], [ 92.165, 25.972 ], [ 92.18, 25.969 ], [ 92.19, 25.978 ], [ 92.186, 25.99 ], [ 92.196, 26.0 ], [ 92.211, 25.997 ], [ 92.221, 26.006 ], [ 92.236, 26.003 ], [ 92.246, 26.012 ], [ 92.242, 26.025 ], [ 92.252, 26.034 ], [ 92.267, 26.031 ], [ 92.277, 26.04 ], [ 92.273, 26.052 ], [ 92.259, 26.055 ], [ 92.255, 26.068 ], [ 92.241, 26.071 ], [ 92.23, 26.061 ], [ 92.216, 26.064 ], [ 92.212, 26.077 ], [ 92.197, 26.08 ], [ 92.187, 26.07 ], [ 92.173, 26.073 ], [ 92.162, 26.064 ], [ 92.148, 26.067 ], [ 92.138, 26.058 ], [ 92.142, 26.045 ], [ 92.131, 26.036 ], [ 92.117, 26.039 ], [ 92.113, 26.051 ], [ 92.099, 26.054 ], [ 92.088, 26.045 ], [ 92.074, 26.048 ], [ 92.063, 26.038 ], [ 92.049, 26.041 ], [ 92.039, 26.032 ], [ 92.024, 26.035 ], [ 92.014, 26.026 ], [ 92.0, 26.029 ], [ 91.989, 26.019 ], [ 91.975, 26.022 ], [ 91.965, 26.013 ], [ 91.95, 26.016 ], [ 91.94, 26.007 ], [ 91.926, 26.009 ], [ 91.915, 26.0 ], [ 91.901, 26.003 ], [ 91.897, 26.015 ], [ 91.883, 26.018 ], [ 91.879, 26.031 ], [ 91.864, 26.033 ], [ 91.86, 26.046 ], [ 91.871, 26.055 ], [ 91.867, 26.067 ], [ 91.877, 26.077 ], [ 91.873, 26.089 ], [ 91.859, 26.092 ], [ 91.855, 26.104 ], [ 91.84, 26.107 ], [ 91.836, 26.119 ], [ 91.822, 26.122 ], [ 91.812, 26.113 ], [ 91.797, 26.116 ], [ 91.787, 26.107 ], [ 91.773, 26.109 ], [ 91.762, 26.1 ], [ 91.766, 26.088 ], [ 91.756, 26.079 ], [ 91.76, 26.066 ], [ 91.749, 26.057 ], [ 91.735, 26.06 ], [ 91.725, 26.05 ], [ 91.729, 26.038 ], [ 91.718, 26.029 ], [ 91.722, 26.017 ], [ 91.712, 26.007 ], [ 91.716, 25.995 ], [ 91.73, 25.992 ], [ 91.734, 25.98 ], [ 91.724, 25.97 ], [ 91.728, 25.958 ], [ 91.718, 25.949 ], [ 91.703, 25.952 ], [ 91.693, 25.942 ], [ 91.697, 25.93 ], [ 91.687, 25.921 ], [ 91.672, 25.924 ], [ 91.662, 25.914 ], [ 91.647, 25.917 ], [ 91.644, 25.929 ], [ 91.629, 25.932 ], [ 91.625, 25.945 ], [ 91.636, 25.954 ], [ 91.632, 25.966 ], [ 91.642, 25.976 ], [ 91.638, 25.988 ], [ 91.624, 25.991 ], [ 91.62, 26.003 ], [ 91.63, 26.012 ], [ 91.626, 26.025 ], [ 91.612, 26.028 ], [ 91.601, 26.018 ], [ 91.587, 26.021 ], [ 91.577, 26.012 ], [ 91.562, 26.015 ], [ 91.552, 26.005 ], [ 91.556, 25.993 ], [ 91.546, 25.984 ], [ 91.55, 25.971 ], [ 91.539, 25.962 ], [ 91.525, 25.965 ], [ 91.515, 25.956 ], [ 91.519, 25.943 ], [ 91.508, 25.934 ], [ 91.512, 25.922 ], [ 91.502, 25.912 ] ] ] ] } },
{ "type": "Feature", "properties": { "POLYGON.ID": 203.0, "subregion": "India--Meghalaya--South Khasi Hills_CL32177", "FILTER": "Meghalaya", "POLYGON": "India--Meghalaya--South Khasi Hills_CL32177", "STATE": "Meghalaya", "COUNTY": "spl_region", "OWNER": null }, "geometry": { "type": "MultiPolygon", "coordinates": [ [ [ [ 91.047, 25.211 ], [ 91.033, 25.214 ], [ 91.023, 25.204 ], [ 91.009, 25.207 ], [ 90.998, 25.198 ], [ 90.984, 25.201 ], [ 90.974, 25.191 ], [ 90.978, 25.179 ], [ 90.992, 25.176 ], [ 91.002, 25.185 ], [ 91.017, 25.182 ], [ 91.027, 25.192 ], [ 91.041, 25.189 ], [ 91.051, 25.198 ], [ 91.066, 25.196 ], [ 91.076, 25.205 ], [ 91.072, 25.217 ], [ 91.058, 25.22 ], [ 91.047, 25.211 ] ] ], [ [ [ 91.598, 25.283 ], [ 91.588, 25.274 ], [ 91.592, 25.261 ], [ 91.581, 25.252 ], [ 91.585, 25.239 ], [ 91.575, 25.23 ], [ 91.561, 25.233 ], [ 91.55, 25.224 ], [ 91.536, 25.226 ], [ 91.532, 25.239 ], [ 91.518, 25.242 ], [ 91.514, 25.254 ], [ 91.524, 25.264 ], [ 91.52, 25.276 ], [ 91.506, 25.279 ], [ 91.502, 25.291 ], [ 91.512, 25.301 ], [ 91.508, 25.313 ], [ 91.494, 25.316 ], [ 91.49, 25.328 ], [ 91.476, 25.331 ], [ 91.465, 25.322 ], [ 91.469, 25.309 ], [ 91.459, 25.3 ], [ 91.445, 25.303 ], [ 91.441, 25.315 ], [ 91.427, 25.318 ], [ 91.416, 25.309 ], [ 91.402, 25.312 ], [ 91.392, 25.302 ], [ 91.377, 25.305 ], [ 91.373, 25.318 ], [ 91.359, 25.32 ], [ 91.349, 25.311 ], [ 91.334, 25.314 ], [ 91.33, 25.326 ], [ 91.341, 25.336 ], [ 91.355, 25.333 ], [ 91.365, 25.342 ], [ 91.361, 25.355 ], [ 91.372, 25.364 ], [ 91.368, 25.376 ], [ 91.353, 25.379 ], [ 91.343, 25.37 ], [ 91.329, 25.373 ], [ 91.319, 25.363 ], [ 91.304, 25.366 ], [ 91.3, 25.379 ], [ 91.286, 25.381 ], [ 91.282, 25.394 ], [ 91.268, 25.397 ], [ 91.264, 25.409 ], [ 91.274, 25.418 ], [ 91.27, 25.431 ], [ 91.256, 25.434 ], [ 91.252, 25.446 ], [ 91.237, 25.449 ], [ 91.234, 25.461 ], [ 91.219, 25.464 ], [ 91.209, 25.455 ], [ 91.195, 25.458 ], [ 91.184, 25.448 ], [ 91.17, 25.451 ], [ 91.166, 25.463 ], [ 91.152, 25.466 ], [ 91.141, 25.457 ], [ 91.127, 25.46 ], [ 91.117, 25.45 ], [ 91.121, 25.438 ], [ 91.111, 25.428 ], [ 91.115, 25.416 ], [ 91.129, 25.413 ], [ 91.133, 25.401 ], [ 91.122, 25.392 ], [ 91.126, 25.379 ], [ 91.116, 25.37 ], [ 91.102, 25.373 ], [ 91.092, 25.363 ], [ 91.096, 25.351 ], [ 91.11, 25.348 ], [ 91.114, 25.336 ], [ 91.128, 25.333 ], [ 91.132, 25.32 ], [ 91.122, 25.311 ], [ 91.126, 25.299 ], [ 91.115, 25.289 ], [ 91.101, 25.292 ], [ 91.091, 25.283 ], [ 91.095, 25.27 ], [ 91.109, 25.267 ], [ 91.113, 25.255 ], [ 91.103, 25.246 ], [ 91.107, 25.233 ], [ 91.097, 25.224 ], [ 91.101, 25.212 ], [ 91.115, 25.209 ], [ 91.119, 25.196 ], [ 91.133, 25.193 ], [ 91.143, 25.203 ], [ 91.158, 25.2 ], [ 91.168, 25.209 ], [ 91.182, 25.206 ], [ 91.193, 25.216 ], [ 91.207, 25.213 ], [ 91.217, 25.222 ], [ 91.231, 25.22 ], [ 91.242, 25.229 ], [ 91.256, 25.226 ], [ 91.26, 25.214 ], [ 91.274, 25.211 ], [ 91.285, 25.22 ], [ 91.299, 25.217 ], [ 91.303, 25.205 ], [ 91.317, 25.202 ], [ 91.327, 25.212 ], [ 91.342, 25.209 ], [ 91.352, 25.218 ], [ 91.366, 25.215 ], [ 91.377, 25.225 ], [ 91.391, 25.222 ], [ 91.395, 25.209 ], [ 91.385, 25.2 ], [ 91.388, 25.187 ], [ 91.403, 25.185 ], [ 91.407, 25.172 ], [ 91.421, 25.169 ], [ 91.431, 25.179 ], [ 91.446, 25.176 ], [ 91.45, 25.163 ], [ 91.464, 25.16 ], [ 91.474, 25.17 ], [ 91.488, 25.167 ], [ 91.492, 25.155 ], [ 91.507, 25.152 ], [ 91.517, 25.161 ], [ 91.531, 25.158 ], [ 91.542, 25.168 ], [ 91.556, 25.165 ], [ 91.566, 25.174 ], [ 91.581, 25.171 ], [ 91.591, 25.181 ], [ 91.605, 25.178 ], [ 91.615, 25.187 ], [ 91.63, 25.184 ], [ 91.634, 25.172 ], [ 91.648, 25.169 ], [ 91.652, 25.156 ], [ 91.666, 25.153 ], [ 91.677, 25.163 ], [ 91.691, 25.16 ], [ 91.701, 25.169 ], [ 91.716, 25.166 ], [ 91.726, 25.176 ], [ 91.74, 25.173 ], [ 91.75, 25.182 ], [ 91.765, 25.179 ], [ 91.769, 25.167 ], [ 91.783, 25.164 ], [ 91.793, 25.173 ], [ 91.808, 25.17 ], [ 91.818, 25.18 ], [ 91.832, 25.177 ], [ 91.843, 25.186 ], [ 91.857, 25.183 ], [ 91.867, 25.193 ], [ 91.882, 25.19 ], [ 91.892, 25.199 ], [ 91.906, 25.196 ], [ 91.91, 25.184 ], [ 91.924, 25.181 ], [ 91.935, 25.19 ], [ 91.949, 25.187 ], [ 91.959, 25.197 ], [ 91.974, 25.194 ], [ 91.984, 25.203 ], [ 91.998, 25.2 ], [ 92.009, 25.209 ], [ 92.005, 25.222 ], [ 91.99, 25.225 ], [ 91.987, 25.237 ], [ 91.997, 25.247 ], [ 91.993, 25.259 ], [ 91.979, 25.262 ], [ 91.975, 25.274 ], [ 91.985, 25.284 ], [ 91.999, 25.281 ], [ 92.01, 25.29 ], [ 92.006, 25.302 ], [ 92.016, 25.312 ], [ 92.03, 25.309 ], [ 92.041, 25.318 ], [ 92.055, 25.315 ], [ 92.065, 25.325 ], [ 92.08, 25.322 ], [ 92.084, 25.309 ], [ 92.098, 25.306 ], [ 92.108, 25.316 ], [ 92.104, 25.328 ], [ 92.115, 25.337 ], [ 92.111, 25.35 ], [ 92.096, 25.353 ], [ 92.086, 25.343 ], [ 92.072, 25.346 ], [ 92.061, 25.337 ], [ 92.047, 25.34 ], [ 92.037, 25.331 ], [ 92.022, 25.334 ], [ 92.018, 25.346 ], [ 92.029, 25.355 ], [ 92.025, 25.368 ], [ 92.035, 25.377 ], [ 92.031, 25.389 ], [ 92.042, 25.399 ], [ 92.038, 25.411 ], [ 92.023, 25.414 ], [ 92.013, 25.405 ], [ 91.999, 25.408 ], [ 91.995, 25.42 ], [ 91.98, 25.423 ], [ 91.976, 25.435 ], [ 91.962, 25.438 ], [ 91.952, 25.429 ], [ 91.937, 25.432 ], [ 91.934, 25.444 ], [ 91.919, 25.447 ], [ 91.909, 25.438 ], [ 91.895, 25.441 ], [ 91.884, 25.432 ], [ 91.87, 25.435 ], [ 91.86, 25.425 ], [ 91.864, 25.413 ], [ 91.853, 25.403 ], [ 91.839, 25.406 ], [ 91.829, 25.397 ], [ 91.814, 25.4 ], [ 91.804, 25.391 ], [ 91.808, 25.378 ], [ 91.797, 25.369 ], [ 91.783, 25.372 ], [ 91.773, 25.362 ], [ 91.777, 25.35 ], [ 91.791, 25.347 ], [ 91.795, 25.335 ], [ 91.785, 25.325 ], [ 91.789, 25.313 ], [ 91.778, 25.303 ], [ 91.764, 25.306 ], [ 91.754, 25.297 ], [ 91.758, 25.285 ], [ 91.747, 25.275 ], [ 91.751, 25.263 ], [ 91.766, 25.26 ], [ 91.77, 25.248 ], [ 91.759, 25.238 ], [ 91.763, 25.226 ], [ 91.753, 25.216 ], [ 91.739, 25.219 ], [ 91.728, 25.21 ], [ 91.714, 25.213 ], [ 91.71, 25.225 ], [ 91.696, 25.228 ], [ 91.692, 25.241 ], [ 91.677, 25.244 ], [ 91.673, 25.256 ], [ 91.659, 25.259 ], [ 91.655, 25.271 ], [ 91.641, 25.274 ], [ 91.637, 25.287 ], [ 91.647, 25.296 ], [ 91.643, 25.308 ], [ 91.654, 25.318 ], [ 91.668, 25.315 ], [ 91.678, 25.324 ], [ 91.674, 25.337 ], [ 91.685, 25.346 ], [ 91.681, 25.358 ], [ 91.666, 25.361 ], [ 91.662, 25.374 ], [ 91.648, 25.377 ], [ 91.638, 25.367 ], [ 91.642, 25.355 ], [ 91.631, 25.345 ], [ 91.617, 25.348 ], [ 91.607, 25.339 ], [ 91.611, 25.327 ], [ 91.625, 25.324 ], [ 91.629, 25.311 ], [ 91.619, 25.302 ], [ 91.623, 25.289 ], [ 91.612, 25.28 ], [ 91.598, 25.283 ] ] ], [ [ [ 92.016, 25.646 ], [ 92.02, 25.634 ], [ 92.034, 25.631 ], [ 92.044, 25.64 ], [ 92.04, 25.653 ], [ 92.026, 25.656 ], [ 92.016, 25.646 ] ] ] ] } },
{ "type": "Feature", "properties": { "POLYGON.ID": 204.0, "subregion": "India--Meghalaya--Jaintia Hills_CL32178", "FILTER": "Meghalaya", "POLYGON": "India--Meghalaya--Jaintia Hills_CL32178", "STATE": "Meghalaya", "COUNTY": "spl_region", "OWNER": null }, "geometry": { "type": "MultiPolygon", "coordinates": [ [ [ [ 92.436, 25.293 ], [ 92.422, 25.296 ], [ 92.418, 25.308 ], [ 92.403, 25.311 ], [ 92.393, 25.302 ], [ 92.379, 25.305 ], [ 92.368, 25.296 ], [ 92.372, 25.283 ], [ 92.362, 25.274 ], [ 92.348, 25.277 ], [ 92.337, 25.268 ], [ 92.341, 25.255 ], [ 92.331, 25.246 ], [ 92.316, 25.249 ], [ 92.306, 25.24 ], [ 92.31, 25.227 ], [ 92.3, 25.218 ], [ 92.285, 25.221 ], [ 92.275, 25.211 ], [ 92.279, 25.199 ], [ 92.269, 25.19 ], [ 92.254, 25.193 ], [ 92.25, 25.205 ], [ 92.236, 25.208 ], [ 92.226, 25.199 ], [ 92.211, 25.202 ], [ 92.201, 25.192 ], [ 92.187, 25.195 ], [ 92.183, 25.208 ], [ 92.168, 25.211 ], [ 92.158, 25.201 ], [ 92.144, 25.204 ], [ 92.14, 25.217 ], [ 92.126, 25.22 ], [ 92.122, 25.232 ], [ 92.107, 25.235 ], [ 92.103, 25.247 ], [ 92.089, 25.25 ], [ 92.079, 25.241 ], [ 92.064, 25.244 ], [ 92.06, 25.256 ], [ 92.046, 25.259 ], [ 92.036, 25.25 ], [ 92.022, 25.253 ], [ 92.011, 25.244 ], [ 91.997, 25.247 ], [ 91.987, 25.237 ], [ 91.99, 25.225 ], [ 92.005, 25.222 ], [ 92.009, 25.209 ], [ 92.023, 25.206 ], [ 92.027, 25.194 ], [ 92.041, 25.191 ], [ 92.052, 25.2 ], [ 92.066, 25.197 ], [ 92.07, 25.185 ], [ 92.084, 25.182 ], [ 92.095, 25.191 ], [ 92.109, 25.188 ], [ 92.113, 25.176 ], [ 92.127, 25.173 ], [ 92.131, 25.161 ], [ 92.145, 25.158 ], [ 92.149, 25.145 ], [ 92.164, 25.142 ], [ 92.168, 25.13 ], [ 92.182, 25.127 ], [ 92.192, 25.136 ], [ 92.206, 25.133 ], [ 92.217, 25.143 ], [ 92.213, 25.155 ], [ 92.223, 25.164 ], [ 92.238, 25.161 ], [ 92.248, 25.171 ], [ 92.262, 25.168 ], [ 92.266, 25.155 ], [ 92.28, 25.152 ], [ 92.291, 25.162 ], [ 92.305, 25.159 ], [ 92.315, 25.168 ], [ 92.33, 25.165 ], [ 92.334, 25.153 ], [ 92.348, 25.15 ], [ 92.358, 25.159 ], [ 92.373, 25.156 ], [ 92.377, 25.144 ], [ 92.391, 25.141 ], [ 92.395, 25.128 ], [ 92.409, 25.125 ], [ 92.42, 25.135 ], [ 92.416, 25.147 ], [ 92.426, 25.156 ], [ 92.44, 25.153 ], [ 92.444, 25.141 ], [ 92.459, 25.138 ], [ 92.469, 25.147 ], [ 92.483, 25.144 ], [ 92.487, 25.132 ], [ 92.501, 25.129 ], [ 92.512, 25.138 ], [ 92.526, 25.135 ], [ 92.537, 25.144 ], [ 92.551, 25.141 ], [ 92.555, 25.129 ], [ 92.569, 25.126 ], [ 92.579, 25.135 ], [ 92.594, 25.132 ], [ 92.598, 25.12 ], [ 92.612, 25.117 ], [ 92.622, 25.126 ], [ 92.618, 25.139 ], [ 92.629, 25.148 ], [ 92.643, 25.145 ], [ 92.654, 25.154 ], [ 92.65, 25.167 ], [ 92.66, 25.176 ], [ 92.674, 25.173 ], [ 92.685, 25.182 ], [ 92.699, 25.179 ], [ 92.709, 25.189 ], [ 92.724, 25.186 ], [ 92.734, 25.195 ], [ 92.748, 25.192 ], [ 92.759, 25.201 ], [ 92.773, 25.198 ], [ 92.783, 25.208 ], [ 92.798, 25.205 ], [ 92.808, 25.214 ], [ 92.804, 25.226 ], [ 92.79, 25.229 ], [ 92.78, 25.22 ], [ 92.765, 25.223 ], [ 92.761, 25.235 ], [ 92.772, 25.245 ], [ 92.768, 25.257 ], [ 92.778, 25.267 ], [ 92.774, 25.279 ], [ 92.785, 25.288 ], [ 92.781, 25.301 ], [ 92.791, 25.31 ], [ 92.787, 25.322 ], [ 92.773, 25.326 ], [ 92.769, 25.338 ], [ 92.755, 25.341 ], [ 92.751, 25.353 ], [ 92.736, 25.356 ], [ 92.732, 25.369 ], [ 92.718, 25.372 ], [ 92.714, 25.384 ], [ 92.7, 25.387 ], [ 92.696, 25.4 ], [ 92.682, 25.403 ], [ 92.678, 25.415 ], [ 92.663, 25.418 ], [ 92.653, 25.409 ], [ 92.639, 25.412 ], [ 92.635, 25.424 ], [ 92.62, 25.427 ], [ 92.61, 25.418 ], [ 92.596, 25.421 ], [ 92.592, 25.433 ], [ 92.602, 25.443 ], [ 92.598, 25.455 ], [ 92.584, 25.458 ], [ 92.58, 25.471 ], [ 92.566, 25.474 ], [ 92.562, 25.486 ], [ 92.572, 25.495 ], [ 92.568, 25.508 ], [ 92.578, 25.517 ], [ 92.593, 25.514 ], [ 92.603, 25.523 ], [ 92.617, 25.52 ], [ 92.628, 25.53 ], [ 92.642, 25.527 ], [ 92.653, 25.536 ], [ 92.649, 25.548 ], [ 92.659, 25.558 ], [ 92.655, 25.57 ], [ 92.665, 25.579 ], [ 92.662, 25.592 ], [ 92.647, 25.595 ], [ 92.637, 25.585 ], [ 92.641, 25.573 ], [ 92.63, 25.564 ], [ 92.616, 25.567 ], [ 92.606, 25.557 ], [ 92.591, 25.56 ], [ 92.581, 25.551 ], [ 92.567, 25.554 ], [ 92.563, 25.566 ], [ 92.548, 25.569 ], [ 92.544, 25.582 ], [ 92.555, 25.591 ], [ 92.551, 25.604 ], [ 92.537, 25.607 ], [ 92.533, 25.619 ], [ 92.518, 25.622 ], [ 92.508, 25.613 ], [ 92.494, 25.616 ], [ 92.49, 25.628 ], [ 92.5, 25.637 ], [ 92.496, 25.65 ], [ 92.482, 25.653 ], [ 92.478, 25.665 ], [ 92.463, 25.668 ], [ 92.459, 25.68 ], [ 92.445, 25.683 ], [ 92.441, 25.696 ], [ 92.452, 25.705 ], [ 92.448, 25.717 ], [ 92.433, 25.72 ], [ 92.429, 25.733 ], [ 92.415, 25.736 ], [ 92.411, 25.748 ], [ 92.397, 25.751 ], [ 92.386, 25.742 ], [ 92.372, 25.745 ], [ 92.362, 25.735 ], [ 92.347, 25.738 ], [ 92.337, 25.729 ], [ 92.323, 25.732 ], [ 92.312, 25.723 ], [ 92.298, 25.726 ], [ 92.287, 25.716 ], [ 92.273, 25.719 ], [ 92.263, 25.71 ], [ 92.248, 25.713 ], [ 92.238, 25.704 ], [ 92.224, 25.707 ], [ 92.213, 25.697 ], [ 92.199, 25.7 ], [ 92.189, 25.691 ], [ 92.193, 25.679 ], [ 92.182, 25.669 ], [ 92.168, 25.672 ], [ 92.158, 25.663 ], [ 92.161, 25.651 ], [ 92.151, 25.641 ], [ 92.137, 25.644 ], [ 92.126, 25.635 ], [ 92.13, 25.622 ], [ 92.12, 25.613 ], [ 92.124, 25.601 ], [ 92.114, 25.591 ], [ 92.118, 25.579 ], [ 92.132, 25.576 ], [ 92.136, 25.564 ], [ 92.125, 25.554 ], [ 92.129, 25.542 ], [ 92.144, 25.539 ], [ 92.148, 25.527 ], [ 92.137, 25.517 ], [ 92.141, 25.505 ], [ 92.156, 25.502 ], [ 92.16, 25.49 ], [ 92.174, 25.487 ], [ 92.178, 25.474 ], [ 92.192, 25.471 ], [ 92.196, 25.459 ], [ 92.21, 25.456 ], [ 92.221, 25.465 ], [ 92.235, 25.462 ], [ 92.245, 25.472 ], [ 92.26, 25.469 ], [ 92.264, 25.456 ], [ 92.278, 25.453 ], [ 92.288, 25.463 ], [ 92.303, 25.46 ], [ 92.313, 25.469 ], [ 92.327, 25.466 ], [ 92.338, 25.475 ], [ 92.352, 25.472 ], [ 92.356, 25.46 ], [ 92.37, 25.457 ], [ 92.381, 25.466 ], [ 92.395, 25.463 ], [ 92.405, 25.473 ], [ 92.42, 25.47 ], [ 92.424, 25.457 ], [ 92.438, 25.454 ], [ 92.448, 25.464 ], [ 92.463, 25.461 ], [ 92.473, 25.47 ], [ 92.487, 25.467 ], [ 92.491, 25.455 ], [ 92.506, 25.452 ], [ 92.516, 25.461 ], [ 92.53, 25.458 ], [ 92.541, 25.467 ], [ 92.555, 25.464 ], [ 92.559, 25.452 ], [ 92.573, 25.449 ], [ 92.577, 25.436 ], [ 92.567, 25.427 ], [ 92.571, 25.415 ], [ 92.585, 25.412 ], [ 92.589, 25.399 ], [ 92.579, 25.39 ], [ 92.583, 25.378 ], [ 92.597, 25.375 ], [ 92.601, 25.362 ], [ 92.591, 25.353 ], [ 92.595, 25.34 ], [ 92.584, 25.331 ], [ 92.57, 25.334 ], [ 92.559, 25.325 ], [ 92.563, 25.312 ], [ 92.553, 25.303 ], [ 92.557, 25.291 ], [ 92.547, 25.281 ], [ 92.55, 25.269 ], [ 92.54, 25.259 ], [ 92.526, 25.262 ], [ 92.515, 25.253 ], [ 92.501, 25.256 ], [ 92.497, 25.269 ], [ 92.483, 25.272 ], [ 92.472, 25.262 ], [ 92.458, 25.265 ], [ 92.454, 25.278 ], [ 92.44, 25.281 ], [ 92.436, 25.293 ] ] ], [ [ [ 92.003, 25.268 ], [ 91.999, 25.281 ], [ 91.985, 25.284 ], [ 91.975, 25.274 ], [ 91.979, 25.262 ], [ 91.993, 25.259 ], [ 92.003, 25.268 ] ] ], [ [ [ 92.049, 25.294 ], [ 92.059, 25.303 ], [ 92.073, 25.3 ], [ 92.084, 25.309 ], [ 92.08, 25.322 ], [ 92.065, 25.325 ], [ 92.055, 25.315 ], [ 92.041, 25.318 ], [ 92.03, 25.309 ], [ 92.016, 25.312 ], [ 92.006, 25.302 ], [ 92.01, 25.29 ], [ 92.024, 25.287 ], [ 92.034, 25.297 ], [ 92.049, 25.294 ] ] ], [ [ [ 92.139, 25.344 ], [ 92.135, 25.356 ], [ 92.121, 25.359 ], [ 92.111, 25.35 ], [ 92.115, 25.337 ], [ 92.104, 25.328 ], [ 92.108, 25.316 ], [ 92.123, 25.313 ], [ 92.133, 25.322 ], [ 92.129, 25.334 ], [ 92.139, 25.344 ] ] ] ] } },
{ "type": "Feature", "properties": { "POLYGON.ID": 918.0, "subregion": "India--Meghalaya--Plains adjacent", "FILTER": "Meghalaya", "POLYGON": "India--Meghalaya--Plains adjacent", "STATE": "Meghalaya", "COUNTY": "spl_region", "OWNER": null }, "geometry": { "type": "MultiPolygon", "coordinates": [ [ [ [ 91.303, 25.205 ], [ 91.299, 25.217 ], [ 91.285, 25.22 ], [ 91.274, 25.211 ], [ 91.26, 25.214 ], [ 91.256, 25.226 ], [ 91.242, 25.229 ], [ 91.231, 25.22 ], [ 91.217, 25.222 ], [ 91.207, 25.213 ], [ 91.193, 25.216 ], [ 91.182, 25.206 ], [ 91.168, 25.209 ], [ 91.158, 25.2 ], [ 91.143, 25.203 ], [ 91.133, 25.193 ], [ 91.119, 25.196 ], [ 91.115, 25.209 ], [ 91.101, 25.212 ], [ 91.09, 25.202 ], [ 91.076, 25.205 ], [ 91.066, 25.196 ], [ 91.051, 25.198 ], [ 91.041, 25.189 ], [ 91.027, 25.192 ], [ 91.017, 25.182 ], [ 91.002, 25.185 ], [ 90.992, 25.176 ], [ 90.978, 25.179 ], [ 90.967, 25.169 ], [ 90.953, 25.172 ], [ 90.949, 25.184 ], [ 90.935, 25.187 ], [ 90.925, 25.178 ], [ 90.91, 25.181 ], [ 90.9, 25.171 ], [ 90.886, 25.174 ], [ 90.876, 25.165 ], [ 90.861, 25.168 ], [ 90.851, 25.158 ], [ 90.837, 25.161 ], [ 90.833, 25.173 ], [ 90.818, 25.176 ], [ 90.814, 25.189 ], [ 90.8, 25.191 ], [ 90.79, 25.182 ], [ 90.776, 25.185 ], [ 90.765, 25.175 ], [ 90.751, 25.178 ], [ 90.741, 25.169 ], [ 90.727, 25.172 ], [ 90.716, 25.162 ], [ 90.702, 25.165 ], [ 90.698, 25.177 ], [ 90.684, 25.18 ], [ 90.68, 25.192 ], [ 90.666, 25.195 ], [ 90.655, 25.186 ], [ 90.641, 25.189 ], [ 90.631, 25.179 ], [ 90.617, 25.182 ], [ 90.613, 25.194 ], [ 90.598, 25.197 ], [ 90.588, 25.188 ], [ 90.574, 25.191 ], [ 90.563, 25.181 ], [ 90.549, 25.184 ], [ 90.539, 25.175 ], [ 90.525, 25.177 ], [ 90.514, 25.168 ], [ 90.5, 25.171 ], [ 90.49, 25.161 ], [ 90.476, 25.164 ], [ 90.472, 25.176 ], [ 90.457, 25.179 ], [ 90.447, 25.17 ], [ 90.433, 25.173 ], [ 90.429, 25.185 ], [ 90.415, 25.188 ], [ 90.404, 25.178 ], [ 90.39, 25.181 ], [ 90.38, 25.172 ], [ 90.366, 25.174 ], [ 90.362, 25.187 ], [ 90.347, 25.189 ], [ 90.343, 25.202 ], [ 90.329, 25.205 ], [ 90.319, 25.195 ], [ 90.305, 25.198 ], [ 90.301, 25.21 ], [ 90.286, 25.213 ], [ 90.276, 25.204 ], [ 90.262, 25.206 ], [ 90.258, 25.219 ], [ 90.244, 25.222 ], [ 90.233, 25.212 ], [ 90.219, 25.215 ], [ 90.215, 25.227 ], [ 90.201, 25.23 ], [ 90.197, 25.242 ], [ 90.183, 25.245 ], [ 90.172, 25.236 ], [ 90.158, 25.238 ], [ 90.148, 25.229 ], [ 90.134, 25.232 ], [ 90.124, 25.222 ], [ 90.109, 25.225 ], [ 90.105, 25.237 ], [ 90.091, 25.24 ], [ 90.087, 25.252 ], [ 90.073, 25.255 ], [ 90.069, 25.267 ], [ 90.054, 25.27 ], [ 90.05, 25.282 ], [ 90.036, 25.285 ], [ 90.026, 25.276 ], [ 90.012, 25.279 ], [ 90.008, 25.291 ], [ 89.994, 25.294 ], [ 89.989, 25.306 ], [ 89.975, 25.309 ], [ 89.965, 25.299 ], [ 89.951, 25.302 ], [ 89.947, 25.314 ], [ 89.933, 25.317 ], [ 89.922, 25.307 ], [ 89.908, 25.31 ], [ 89.898, 25.301 ], [ 89.884, 25.304 ], [ 89.88, 25.316 ], [ 89.865, 25.319 ], [ 89.861, 25.331 ], [ 89.847, 25.334 ], [ 89.837, 25.324 ], [ 89.823, 25.327 ], [ 89.812, 25.317 ], [ 89.816, 25.305 ], [ 89.831, 25.302 ], [ 89.835, 25.29 ], [ 89.849, 25.287 ], [ 89.853, 25.275 ], [ 89.867, 25.272 ], [ 89.877, 25.282 ], [ 89.892, 25.279 ], [ 89.896, 25.267 ], [ 89.91, 25.264 ], [ 89.92, 25.273 ], [ 89.934, 25.271 ], [ 89.945, 25.28 ], [ 89.959, 25.277 ], [ 89.969, 25.287 ], [ 89.983, 25.284 ], [ 89.987, 25.272 ], [ 90.002, 25.269 ], [ 90.006, 25.257 ], [ 90.02, 25.254 ], [ 90.03, 25.263 ], [ 90.044, 25.261 ], [ 90.048, 25.248 ], [ 90.063, 25.246 ], [ 90.067, 25.233 ], [ 90.081, 25.231 ], [ 90.085, 25.218 ], [ 90.099, 25.215 ], [ 90.103, 25.203 ], [ 90.117, 25.2 ], [ 90.121, 25.188 ], [ 90.136, 25.185 ], [ 90.146, 25.195 ], [ 90.16, 25.192 ], [ 90.17, 25.201 ], [ 90.184, 25.199 ], [ 90.195, 25.208 ], [ 90.209, 25.205 ], [ 90.213, 25.193 ], [ 90.227, 25.19 ], [ 90.237, 25.2 ], [ 90.252, 25.197 ], [ 90.256, 25.185 ], [ 90.27, 25.182 ], [ 90.28, 25.191 ], [ 90.294, 25.188 ], [ 90.298, 25.176 ], [ 90.313, 25.173 ], [ 90.323, 25.183 ], [ 90.337, 25.18 ], [ 90.341, 25.168 ], [ 90.355, 25.165 ], [ 90.359, 25.153 ], [ 90.374, 25.15 ], [ 90.384, 25.159 ], [ 90.398, 25.156 ], [ 90.402, 25.144 ], [ 90.416, 25.141 ], [ 90.42, 25.129 ], [ 90.435, 25.126 ], [ 90.445, 25.136 ], [ 90.459, 25.133 ], [ 90.469, 25.142 ], [ 90.484, 25.139 ], [ 90.494, 25.149 ], [ 90.508, 25.146 ], [ 90.518, 25.156 ], [ 90.533, 25.153 ], [ 90.543, 25.162 ], [ 90.557, 25.159 ], [ 90.561, 25.147 ], [ 90.575, 25.144 ], [ 90.586, 25.154 ], [ 90.6, 25.151 ], [ 90.61, 25.16 ], [ 90.625, 25.157 ], [ 90.635, 25.167 ], [ 90.649, 25.164 ], [ 90.653, 25.152 ], [ 90.667, 25.149 ], [ 90.678, 25.158 ], [ 90.692, 25.156 ], [ 90.696, 25.143 ], [ 90.71, 25.14 ], [ 90.72, 25.15 ], [ 90.735, 25.147 ], [ 90.745, 25.156 ], [ 90.759, 25.154 ], [ 90.769, 25.163 ], [ 90.784, 25.16 ], [ 90.794, 25.17 ], [ 90.808, 25.167 ], [ 90.812, 25.154 ], [ 90.826, 25.152 ], [ 90.83, 25.139 ], [ 90.845, 25.136 ], [ 90.855, 25.146 ], [ 90.869, 25.143 ], [ 90.88, 25.152 ], [ 90.894, 25.15 ], [ 90.904, 25.159 ], [ 90.918, 25.156 ], [ 90.929, 25.166 ], [ 90.943, 25.163 ], [ 90.947, 25.15 ], [ 90.961, 25.147 ], [ 90.971, 25.157 ], [ 90.986, 25.154 ], [ 90.996, 25.163 ], [ 91.01, 25.161 ], [ 91.021, 25.17 ], [ 91.035, 25.167 ], [ 91.045, 25.177 ], [ 91.059, 25.174 ], [ 91.07, 25.183 ], [ 91.084, 25.18 ], [ 91.094, 25.19 ], [ 91.109, 25.187 ], [ 91.112, 25.174 ], [ 91.127, 25.172 ], [ 91.137, 25.181 ], [ 91.151, 25.178 ], [ 91.162, 25.188 ], [ 91.176, 25.185 ], [ 91.186, 25.194 ], [ 91.2, 25.191 ], [ 91.204, 25.179 ], [ 91.219, 25.176 ], [ 91.229, 25.185 ], [ 91.243, 25.183 ], [ 91.254, 25.192 ], [ 91.268, 25.189 ], [ 91.272, 25.177 ], [ 91.286, 25.174 ], [ 91.296, 25.183 ], [ 91.311, 25.18 ], [ 91.315, 25.168 ], [ 91.329, 25.165 ], [ 91.333, 25.153 ], [ 91.347, 25.15 ], [ 91.358, 25.159 ], [ 91.372, 25.156 ], [ 91.382, 25.166 ], [ 91.396, 25.163 ], [ 91.4, 25.15 ], [ 91.415, 25.147 ], [ 91.419, 25.135 ], [ 91.433, 25.132 ], [ 91.443, 25.142 ], [ 91.458, 25.139 ], [ 91.462, 25.126 ], [ 91.476, 25.123 ], [ 91.486, 25.133 ], [ 91.5, 25.13 ], [ 91.511, 25.139 ], [ 91.525, 25.136 ], [ 91.535, 25.146 ], [ 91.55, 25.143 ], [ 91.56, 25.152 ], [ 91.574, 25.149 ], [ 91.578, 25.137 ], [ 91.592, 25.134 ], [ 91.603, 25.143 ], [ 91.617, 25.14 ], [ 91.621, 25.128 ], [ 91.635, 25.125 ], [ 91.639, 25.113 ], [ 91.654, 25.11 ], [ 91.664, 25.119 ], [ 91.678, 25.116 ], [ 91.689, 25.126 ], [ 91.703, 25.123 ], [ 91.713, 25.132 ], [ 91.727, 25.129 ], [ 91.738, 25.139 ], [ 91.752, 25.136 ], [ 91.762, 25.145 ], [ 91.777, 25.142 ], [ 91.787, 25.152 ], [ 91.801, 25.149 ], [ 91.812, 25.158 ], [ 91.826, 25.155 ], [ 91.836, 25.164 ], [ 91.851, 25.161 ], [ 91.861, 25.171 ], [ 91.875, 25.168 ], [ 91.879, 25.156 ], [ 91.893, 25.153 ], [ 91.904, 25.162 ], [ 91.918, 25.159 ], [ 91.928, 25.168 ], [ 91.943, 25.165 ], [ 91.947, 25.153 ], [ 91.961, 25.15 ], [ 91.971, 25.159 ], [ 91.986, 25.156 ], [ 91.99, 25.144 ], [ 92.004, 25.141 ], [ 92.014, 25.15 ], [ 92.01, 25.163 ], [ 92.021, 25.172 ], [ 92.035, 25.169 ], [ 92.039, 25.157 ], [ 92.053, 25.154 ], [ 92.063, 25.163 ], [ 92.078, 25.16 ], [ 92.082, 25.148 ], [ 92.096, 25.145 ], [ 92.106, 25.154 ], [ 92.121, 25.151 ], [ 92.125, 25.139 ], [ 92.114, 25.13 ], [ 92.118, 25.117 ], [ 92.133, 25.114 ], [ 92.136, 25.102 ], [ 92.151, 25.099 ], [ 92.161, 25.108 ], [ 92.175, 25.105 ], [ 92.179, 25.093 ], [ 92.194, 25.09 ], [ 92.198, 25.077 ], [ 92.212, 25.074 ], [ 92.222, 25.084 ], [ 92.237, 25.081 ], [ 92.241, 25.068 ], [ 92.255, 25.065 ], [ 92.265, 25.075 ], [ 92.279, 25.072 ], [ 92.283, 25.059 ], [ 92.298, 25.056 ], [ 92.308, 25.066 ], [ 92.322, 25.063 ], [ 92.326, 25.05 ], [ 92.341, 25.047 ], [ 92.345, 25.035 ], [ 92.359, 25.032 ], [ 92.369, 25.041 ], [ 92.384, 25.038 ], [ 92.387, 25.026 ], [ 92.402, 25.023 ], [ 92.412, 25.032 ], [ 92.408, 25.044 ], [ 92.394, 25.047 ], [ 92.39, 25.06 ], [ 92.376, 25.063 ], [ 92.365, 25.053 ], [ 92.351, 25.056 ], [ 92.347, 25.069 ], [ 92.333, 25.072 ], [ 92.329, 25.084 ], [ 92.314, 25.087 ], [ 92.304, 25.078 ], [ 92.29, 25.081 ], [ 92.286, 25.093 ], [ 92.272, 25.096 ], [ 92.261, 25.087 ], [ 92.247, 25.09 ], [ 92.243, 25.102 ], [ 92.229, 25.105 ], [ 92.225, 25.118 ], [ 92.21, 25.121 ], [ 92.206, 25.133 ], [ 92.192, 25.136 ], [ 92.182, 25.127 ], [ 92.168, 25.13 ], [ 92.164, 25.142 ], [ 92.149, 25.145 ], [ 92.145, 25.158 ], [ 92.131, 25.161 ], [ 92.127, 25.173 ], [ 92.113, 25.176 ], [ 92.109, 25.188 ], [ 92.095, 25.191 ], [ 92.084, 25.182 ], [ 92.07, 25.185 ], [ 92.066, 25.197 ], [ 92.052, 25.2 ], [ 92.041, 25.191 ], [ 92.027, 25.194 ], [ 92.023, 25.206 ], [ 92.009, 25.209 ], [ 91.998, 25.2 ], [ 91.984, 25.203 ], [ 91.974, 25.194 ], [ 91.959, 25.197 ], [ 91.949, 25.187 ], [ 91.935, 25.19 ], [ 91.924, 25.181 ], [ 91.91, 25.184 ], [ 91.906, 25.196 ], [ 91.892, 25.199 ], [ 91.882, 25.19 ], [ 91.867, 25.193 ], [ 91.857, 25.183 ], [ 91.843, 25.186 ], [ 91.832, 25.177 ], [ 91.818, 25.18 ], [ 91.808, 25.17 ], [ 91.793, 25.173 ], [ 91.783, 25.164 ], [ 91.769, 25.167 ], [ 91.765, 25.179 ], [ 91.75, 25.182 ], [ 91.74, 25.173 ], [ 91.726, 25.176 ], [ 91.716, 25.166 ], [ 91.701, 25.169 ], [ 91.691, 25.16 ], [ 91.677, 25.163 ], [ 91.666, 25.153 ], [ 91.652, 25.156 ], [ 91.648, 25.169 ], [ 91.634, 25.172 ], [ 91.63, 25.184 ], [ 91.615, 25.187 ], [ 91.605, 25.178 ], [ 91.591, 25.181 ], [ 91.581, 25.171 ], [ 91.566, 25.174 ], [ 91.556, 25.165 ], [ 91.542, 25.168 ], [ 91.531, 25.158 ], [ 91.517, 25.161 ], [ 91.507, 25.152 ], [ 91.492, 25.155 ], [ 91.488, 25.167 ], [ 91.474, 25.17 ], [ 91.464, 25.16 ], [ 91.45, 25.163 ], [ 91.446, 25.176 ], [ 91.431, 25.179 ], [ 91.421, 25.169 ], [ 91.407, 25.172 ], [ 91.403, 25.185 ], [ 91.388, 25.187 ], [ 91.385, 25.2 ], [ 91.395, 25.209 ], [ 91.391, 25.222 ], [ 91.377, 25.225 ], [ 91.366, 25.215 ], [ 91.352, 25.218 ], [ 91.342, 25.209 ], [ 91.327, 25.212 ], [ 91.317, 25.202 ], [ 91.303, 25.205 ] ] ] ] } },
{ "type": "Feature", "properties": { "POLYGON.ID": 917.0, "subregion": "India--Meghalaya--Narpuh WLS", "FILTER": "Meghalaya", "POLYGON": "India--Meghalaya--Narpuh WLS", "STATE": "Meghalaya", "COUNTY": "spl_region", "OWNER": null }, "geometry": { "type": "MultiPolygon", "coordinates": [ [ [ [ 92.44, 25.153 ], [ 92.426, 25.156 ], [ 92.416, 25.147 ], [ 92.42, 25.135 ], [ 92.409, 25.125 ], [ 92.395, 25.128 ], [ 92.391, 25.141 ], [ 92.377, 25.144 ], [ 92.373, 25.156 ], [ 92.358, 25.159 ], [ 92.348, 25.15 ], [ 92.334, 25.153 ], [ 92.33, 25.165 ], [ 92.315, 25.168 ], [ 92.305, 25.159 ], [ 92.291, 25.162 ], [ 92.28, 25.152 ], [ 92.266, 25.155 ], [ 92.262, 25.168 ], [ 92.248, 25.171 ], [ 92.238, 25.161 ], [ 92.223, 25.164 ], [ 92.213, 25.155 ], [ 92.217, 25.143 ], [ 92.206, 25.133 ], [ 92.21, 25.121 ], [ 92.225, 25.118 ], [ 92.229, 25.105 ], [ 92.243, 25.102 ], [ 92.247, 25.09 ], [ 92.261, 25.087 ], [ 92.272, 25.096 ], [ 92.286, 25.093 ], [ 92.29, 25.081 ], [ 92.304, 25.078 ], [ 92.314, 25.087 ], [ 92.329, 25.084 ], [ 92.333, 25.072 ], [ 92.347, 25.069 ], [ 92.351, 25.056 ], [ 92.365, 25.053 ], [ 92.376, 25.063 ], [ 92.39, 25.06 ], [ 92.394, 25.047 ], [ 92.408, 25.044 ], [ 92.412, 25.032 ], [ 92.426, 25.029 ], [ 92.437, 25.038 ], [ 92.451, 25.035 ], [ 92.461, 25.045 ], [ 92.458, 25.057 ], [ 92.468, 25.066 ], [ 92.464, 25.079 ], [ 92.474, 25.088 ], [ 92.47, 25.101 ], [ 92.481, 25.11 ], [ 92.495, 25.107 ], [ 92.505, 25.116 ], [ 92.52, 25.113 ], [ 92.53, 25.123 ], [ 92.526, 25.135 ], [ 92.512, 25.138 ], [ 92.501, 25.129 ], [ 92.487, 25.132 ], [ 92.483, 25.144 ], [ 92.469, 25.147 ], [ 92.459, 25.138 ], [ 92.444, 25.141 ], [ 92.44, 25.153 ] ] ] ] } },
{ "type": "Feature", "properties": { "POLYGON.ID": 916.0, "subregion": "India--Meghalaya--Shillong Town", "FILTER": "Meghalaya", "POLYGON": "India--Meghalaya--Shillong Town", "STATE": "Meghalaya", "COUNTY": "spl_region", "OWNER": null }, "geometry": { "type": "MultiPolygon", "coordinates": [ [ [ [ 91.859, 25.552 ], [ 91.873, 25.549 ], [ 91.884, 25.558 ], [ 91.898, 25.555 ], [ 91.902, 25.543 ], [ 91.916, 25.54 ], [ 91.927, 25.55 ], [ 91.941, 25.547 ], [ 91.951, 25.556 ], [ 91.947, 25.568 ], [ 91.958, 25.578 ], [ 91.954, 25.59 ], [ 91.939, 25.593 ], [ 91.935, 25.605 ], [ 91.921, 25.608 ], [ 91.917, 25.621 ], [ 91.903, 25.624 ], [ 91.899, 25.636 ], [ 91.884, 25.639 ], [ 91.874, 25.629 ], [ 91.878, 25.617 ], [ 91.868, 25.608 ], [ 91.853, 25.611 ], [ 91.843, 25.601 ], [ 91.847, 25.589 ], [ 91.837, 25.58 ], [ 91.841, 25.567 ], [ 91.855, 25.564 ], [ 91.859, 25.552 ] ] ] ] } },
{ "type": "Feature", "properties": { "POLYGON.ID": 915.0, "subregion": "India--Meghalaya--Umiam Lake", "FILTER": "Meghalaya", "POLYGON": "India--Meghalaya--Umiam Lake", "STATE": "Meghalaya", "COUNTY": "spl_region", "OWNER": null }, "geometry": { "type": "MultiPolygon", "coordinates": [ [ [ [ 91.831, 25.638 ], [ 91.835, 25.626 ], [ 91.849, 25.623 ], [ 91.853, 25.611 ], [ 91.868, 25.608 ], [ 91.878, 25.617 ], [ 91.874, 25.629 ], [ 91.884, 25.639 ], [ 91.899, 25.636 ], [ 91.909, 25.645 ], [ 91.905, 25.658 ], [ 91.916, 25.667 ], [ 91.912, 25.679 ], [ 91.897, 25.682 ], [ 91.887, 25.673 ], [ 91.873, 25.676 ], [ 91.862, 25.666 ], [ 91.848, 25.669 ], [ 91.838, 25.66 ], [ 91.841, 25.648 ], [ 91.831, 25.638 ] ] ] ] } },
{ "type": "Feature", "properties": { "POLYGON.ID": 914.0, "subregion": "India--Meghalaya--high elevations", "FILTER": "Meghalaya", "POLYGON": "India--Meghalaya--high elevations", "STATE": "Meghalaya", "COUNTY": "spl_region", "OWNER": null }, "geometry": { "type": "MultiPolygon", "coordinates": [ [ [ [ 91.264, 25.489 ], [ 91.268, 25.477 ], [ 91.258, 25.468 ], [ 91.262, 25.455 ], [ 91.276, 25.452 ], [ 91.28, 25.44 ], [ 91.27, 25.431 ], [ 91.274, 25.418 ], [ 91.264, 25.409 ], [ 91.268, 25.397 ], [ 91.282, 25.394 ], [ 91.286, 25.381 ], [ 91.3, 25.379 ], [ 91.304, 25.366 ], [ 91.319, 25.363 ], [ 91.329, 25.373 ], [ 91.343, 25.37 ], [ 91.353, 25.379 ], [ 91.368, 25.376 ], [ 91.372, 25.364 ], [ 91.361, 25.355 ], [ 91.365, 25.342 ], [ 91.355, 25.333 ], [ 91.341, 25.336 ], [ 91.33, 25.326 ], [ 91.334, 25.314 ], [ 91.349, 25.311 ], [ 91.359, 25.32 ], [ 91.373, 25.318 ], [ 91.377, 25.305 ], [ 91.392, 25.302 ], [ 91.402, 25.312 ], [ 91.416, 25.309 ], [ 91.427, 25.318 ], [ 91.441, 25.315 ], [ 91.445, 25.303 ], [ 91.459, 25.3 ], [ 91.469, 25.309 ], [ 91.465, 25.322 ], [ 91.476, 25.331 ], [ 91.49, 25.328 ], [ 91.494, 25.316 ], [ 91.508, 25.313 ], [ 91.512, 25.301 ], [ 91.502, 25.291 ], [ 91.506, 25.279 ], [ 91.52, 25.276 ], [ 91.524, 25.264 ], [ 91.514, 25.254 ], [ 91.518, 25.242 ], [ 91.532, 25.239 ], [ 91.536, 25.226 ], [ 91.55, 25.224 ], [ 91.561, 25.233 ], [ 91.575, 25.23 ], [ 91.585, 25.239 ], [ 91.581, 25.252 ], [ 91.592, 25.261 ], [ 91.588, 25.274 ], [ 91.598, 25.283 ], [ 91.612, 25.28 ], [ 91.623, 25.289 ], [ 91.619, 25.302 ], [ 91.629, 25.311 ], [ 91.625, 25.324 ], [ 91.611, 25.327 ], [ 91.607, 25.339 ], [ 91.617, 25.348 ], [ 91.631, 25.345 ], [ 91.642, 25.355 ], [ 91.638, 25.367 ], [ 91.648, 25.377 ], [ 91.662, 25.374 ], [ 91.666, 25.361 ], [ 91.681, 25.358 ], [ 91.685, 25.346 ], [ 91.674, 25.337 ], [ 91.678, 25.324 ], [ 91.668, 25.315 ], [ 91.654, 25.318 ], [ 91.643, 25.308 ], [ 91.647, 25.296 ], [ 91.637, 25.287 ], [ 91.641, 25.274 ], [ 91.655, 25.271 ], [ 91.659, 25.259 ], [ 91.673, 25.256 ], [ 91.677, 25.244 ], [ 91.692, 25.241 ], [ 91.696, 25.228 ], [ 91.71, 25.225 ], [ 91.714, 25.213 ], [ 91.728, 25.21 ], [ 91.739, 25.219 ], [ 91.753, 25.216 ], [ 91.763, 25.226 ], [ 91.759, 25.238 ], [ 91.77, 25.248 ], [ 91.766, 25.26 ], [ 91.751, 25.263 ], [ 91.747, 25.275 ], [ 91.758, 25.285 ], [ 91.754, 25.297 ], [ 91.764, 25.306 ], [ 91.778, 25.303 ], [ 91.789, 25.313 ], [ 91.785, 25.325 ], [ 91.795, 25.335 ], [ 91.791, 25.347 ], [ 91.777, 25.35 ], [ 91.773, 25.362 ], [ 91.783, 25.372 ], [ 91.797, 25.369 ], [ 91.808, 25.378 ], [ 91.804, 25.391 ], [ 91.814, 25.4 ], [ 91.829, 25.397 ], [ 91.839, 25.406 ], [ 91.853, 25.403 ], [ 91.864, 25.413 ], [ 91.86, 25.425 ], [ 91.87, 25.435 ], [ 91.884, 25.432 ], [ 91.895, 25.441 ], [ 91.909, 25.438 ], [ 91.919, 25.447 ], [ 91.934, 25.444 ], [ 91.937, 25.432 ], [ 91.952, 25.429 ], [ 91.962, 25.438 ], [ 91.976, 25.435 ], [ 91.98, 25.423 ], [ 91.995, 25.42 ], [ 91.999, 25.408 ], [ 92.013, 25.405 ], [ 92.023, 25.414 ], [ 92.038, 25.411 ], [ 92.042, 25.399 ], [ 92.031, 25.389 ], [ 92.035, 25.377 ], [ 92.025, 25.368 ], [ 92.029, 25.355 ], [ 92.018, 25.346 ], [ 92.022, 25.334 ], [ 92.037, 25.331 ], [ 92.047, 25.34 ], [ 92.061, 25.337 ], [ 92.072, 25.346 ], [ 92.086, 25.343 ], [ 92.096, 25.353 ], [ 92.111, 25.35 ], [ 92.121, 25.359 ], [ 92.135, 25.356 ], [ 92.139, 25.344 ], [ 92.129, 25.334 ], [ 92.133, 25.322 ], [ 92.123, 25.313 ], [ 92.108, 25.316 ], [ 92.098, 25.306 ], [ 92.084, 25.309 ], [ 92.073, 25.3 ], [ 92.059, 25.303 ], [ 92.049, 25.294 ], [ 92.034, 25.297 ], [ 92.024, 25.287 ], [ 92.01, 25.29 ], [ 91.999, 25.281 ], [ 92.003, 25.268 ], [ 91.993, 25.259 ], [ 91.997, 25.247 ], [ 92.011, 25.244 ], [ 92.022, 25.253 ], [ 92.036, 25.25 ], [ 92.046, 25.259 ], [ 92.06, 25.256 ], [ 92.064, 25.244 ], [ 92.079, 25.241 ], [ 92.089, 25.25 ], [ 92.103, 25.247 ], [ 92.107, 25.235 ], [ 92.122, 25.232 ], [ 92.126, 25.22 ], [ 92.14, 25.217 ], [ 92.144, 25.204 ], [ 92.158, 25.201 ], [ 92.168, 25.211 ], [ 92.183, 25.208 ], [ 92.187, 25.195 ], [ 92.201, 25.192 ], [ 92.211, 25.202 ], [ 92.226, 25.199 ], [ 92.236, 25.208 ], [ 92.25, 25.205 ], [ 92.254, 25.193 ], [ 92.269, 25.19 ], [ 92.279, 25.199 ], [ 92.275, 25.211 ], [ 92.285, 25.221 ], [ 92.3, 25.218 ], [ 92.31, 25.227 ], [ 92.306, 25.24 ], [ 92.316, 25.249 ], [ 92.331, 25.246 ], [ 92.341, 25.255 ], [ 92.337, 25.268 ], [ 92.348, 25.277 ], [ 92.362, 25.274 ], [ 92.372, 25.283 ], [ 92.368, 25.296 ], [ 92.379, 25.305 ], [ 92.393, 25.302 ], [ 92.403, 25.311 ], [ 92.418, 25.308 ], [ 92.422, 25.296 ], [ 92.436, 25.293 ], [ 92.44, 25.281 ], [ 92.454, 25.278 ], [ 92.458, 25.265 ], [ 92.472, 25.262 ], [ 92.483, 25.272 ], [ 92.497, 25.269 ], [ 92.501, 25.256 ], [ 92.515, 25.253 ], [ 92.526, 25.262 ], [ 92.54, 25.259 ], [ 92.55, 25.269 ], [ 92.547, 25.281 ], [ 92.557, 25.291 ], [ 92.553, 25.303 ], [ 92.563, 25.312 ], [ 92.559, 25.325 ], [ 92.57, 25.334 ], [ 92.584, 25.331 ], [ 92.595, 25.34 ], [ 92.591, 25.353 ], [ 92.601, 25.362 ], [ 92.597, 25.375 ], [ 92.583, 25.378 ], [ 92.579, 25.39 ], [ 92.589, 25.399 ], [ 92.585, 25.412 ], [ 92.571, 25.415 ], [ 92.567, 25.427 ], [ 92.577, 25.436 ], [ 92.573, 25.449 ], [ 92.559, 25.452 ], [ 92.555, 25.464 ], [ 92.541, 25.467 ], [ 92.53, 25.458 ], [ 92.516, 25.461 ], [ 92.506, 25.452 ], [ 92.491, 25.455 ], [ 92.487, 25.467 ], [ 92.473, 25.47 ], [ 92.463, 25.461 ], [ 92.448, 25.464 ], [ 92.438, 25.454 ], [ 92.424, 25.457 ], [ 92.42, 25.47 ], [ 92.405, 25.473 ], [ 92.395, 25.463 ], [ 92.381, 25.466 ], [ 92.37, 25.457 ], [ 92.356, 25.46 ], [ 92.352, 25.472 ], [ 92.338, 25.475 ], [ 92.327, 25.466 ], [ 92.313, 25.469 ], [ 92.303, 25.46 ], [ 92.288, 25.463 ], [ 92.278, 25.453 ], [ 92.264, 25.456 ], [ 92.26, 25.469 ], [ 92.245, 25.472 ], [ 92.235, 25.462 ], [ 92.221, 25.465 ], [ 92.21, 25.456 ], [ 92.196, 25.459 ], [ 92.192, 25.471 ], [ 92.178, 25.474 ], [ 92.174, 25.487 ], [ 92.16, 25.49 ], [ 92.156, 25.502 ], [ 92.141, 25.505 ], [ 92.137, 25.517 ], [ 92.148, 25.527 ], [ 92.144, 25.539 ], [ 92.129, 25.542 ], [ 92.125, 25.554 ], [ 92.136, 25.564 ], [ 92.132, 25.576 ], [ 92.118, 25.579 ], [ 92.114, 25.591 ], [ 92.124, 25.601 ], [ 92.12, 25.613 ], [ 92.13, 25.622 ], [ 92.126, 25.635 ], [ 92.112, 25.638 ], [ 92.102, 25.628 ], [ 92.087, 25.631 ], [ 92.083, 25.644 ], [ 92.069, 25.647 ], [ 92.059, 25.637 ], [ 92.044, 25.64 ], [ 92.034, 25.631 ], [ 92.02, 25.634 ], [ 92.016, 25.646 ], [ 92.001, 25.649 ], [ 91.991, 25.64 ], [ 91.977, 25.643 ], [ 91.973, 25.655 ], [ 91.958, 25.658 ], [ 91.948, 25.649 ], [ 91.934, 25.652 ], [ 91.923, 25.642 ], [ 91.909, 25.645 ], [ 91.899, 25.636 ], [ 91.903, 25.624 ], [ 91.917, 25.621 ], [ 91.921, 25.608 ], [ 91.935, 25.605 ], [ 91.939, 25.593 ], [ 91.954, 25.59 ], [ 91.958, 25.578 ], [ 91.947, 25.568 ], [ 91.951, 25.556 ], [ 91.941, 25.547 ], [ 91.927, 25.55 ], [ 91.916, 25.54 ], [ 91.902, 25.543 ], [ 91.898, 25.555 ], [ 91.884, 25.558 ], [ 91.873, 25.549 ], [ 91.859, 25.552 ], [ 91.855, 25.564 ], [ 91.841, 25.567 ], [ 91.837, 25.58 ], [ 91.847, 25.589 ], [ 91.843, 25.601 ], [ 91.853, 25.611 ], [ 91.849, 25.623 ], [ 91.835, 25.626 ], [ 91.825, 25.617 ], [ 91.81, 25.62 ], [ 91.8, 25.61 ], [ 91.786, 25.613 ], [ 91.782, 25.625 ], [ 91.767, 25.628 ], [ 91.757, 25.619 ], [ 91.743, 25.622 ], [ 91.732, 25.613 ], [ 91.718, 25.616 ], [ 91.714, 25.628 ], [ 91.725, 25.637 ], [ 91.721, 25.65 ], [ 91.731, 25.659 ], [ 91.727, 25.671 ], [ 91.713, 25.674 ], [ 91.709, 25.686 ], [ 91.694, 25.689 ], [ 91.684, 25.68 ], [ 91.67, 25.683 ], [ 91.659, 25.674 ], [ 91.645, 25.677 ], [ 91.635, 25.667 ], [ 91.62, 25.67 ], [ 91.61, 25.661 ], [ 91.614, 25.648 ], [ 91.604, 25.639 ], [ 91.608, 25.627 ], [ 91.597, 25.617 ], [ 91.601, 25.605 ], [ 91.591, 25.596 ], [ 91.595, 25.583 ], [ 91.609, 25.58 ], [ 91.613, 25.568 ], [ 91.603, 25.559 ], [ 91.607, 25.546 ], [ 91.596, 25.537 ], [ 91.582, 25.54 ], [ 91.572, 25.53 ], [ 91.558, 25.533 ], [ 91.547, 25.524 ], [ 91.533, 25.527 ], [ 91.529, 25.539 ], [ 91.515, 25.542 ], [ 91.504, 25.533 ], [ 91.49, 25.536 ], [ 91.48, 25.526 ], [ 91.465, 25.529 ], [ 91.461, 25.541 ], [ 91.447, 25.544 ], [ 91.437, 25.535 ], [ 91.422, 25.538 ], [ 91.418, 25.55 ], [ 91.404, 25.553 ], [ 91.4, 25.565 ], [ 91.386, 25.568 ], [ 91.382, 25.581 ], [ 91.368, 25.584 ], [ 91.364, 25.596 ], [ 91.349, 25.599 ], [ 91.339, 25.589 ], [ 91.325, 25.592 ], [ 91.314, 25.583 ], [ 91.3, 25.586 ], [ 91.29, 25.576 ], [ 91.294, 25.564 ], [ 91.283, 25.555 ], [ 91.287, 25.542 ], [ 91.302, 25.539 ], [ 91.306, 25.527 ], [ 91.295, 25.518 ], [ 91.299, 25.505 ], [ 91.289, 25.496 ], [ 91.275, 25.499 ], [ 91.264, 25.489 ] ] ] ] } },
{ "type": "Feature", "properties": { "POLYGON.ID": 913.0, "subregion": "India--Meghalaya--Songsak RF", "FILTER": "Meghalaya", "POLYGON": "India--Meghalaya--Songsak RF", "STATE": "Meghalaya", "COUNTY": "spl_region", "OWNER": null }, "geometry": { "type": "MultiPolygon", "coordinates": [ [ [ [ 90.663, 25.656 ], [ 90.659, 25.668 ], [ 90.669, 25.678 ], [ 90.665, 25.69 ], [ 90.651, 25.693 ], [ 90.647, 25.705 ], [ 90.632, 25.708 ], [ 90.622, 25.698 ], [ 90.608, 25.701 ], [ 90.597, 25.692 ], [ 90.601, 25.68 ], [ 90.591, 25.67 ], [ 90.595, 25.658 ], [ 90.609, 25.655 ], [ 90.613, 25.643 ], [ 90.628, 25.64 ], [ 90.632, 25.628 ], [ 90.646, 25.625 ], [ 90.65, 25.613 ], [ 90.664, 25.61 ], [ 90.675, 25.619 ], [ 90.671, 25.631 ], [ 90.681, 25.641 ], [ 90.677, 25.653 ], [ 90.663, 25.656 ] ] ] ] } },
{ "type": "Feature", "properties": { "POLYGON.ID": 911.0, "subregion": "India--Meghalaya--Nokrek NP", "FILTER": "Meghalaya", "POLYGON": "India--Meghalaya--Nokrek NP", "STATE": "Meghalaya", "COUNTY": "spl_region", "OWNER": null }, "geometry": { "type": "MultiPolygon", "coordinates": [ [ [ [ 90.321, 25.517 ], [ 90.306, 25.52 ], [ 90.302, 25.532 ], [ 90.288, 25.535 ], [ 90.278, 25.525 ], [ 90.264, 25.528 ], [ 90.26, 25.54 ], [ 90.245, 25.543 ], [ 90.235, 25.534 ], [ 90.221, 25.536 ], [ 90.211, 25.527 ], [ 90.215, 25.515 ], [ 90.204, 25.505 ], [ 90.208, 25.493 ], [ 90.223, 25.49 ], [ 90.227, 25.478 ], [ 90.241, 25.475 ], [ 90.245, 25.463 ], [ 90.259, 25.46 ], [ 90.269, 25.469 ], [ 90.284, 25.467 ], [ 90.288, 25.454 ], [ 90.302, 25.452 ], [ 90.306, 25.439 ], [ 90.32, 25.436 ], [ 90.331, 25.446 ], [ 90.345, 25.443 ], [ 90.349, 25.431 ], [ 90.363, 25.428 ], [ 90.373, 25.438 ], [ 90.388, 25.435 ], [ 90.392, 25.422 ], [ 90.406, 25.42 ], [ 90.416, 25.429 ], [ 90.43, 25.426 ], [ 90.441, 25.436 ], [ 90.455, 25.433 ], [ 90.459, 25.421 ], [ 90.473, 25.418 ], [ 90.477, 25.406 ], [ 90.491, 25.403 ], [ 90.502, 25.412 ], [ 90.516, 25.409 ], [ 90.52, 25.397 ], [ 90.534, 25.394 ], [ 90.545, 25.404 ], [ 90.559, 25.401 ], [ 90.563, 25.389 ], [ 90.577, 25.386 ], [ 90.587, 25.395 ], [ 90.602, 25.392 ], [ 90.606, 25.38 ], [ 90.62, 25.377 ], [ 90.63, 25.387 ], [ 90.644, 25.384 ], [ 90.648, 25.372 ], [ 90.663, 25.369 ], [ 90.673, 25.378 ], [ 90.669, 25.39 ], [ 90.679, 25.4 ], [ 90.675, 25.412 ], [ 90.685, 25.422 ], [ 90.681, 25.434 ], [ 90.667, 25.437 ], [ 90.663, 25.449 ], [ 90.649, 25.452 ], [ 90.639, 25.442 ], [ 90.624, 25.445 ], [ 90.62, 25.458 ], [ 90.606, 25.46 ], [ 90.596, 25.451 ], [ 90.582, 25.454 ], [ 90.578, 25.466 ], [ 90.563, 25.469 ], [ 90.559, 25.481 ], [ 90.545, 25.484 ], [ 90.535, 25.475 ], [ 90.52, 25.477 ], [ 90.516, 25.49 ], [ 90.527, 25.499 ], [ 90.523, 25.511 ], [ 90.508, 25.514 ], [ 90.498, 25.505 ], [ 90.484, 25.508 ], [ 90.474, 25.498 ], [ 90.459, 25.501 ], [ 90.449, 25.492 ], [ 90.435, 25.494 ], [ 90.425, 25.485 ], [ 90.41, 25.488 ], [ 90.406, 25.5 ], [ 90.392, 25.503 ], [ 90.388, 25.515 ], [ 90.374, 25.518 ], [ 90.37, 25.53 ], [ 90.38, 25.54 ], [ 90.376, 25.552 ], [ 90.362, 25.555 ], [ 90.352, 25.545 ], [ 90.337, 25.548 ], [ 90.327, 25.539 ], [ 90.331, 25.526 ], [ 90.321, 25.517 ] ] ] ] } },
{ "type": "Feature", "properties": { "POLYGON.ID": 912.0, "subregion": "India--Meghalaya--Balpakram NP", "FILTER": "Meghalaya", "POLYGON": "India--Meghalaya--Balpakram NP", "STATE": "Meghalaya", "COUNTY": "spl_region", "OWNER": null }, "geometry": { "type": "MultiPolygon", "coordinates": [ [ [ [ 91.09, 25.202 ], [ 91.101, 25.212 ], [ 91.097, 25.224 ], [ 91.107, 25.233 ], [ 91.103, 25.246 ], [ 91.113, 25.255 ], [ 91.109, 25.267 ], [ 91.095, 25.27 ], [ 91.091, 25.283 ], [ 91.101, 25.292 ], [ 91.115, 25.289 ], [ 91.126, 25.299 ], [ 91.122, 25.311 ], [ 91.132, 25.32 ], [ 91.128, 25.333 ], [ 91.114, 25.336 ], [ 91.11, 25.348 ], [ 91.096, 25.351 ], [ 91.085, 25.341 ], [ 91.071, 25.344 ], [ 91.067, 25.357 ], [ 91.053, 25.36 ], [ 91.042, 25.35 ], [ 91.028, 25.353 ], [ 91.024, 25.365 ], [ 91.01, 25.368 ], [ 91.006, 25.381 ], [ 91.016, 25.39 ], [ 91.03, 25.387 ], [ 91.041, 25.397 ], [ 91.055, 25.394 ], [ 91.065, 25.403 ], [ 91.061, 25.415 ], [ 91.072, 25.425 ], [ 91.068, 25.437 ], [ 91.053, 25.44 ], [ 91.049, 25.452 ], [ 91.035, 25.455 ], [ 91.025, 25.446 ], [ 91.011, 25.449 ], [ 91.007, 25.461 ], [ 90.992, 25.464 ], [ 90.988, 25.476 ], [ 90.974, 25.479 ], [ 90.97, 25.491 ], [ 90.956, 25.494 ], [ 90.945, 25.485 ], [ 90.931, 25.488 ], [ 90.921, 25.478 ], [ 90.925, 25.466 ], [ 90.915, 25.456 ], [ 90.9, 25.459 ], [ 90.89, 25.45 ], [ 90.894, 25.438 ], [ 90.884, 25.428 ], [ 90.869, 25.431 ], [ 90.859, 25.422 ], [ 90.845, 25.424 ], [ 90.835, 25.415 ], [ 90.82, 25.418 ], [ 90.81, 25.408 ], [ 90.796, 25.411 ], [ 90.785, 25.402 ], [ 90.771, 25.405 ], [ 90.761, 25.395 ], [ 90.765, 25.383 ], [ 90.755, 25.373 ], [ 90.74, 25.376 ], [ 90.73, 25.367 ], [ 90.716, 25.37 ], [ 90.705, 25.36 ], [ 90.709, 25.348 ], [ 90.699, 25.338 ], [ 90.685, 25.341 ], [ 90.675, 25.332 ], [ 90.679, 25.319 ], [ 90.668, 25.31 ], [ 90.672, 25.298 ], [ 90.687, 25.295 ], [ 90.691, 25.283 ], [ 90.705, 25.28 ], [ 90.709, 25.267 ], [ 90.723, 25.264 ], [ 90.733, 25.274 ], [ 90.748, 25.271 ], [ 90.752, 25.259 ], [ 90.766, 25.256 ], [ 90.77, 25.244 ], [ 90.784, 25.241 ], [ 90.788, 25.228 ], [ 90.803, 25.226 ], [ 90.807, 25.213 ], [ 90.821, 25.21 ], [ 90.825, 25.198 ], [ 90.839, 25.195 ], [ 90.843, 25.183 ], [ 90.857, 25.18 ], [ 90.868, 25.189 ], [ 90.882, 25.187 ], [ 90.892, 25.196 ], [ 90.906, 25.193 ], [ 90.917, 25.203 ], [ 90.931, 25.2 ], [ 90.935, 25.187 ], [ 90.949, 25.184 ], [ 90.959, 25.194 ], [ 90.974, 25.191 ], [ 90.984, 25.201 ], [ 90.998, 25.198 ], [ 91.009, 25.207 ], [ 91.023, 25.204 ], [ 91.033, 25.214 ], [ 91.047, 25.211 ], [ 91.058, 25.22 ], [ 91.072, 25.217 ], [ 91.076, 25.205 ], [ 91.09, 25.202 ] ] ] ] } }
]
}
