{
"type": "FeatureCollection",
"name": "Mizoram",
"crs": { "type": "name", "properties": { "name": "urn:ogc:def:crs:OGC:1.3:CRS84" } },
"features": [
{ "type": "Feature", "properties": { "POLYGON.ID": 218.0, "subregion": "India--Mizoram--Mamit--mid elevations", "POLYGON": "India--Mizoram--Mamit--mid elevations", "SHOW": "1", "FILTER": "Not-Assigned", "FILTER.ID": null, "OLD.POLYGON": null, "STATE": "Mizoram", "COUNTY": "Mamit", "OWNER": null }, "geometry": { "type": "MultiPolygon", "coordinates": [ [ [ [ 92.693, 23.372 ], [ 92.678, 23.375 ], [ 92.675, 23.387 ], [ 92.66, 23.391 ], [ 92.656, 23.403 ], [ 92.667, 23.413 ], [ 92.663, 23.425 ], [ 92.649, 23.428 ], [ 92.645, 23.441 ], [ 92.655, 23.45 ], [ 92.651, 23.463 ], [ 92.661, 23.473 ], [ 92.658, 23.485 ], [ 92.668, 23.495 ], [ 92.664, 23.507 ], [ 92.65, 23.51 ], [ 92.646, 23.523 ], [ 92.632, 23.526 ], [ 92.628, 23.539 ], [ 92.638, 23.548 ], [ 92.652, 23.545 ], [ 92.663, 23.555 ], [ 92.659, 23.567 ], [ 92.644, 23.57 ], [ 92.64, 23.583 ], [ 92.651, 23.592 ], [ 92.665, 23.589 ], [ 92.675, 23.599 ], [ 92.671, 23.611 ], [ 92.657, 23.614 ], [ 92.653, 23.627 ], [ 92.639, 23.63 ], [ 92.635, 23.643 ], [ 92.645, 23.652 ], [ 92.642, 23.665 ], [ 92.652, 23.674 ], [ 92.648, 23.687 ], [ 92.658, 23.696 ], [ 92.654, 23.709 ], [ 92.64, 23.712 ], [ 92.636, 23.725 ], [ 92.647, 23.734 ], [ 92.643, 23.747 ], [ 92.628, 23.75 ], [ 92.625, 23.762 ], [ 92.61, 23.765 ], [ 92.6, 23.756 ], [ 92.586, 23.759 ], [ 92.582, 23.772 ], [ 92.592, 23.781 ], [ 92.588, 23.794 ], [ 92.599, 23.803 ], [ 92.595, 23.816 ], [ 92.605, 23.825 ], [ 92.601, 23.838 ], [ 92.611, 23.847 ], [ 92.607, 23.86 ], [ 92.618, 23.869 ], [ 92.614, 23.882 ], [ 92.624, 23.891 ], [ 92.62, 23.904 ], [ 92.606, 23.907 ], [ 92.602, 23.92 ], [ 92.612, 23.929 ], [ 92.609, 23.942 ], [ 92.619, 23.951 ], [ 92.615, 23.964 ], [ 92.625, 23.973 ], [ 92.621, 23.986 ], [ 92.632, 23.995 ], [ 92.628, 24.008 ], [ 92.638, 24.017 ], [ 92.634, 24.03 ], [ 92.62, 24.033 ], [ 92.616, 24.045 ], [ 92.602, 24.048 ], [ 92.598, 24.061 ], [ 92.584, 24.064 ], [ 92.573, 24.055 ], [ 92.559, 24.058 ], [ 92.549, 24.048 ], [ 92.534, 24.051 ], [ 92.531, 24.064 ], [ 92.541, 24.073 ], [ 92.537, 24.086 ], [ 92.547, 24.095 ], [ 92.543, 24.108 ], [ 92.529, 24.111 ], [ 92.525, 24.123 ], [ 92.535, 24.133 ], [ 92.532, 24.145 ], [ 92.542, 24.155 ], [ 92.538, 24.167 ], [ 92.524, 24.17 ], [ 92.513, 24.161 ], [ 92.499, 24.164 ], [ 92.489, 24.155 ], [ 92.493, 24.142 ], [ 92.482, 24.133 ], [ 92.486, 24.12 ], [ 92.476, 24.111 ], [ 92.48, 24.098 ], [ 92.47, 24.089 ], [ 92.473, 24.076 ], [ 92.463, 24.067 ], [ 92.467, 24.054 ], [ 92.481, 24.051 ], [ 92.485, 24.039 ], [ 92.475, 24.029 ], [ 92.479, 24.017 ], [ 92.469, 24.007 ], [ 92.472, 23.995 ], [ 92.462, 23.985 ], [ 92.466, 23.972 ], [ 92.456, 23.963 ], [ 92.46, 23.95 ], [ 92.449, 23.941 ], [ 92.453, 23.928 ], [ 92.467, 23.925 ], [ 92.471, 23.913 ], [ 92.461, 23.903 ], [ 92.465, 23.891 ], [ 92.455, 23.881 ], [ 92.459, 23.869 ], [ 92.448, 23.859 ], [ 92.452, 23.847 ], [ 92.442, 23.837 ], [ 92.446, 23.825 ], [ 92.435, 23.815 ], [ 92.439, 23.803 ], [ 92.454, 23.8 ], [ 92.458, 23.787 ], [ 92.472, 23.784 ], [ 92.476, 23.771 ], [ 92.465, 23.762 ], [ 92.469, 23.749 ], [ 92.459, 23.74 ], [ 92.463, 23.727 ], [ 92.453, 23.718 ], [ 92.438, 23.721 ], [ 92.428, 23.711 ], [ 92.414, 23.714 ], [ 92.403, 23.705 ], [ 92.407, 23.692 ], [ 92.397, 23.683 ], [ 92.401, 23.67 ], [ 92.391, 23.661 ], [ 92.395, 23.648 ], [ 92.384, 23.639 ], [ 92.388, 23.626 ], [ 92.402, 23.623 ], [ 92.406, 23.61 ], [ 92.396, 23.601 ], [ 92.4, 23.588 ], [ 92.39, 23.579 ], [ 92.394, 23.566 ], [ 92.383, 23.557 ], [ 92.387, 23.544 ], [ 92.401, 23.541 ], [ 92.405, 23.529 ], [ 92.395, 23.519 ], [ 92.399, 23.506 ], [ 92.389, 23.497 ], [ 92.393, 23.484 ], [ 92.407, 23.481 ], [ 92.411, 23.469 ], [ 92.425, 23.466 ], [ 92.435, 23.475 ], [ 92.431, 23.488 ], [ 92.442, 23.497 ], [ 92.438, 23.51 ], [ 92.448, 23.519 ], [ 92.444, 23.532 ], [ 92.454, 23.541 ], [ 92.469, 23.538 ], [ 92.473, 23.526 ], [ 92.487, 23.523 ], [ 92.491, 23.51 ], [ 92.48, 23.5 ], [ 92.484, 23.488 ], [ 92.474, 23.478 ], [ 92.478, 23.466 ], [ 92.468, 23.456 ], [ 92.472, 23.444 ], [ 92.486, 23.441 ], [ 92.49, 23.428 ], [ 92.479, 23.418 ], [ 92.483, 23.406 ], [ 92.473, 23.396 ], [ 92.477, 23.384 ], [ 92.491, 23.381 ], [ 92.501, 23.39 ], [ 92.516, 23.387 ], [ 92.52, 23.374 ], [ 92.534, 23.371 ], [ 92.544, 23.381 ], [ 92.558, 23.378 ], [ 92.569, 23.387 ], [ 92.583, 23.384 ], [ 92.593, 23.393 ], [ 92.607, 23.39 ], [ 92.611, 23.378 ], [ 92.625, 23.375 ], [ 92.636, 23.384 ], [ 92.65, 23.381 ], [ 92.654, 23.368 ], [ 92.668, 23.365 ], [ 92.672, 23.353 ], [ 92.662, 23.343 ], [ 92.666, 23.331 ], [ 92.68, 23.327 ], [ 92.69, 23.337 ], [ 92.686, 23.35 ], [ 92.697, 23.359 ], [ 92.693, 23.372 ] ] ] ] } },
{ "type": "Feature", "properties": { "POLYGON.ID": 220.0, "subregion": "India--Mizoram--Champhai--mid elevations", "POLYGON": "India--Mizoram--Champhai--mid elevations", "SHOW": "1", "FILTER": "Not-Assigned", "FILTER.ID": null, "OLD.POLYGON": null, "STATE": "Mizoram", "COUNTY": "Champhai", "OWNER": null }, "geometry": { "type": "MultiPolygon", "coordinates": [ [ [ [ 93.383, 23.324 ], [ 93.394, 23.333 ], [ 93.39, 23.346 ], [ 93.4, 23.356 ], [ 93.396, 23.368 ], [ 93.407, 23.378 ], [ 93.403, 23.39 ], [ 93.413, 23.4 ], [ 93.409, 23.412 ], [ 93.395, 23.416 ], [ 93.391, 23.428 ], [ 93.402, 23.438 ], [ 93.398, 23.45 ], [ 93.408, 23.46 ], [ 93.404, 23.472 ], [ 93.414, 23.482 ], [ 93.411, 23.495 ], [ 93.421, 23.504 ], [ 93.417, 23.517 ], [ 93.427, 23.526 ], [ 93.424, 23.539 ], [ 93.434, 23.548 ], [ 93.43, 23.561 ], [ 93.416, 23.564 ], [ 93.412, 23.577 ], [ 93.398, 23.58 ], [ 93.387, 23.57 ], [ 93.373, 23.574 ], [ 93.363, 23.564 ], [ 93.348, 23.567 ], [ 93.345, 23.58 ], [ 93.33, 23.583 ], [ 93.32, 23.574 ], [ 93.306, 23.577 ], [ 93.295, 23.567 ], [ 93.281, 23.571 ], [ 93.271, 23.561 ], [ 93.256, 23.564 ], [ 93.246, 23.555 ], [ 93.232, 23.558 ], [ 93.228, 23.571 ], [ 93.214, 23.574 ], [ 93.203, 23.564 ], [ 93.189, 23.568 ], [ 93.179, 23.558 ], [ 93.183, 23.545 ], [ 93.172, 23.536 ], [ 93.158, 23.539 ], [ 93.154, 23.552 ], [ 93.14, 23.555 ], [ 93.13, 23.545 ], [ 93.115, 23.549 ], [ 93.105, 23.539 ], [ 93.109, 23.527 ], [ 93.099, 23.517 ], [ 93.102, 23.504 ], [ 93.092, 23.495 ], [ 93.096, 23.482 ], [ 93.086, 23.473 ], [ 93.09, 23.46 ], [ 93.079, 23.451 ], [ 93.083, 23.438 ], [ 93.073, 23.429 ], [ 93.077, 23.416 ], [ 93.091, 23.413 ], [ 93.095, 23.4 ], [ 93.109, 23.397 ], [ 93.113, 23.385 ], [ 93.103, 23.375 ], [ 93.107, 23.362 ], [ 93.096, 23.353 ], [ 93.1, 23.34 ], [ 93.09, 23.331 ], [ 93.094, 23.318 ], [ 93.083, 23.309 ], [ 93.087, 23.296 ], [ 93.077, 23.287 ], [ 93.063, 23.29 ], [ 93.052, 23.28 ], [ 93.038, 23.283 ], [ 93.028, 23.274 ], [ 93.032, 23.261 ], [ 93.046, 23.258 ], [ 93.056, 23.268 ], [ 93.07, 23.264 ], [ 93.074, 23.252 ], [ 93.089, 23.249 ], [ 93.092, 23.236 ], [ 93.107, 23.233 ], [ 93.111, 23.22 ], [ 93.125, 23.217 ], [ 93.129, 23.204 ], [ 93.143, 23.201 ], [ 93.147, 23.188 ], [ 93.161, 23.185 ], [ 93.165, 23.173 ], [ 93.155, 23.163 ], [ 93.158, 23.15 ], [ 93.173, 23.147 ], [ 93.177, 23.135 ], [ 93.166, 23.125 ], [ 93.17, 23.112 ], [ 93.16, 23.103 ], [ 93.164, 23.09 ], [ 93.178, 23.087 ], [ 93.182, 23.074 ], [ 93.171, 23.065 ], [ 93.175, 23.052 ], [ 93.189, 23.049 ], [ 93.193, 23.036 ], [ 93.208, 23.033 ], [ 93.211, 23.021 ], [ 93.226, 23.017 ], [ 93.23, 23.005 ], [ 93.244, 23.002 ], [ 93.248, 22.989 ], [ 93.262, 22.986 ], [ 93.272, 22.995 ], [ 93.286, 22.992 ], [ 93.297, 23.001 ], [ 93.311, 22.998 ], [ 93.321, 23.008 ], [ 93.317, 23.02 ], [ 93.328, 23.03 ], [ 93.342, 23.027 ], [ 93.352, 23.036 ], [ 93.348, 23.049 ], [ 93.359, 23.058 ], [ 93.355, 23.071 ], [ 93.365, 23.08 ], [ 93.361, 23.093 ], [ 93.372, 23.103 ], [ 93.368, 23.115 ], [ 93.378, 23.125 ], [ 93.392, 23.122 ], [ 93.403, 23.131 ], [ 93.399, 23.144 ], [ 93.385, 23.147 ], [ 93.381, 23.16 ], [ 93.391, 23.169 ], [ 93.387, 23.182 ], [ 93.398, 23.191 ], [ 93.394, 23.204 ], [ 93.404, 23.213 ], [ 93.4, 23.226 ], [ 93.386, 23.229 ], [ 93.382, 23.242 ], [ 93.392, 23.251 ], [ 93.389, 23.264 ], [ 93.374, 23.267 ], [ 93.37, 23.28 ], [ 93.381, 23.289 ], [ 93.377, 23.302 ], [ 93.387, 23.311 ], [ 93.383, 23.324 ] ] ] ] } },
{ "type": "Feature", "properties": { "POLYGON.ID": 225.0, "subregion": "India--Mizoram--Siaha (south)", "POLYGON": "India--Mizoram--Siaha (south)", "SHOW": "1", "FILTER": "Not-Assigned", "FILTER.ID": null, "OLD.POLYGON": null, "STATE": "Mizoram", "COUNTY": "Siaha", "OWNER": null }, "geometry": { "type": "MultiPolygon", "coordinates": [ [ [ [ 92.958, 22.379 ], [ 92.948, 22.37 ], [ 92.933, 22.373 ], [ 92.929, 22.386 ], [ 92.915, 22.389 ], [ 92.905, 22.379 ], [ 92.909, 22.367 ], [ 92.899, 22.357 ], [ 92.884, 22.36 ], [ 92.874, 22.351 ], [ 92.878, 22.338 ], [ 92.868, 22.328 ], [ 92.854, 22.332 ], [ 92.843, 22.322 ], [ 92.829, 22.325 ], [ 92.819, 22.316 ], [ 92.823, 22.303 ], [ 92.837, 22.3 ], [ 92.841, 22.287 ], [ 92.83, 22.277 ], [ 92.834, 22.265 ], [ 92.824, 22.255 ], [ 92.828, 22.242 ], [ 92.842, 22.239 ], [ 92.846, 22.226 ], [ 92.836, 22.217 ], [ 92.84, 22.204 ], [ 92.829, 22.195 ], [ 92.833, 22.182 ], [ 92.847, 22.179 ], [ 92.851, 22.166 ], [ 92.841, 22.156 ], [ 92.845, 22.144 ], [ 92.835, 22.134 ], [ 92.838, 22.121 ], [ 92.853, 22.118 ], [ 92.856, 22.105 ], [ 92.846, 22.096 ], [ 92.85, 22.083 ], [ 92.84, 22.073 ], [ 92.844, 22.061 ], [ 92.858, 22.057 ], [ 92.862, 22.045 ], [ 92.851, 22.035 ], [ 92.855, 22.022 ], [ 92.869, 22.019 ], [ 92.873, 22.006 ], [ 92.888, 22.003 ], [ 92.891, 21.99 ], [ 92.881, 21.981 ], [ 92.885, 21.968 ], [ 92.875, 21.958 ], [ 92.879, 21.946 ], [ 92.893, 21.942 ], [ 92.897, 21.93 ], [ 92.911, 21.926 ], [ 92.921, 21.936 ], [ 92.917, 21.949 ], [ 92.927, 21.958 ], [ 92.924, 21.971 ], [ 92.934, 21.981 ], [ 92.93, 21.993 ], [ 92.94, 22.003 ], [ 92.954, 22.0 ], [ 92.958, 21.987 ], [ 92.973, 21.984 ], [ 92.976, 21.971 ], [ 92.991, 21.968 ], [ 93.001, 21.977 ], [ 93.015, 21.974 ], [ 93.025, 21.984 ], [ 93.021, 21.997 ], [ 93.032, 22.006 ], [ 93.028, 22.019 ], [ 93.014, 22.022 ], [ 93.01, 22.035 ], [ 93.02, 22.044 ], [ 93.016, 22.057 ], [ 93.026, 22.067 ], [ 93.023, 22.08 ], [ 93.033, 22.089 ], [ 93.029, 22.102 ], [ 93.015, 22.105 ], [ 93.011, 22.118 ], [ 93.021, 22.127 ], [ 93.017, 22.14 ], [ 93.028, 22.15 ], [ 93.024, 22.163 ], [ 93.034, 22.172 ], [ 93.03, 22.185 ], [ 93.041, 22.194 ], [ 93.037, 22.207 ], [ 93.047, 22.217 ], [ 93.043, 22.229 ], [ 93.053, 22.239 ], [ 93.049, 22.252 ], [ 93.06, 22.261 ], [ 93.056, 22.274 ], [ 93.042, 22.277 ], [ 93.038, 22.29 ], [ 93.048, 22.3 ], [ 93.044, 22.312 ], [ 93.055, 22.322 ], [ 93.051, 22.335 ], [ 93.061, 22.344 ], [ 93.057, 22.357 ], [ 93.067, 22.366 ], [ 93.064, 22.379 ], [ 93.049, 22.382 ], [ 93.045, 22.395 ], [ 93.031, 22.398 ], [ 93.027, 22.411 ], [ 93.013, 22.414 ], [ 93.003, 22.405 ], [ 93.007, 22.392 ], [ 92.996, 22.382 ], [ 92.982, 22.386 ], [ 92.978, 22.398 ], [ 92.964, 22.402 ], [ 92.954, 22.392 ], [ 92.958, 22.379 ] ] ] ] } },
{ "type": "Feature", "properties": { "POLYGON.ID": 226.0, "subregion": "India--Mizoram--Lawngtlai--mid elevations", "POLYGON": "India--Mizoram--Lawngtlai--mid elevations", "SHOW": "1", "FILTER": "Not-Assigned", "FILTER.ID": null, "OLD.POLYGON": null, "STATE": "Mizoram", "COUNTY": "Lawngtlai", "OWNER": null }, "geometry": { "type": "MultiPolygon", "coordinates": [ [ [ [ 92.846, 22.226 ], [ 92.842, 22.239 ], [ 92.828, 22.242 ], [ 92.824, 22.255 ], [ 92.834, 22.265 ], [ 92.83, 22.277 ], [ 92.841, 22.287 ], [ 92.837, 22.3 ], [ 92.823, 22.303 ], [ 92.819, 22.316 ], [ 92.829, 22.325 ], [ 92.843, 22.322 ], [ 92.854, 22.332 ], [ 92.868, 22.328 ], [ 92.878, 22.338 ], [ 92.874, 22.351 ], [ 92.884, 22.36 ], [ 92.899, 22.357 ], [ 92.909, 22.367 ], [ 92.905, 22.379 ], [ 92.915, 22.389 ], [ 92.929, 22.386 ], [ 92.933, 22.373 ], [ 92.948, 22.37 ], [ 92.958, 22.379 ], [ 92.954, 22.392 ], [ 92.964, 22.402 ], [ 92.96, 22.414 ], [ 92.946, 22.417 ], [ 92.942, 22.43 ], [ 92.953, 22.44 ], [ 92.949, 22.452 ], [ 92.935, 22.456 ], [ 92.931, 22.468 ], [ 92.941, 22.478 ], [ 92.937, 22.491 ], [ 92.947, 22.5 ], [ 92.943, 22.513 ], [ 92.929, 22.516 ], [ 92.925, 22.529 ], [ 92.936, 22.538 ], [ 92.932, 22.551 ], [ 92.918, 22.554 ], [ 92.914, 22.567 ], [ 92.9, 22.57 ], [ 92.896, 22.583 ], [ 92.881, 22.586 ], [ 92.878, 22.599 ], [ 92.863, 22.602 ], [ 92.859, 22.615 ], [ 92.845, 22.618 ], [ 92.841, 22.631 ], [ 92.827, 22.634 ], [ 92.817, 22.624 ], [ 92.803, 22.627 ], [ 92.792, 22.618 ], [ 92.796, 22.605 ], [ 92.786, 22.596 ], [ 92.79, 22.583 ], [ 92.804, 22.58 ], [ 92.808, 22.567 ], [ 92.798, 22.557 ], [ 92.802, 22.545 ], [ 92.791, 22.535 ], [ 92.777, 22.538 ], [ 92.767, 22.529 ], [ 92.771, 22.516 ], [ 92.76, 22.507 ], [ 92.746, 22.51 ], [ 92.742, 22.522 ], [ 92.753, 22.532 ], [ 92.749, 22.545 ], [ 92.735, 22.548 ], [ 92.731, 22.561 ], [ 92.716, 22.564 ], [ 92.713, 22.576 ], [ 92.698, 22.58 ], [ 92.688, 22.57 ], [ 92.692, 22.557 ], [ 92.682, 22.548 ], [ 92.667, 22.551 ], [ 92.657, 22.541 ], [ 92.661, 22.529 ], [ 92.675, 22.526 ], [ 92.679, 22.513 ], [ 92.669, 22.503 ], [ 92.673, 22.491 ], [ 92.687, 22.487 ], [ 92.691, 22.475 ], [ 92.681, 22.465 ], [ 92.684, 22.452 ], [ 92.699, 22.449 ], [ 92.703, 22.437 ], [ 92.692, 22.427 ], [ 92.696, 22.414 ], [ 92.686, 22.405 ], [ 92.69, 22.392 ], [ 92.679, 22.382 ], [ 92.683, 22.37 ], [ 92.698, 22.366 ], [ 92.701, 22.354 ], [ 92.691, 22.344 ], [ 92.695, 22.331 ], [ 92.709, 22.328 ], [ 92.713, 22.316 ], [ 92.703, 22.306 ], [ 92.707, 22.293 ], [ 92.696, 22.284 ], [ 92.7, 22.271 ], [ 92.69, 22.261 ], [ 92.694, 22.249 ], [ 92.708, 22.245 ], [ 92.712, 22.233 ], [ 92.702, 22.223 ], [ 92.706, 22.21 ], [ 92.695, 22.201 ], [ 92.699, 22.188 ], [ 92.689, 22.179 ], [ 92.693, 22.166 ], [ 92.707, 22.163 ], [ 92.711, 22.15 ], [ 92.701, 22.14 ], [ 92.705, 22.128 ], [ 92.719, 22.124 ], [ 92.723, 22.112 ], [ 92.737, 22.108 ], [ 92.747, 22.118 ], [ 92.761, 22.115 ], [ 92.765, 22.102 ], [ 92.779, 22.099 ], [ 92.783, 22.086 ], [ 92.797, 22.083 ], [ 92.801, 22.07 ], [ 92.815, 22.067 ], [ 92.819, 22.054 ], [ 92.833, 22.051 ], [ 92.837, 22.038 ], [ 92.851, 22.035 ], [ 92.862, 22.045 ], [ 92.858, 22.057 ], [ 92.844, 22.061 ], [ 92.84, 22.073 ], [ 92.85, 22.083 ], [ 92.846, 22.096 ], [ 92.856, 22.105 ], [ 92.853, 22.118 ], [ 92.838, 22.121 ], [ 92.835, 22.134 ], [ 92.845, 22.144 ], [ 92.841, 22.156 ], [ 92.851, 22.166 ], [ 92.847, 22.179 ], [ 92.833, 22.182 ], [ 92.829, 22.195 ], [ 92.84, 22.204 ], [ 92.836, 22.217 ], [ 92.846, 22.226 ] ] ] ] } },
{ "type": "Feature", "properties": { "POLYGON.ID": 932.0, "subregion": "India--Mizoram--Champhai--Murlen NP and surroundings", "POLYGON": "India--Mizoram--Champhai--Murlen NP and surroundings", "SHOW": "1", "FILTER": "Not-Assigned", "FILTER.ID": null, "OLD.POLYGON": null, "STATE": "Mizoram", "COUNTY": "Champhai", "OWNER": null }, "geometry": { "type": "MultiPolygon", "coordinates": [ [ [ [ 93.413, 23.788 ], [ 93.409, 23.8 ], [ 93.42, 23.81 ], [ 93.416, 23.822 ], [ 93.402, 23.826 ], [ 93.398, 23.838 ], [ 93.408, 23.848 ], [ 93.404, 23.86 ], [ 93.39, 23.863 ], [ 93.386, 23.876 ], [ 93.396, 23.885 ], [ 93.392, 23.898 ], [ 93.403, 23.907 ], [ 93.399, 23.92 ], [ 93.409, 23.929 ], [ 93.405, 23.942 ], [ 93.391, 23.945 ], [ 93.381, 23.936 ], [ 93.367, 23.939 ], [ 93.363, 23.951 ], [ 93.373, 23.961 ], [ 93.369, 23.973 ], [ 93.355, 23.977 ], [ 93.351, 23.989 ], [ 93.361, 23.999 ], [ 93.357, 24.011 ], [ 93.343, 24.014 ], [ 93.339, 24.027 ], [ 93.35, 24.036 ], [ 93.346, 24.049 ], [ 93.332, 24.052 ], [ 93.321, 24.043 ], [ 93.307, 24.046 ], [ 93.303, 24.058 ], [ 93.289, 24.062 ], [ 93.278, 24.052 ], [ 93.264, 24.055 ], [ 93.26, 24.068 ], [ 93.246, 24.071 ], [ 93.242, 24.084 ], [ 93.228, 24.087 ], [ 93.217, 24.077 ], [ 93.203, 24.08 ], [ 93.193, 24.071 ], [ 93.178, 24.074 ], [ 93.168, 24.065 ], [ 93.154, 24.068 ], [ 93.15, 24.081 ], [ 93.136, 24.084 ], [ 93.125, 24.074 ], [ 93.129, 24.062 ], [ 93.119, 24.052 ], [ 93.105, 24.055 ], [ 93.101, 24.068 ], [ 93.086, 24.071 ], [ 93.083, 24.084 ], [ 93.068, 24.087 ], [ 93.064, 24.099 ], [ 93.05, 24.102 ], [ 93.04, 24.093 ], [ 93.025, 24.096 ], [ 93.022, 24.109 ], [ 93.007, 24.112 ], [ 92.997, 24.102 ], [ 92.983, 24.106 ], [ 92.972, 24.096 ], [ 92.976, 24.084 ], [ 92.99, 24.08 ], [ 92.994, 24.068 ], [ 92.984, 24.058 ], [ 92.988, 24.046 ], [ 92.978, 24.037 ], [ 92.981, 24.024 ], [ 92.996, 24.021 ], [ 93.0, 24.008 ], [ 92.989, 23.999 ], [ 92.993, 23.986 ], [ 93.007, 23.983 ], [ 93.011, 23.971 ], [ 93.001, 23.961 ], [ 93.005, 23.949 ], [ 92.995, 23.939 ], [ 92.998, 23.927 ], [ 93.013, 23.923 ], [ 93.017, 23.911 ], [ 93.006, 23.901 ], [ 93.01, 23.889 ], [ 93.024, 23.886 ], [ 93.028, 23.873 ], [ 93.018, 23.864 ], [ 93.022, 23.851 ], [ 93.036, 23.848 ], [ 93.04, 23.835 ], [ 93.03, 23.826 ], [ 93.034, 23.813 ], [ 93.048, 23.81 ], [ 93.052, 23.798 ], [ 93.041, 23.788 ], [ 93.027, 23.791 ], [ 93.017, 23.782 ], [ 93.021, 23.769 ], [ 93.01, 23.76 ], [ 93.014, 23.747 ], [ 93.004, 23.738 ], [ 93.008, 23.725 ], [ 92.997, 23.716 ], [ 93.001, 23.703 ], [ 92.991, 23.694 ], [ 92.995, 23.681 ], [ 92.985, 23.672 ], [ 92.988, 23.659 ], [ 92.978, 23.65 ], [ 92.982, 23.637 ], [ 92.996, 23.634 ], [ 93.0, 23.621 ], [ 92.99, 23.612 ], [ 92.994, 23.599 ], [ 93.008, 23.596 ], [ 93.012, 23.583 ], [ 93.001, 23.574 ], [ 93.005, 23.561 ], [ 93.02, 23.558 ], [ 93.024, 23.546 ], [ 93.013, 23.536 ], [ 93.017, 23.523 ], [ 93.007, 23.514 ], [ 93.011, 23.501 ], [ 93.0, 23.492 ], [ 92.986, 23.495 ], [ 92.976, 23.486 ], [ 92.98, 23.473 ], [ 92.969, 23.463 ], [ 92.973, 23.451 ], [ 92.963, 23.441 ], [ 92.967, 23.429 ], [ 92.956, 23.419 ], [ 92.96, 23.407 ], [ 92.95, 23.397 ], [ 92.954, 23.385 ], [ 92.944, 23.375 ], [ 92.947, 23.362 ], [ 92.937, 23.353 ], [ 92.941, 23.34 ], [ 92.931, 23.331 ], [ 92.935, 23.318 ], [ 92.949, 23.315 ], [ 92.953, 23.302 ], [ 92.967, 23.299 ], [ 92.971, 23.287 ], [ 92.985, 23.283 ], [ 92.989, 23.271 ], [ 93.003, 23.268 ], [ 93.013, 23.277 ], [ 93.028, 23.274 ], [ 93.038, 23.283 ], [ 93.052, 23.28 ], [ 93.063, 23.29 ], [ 93.077, 23.287 ], [ 93.087, 23.296 ], [ 93.083, 23.309 ], [ 93.094, 23.318 ], [ 93.09, 23.331 ], [ 93.1, 23.34 ], [ 93.096, 23.353 ], [ 93.107, 23.362 ], [ 93.103, 23.375 ], [ 93.113, 23.385 ], [ 93.109, 23.397 ], [ 93.095, 23.4 ], [ 93.091, 23.413 ], [ 93.077, 23.416 ], [ 93.073, 23.429 ], [ 93.083, 23.438 ], [ 93.079, 23.451 ], [ 93.09, 23.46 ], [ 93.086, 23.473 ], [ 93.096, 23.482 ], [ 93.092, 23.495 ], [ 93.102, 23.504 ], [ 93.099, 23.517 ], [ 93.109, 23.527 ], [ 93.105, 23.539 ], [ 93.115, 23.549 ], [ 93.13, 23.545 ], [ 93.14, 23.555 ], [ 93.154, 23.552 ], [ 93.158, 23.539 ], [ 93.172, 23.536 ], [ 93.183, 23.545 ], [ 93.179, 23.558 ], [ 93.189, 23.568 ], [ 93.203, 23.564 ], [ 93.214, 23.574 ], [ 93.228, 23.571 ], [ 93.232, 23.558 ], [ 93.246, 23.555 ], [ 93.256, 23.564 ], [ 93.271, 23.561 ], [ 93.281, 23.571 ], [ 93.295, 23.567 ], [ 93.306, 23.577 ], [ 93.32, 23.574 ], [ 93.33, 23.583 ], [ 93.345, 23.58 ], [ 93.348, 23.567 ], [ 93.363, 23.564 ], [ 93.373, 23.574 ], [ 93.387, 23.57 ], [ 93.398, 23.58 ], [ 93.412, 23.577 ], [ 93.416, 23.564 ], [ 93.43, 23.561 ], [ 93.44, 23.57 ], [ 93.436, 23.583 ], [ 93.447, 23.592 ], [ 93.443, 23.605 ], [ 93.429, 23.608 ], [ 93.425, 23.621 ], [ 93.435, 23.63 ], [ 93.431, 23.643 ], [ 93.442, 23.652 ], [ 93.438, 23.665 ], [ 93.448, 23.674 ], [ 93.444, 23.687 ], [ 93.43, 23.69 ], [ 93.426, 23.703 ], [ 93.437, 23.712 ], [ 93.433, 23.725 ], [ 93.418, 23.728 ], [ 93.415, 23.74 ], [ 93.425, 23.75 ], [ 93.421, 23.763 ], [ 93.407, 23.766 ], [ 93.403, 23.778 ], [ 93.413, 23.788 ] ] ] ] } },
{ "type": "Feature", "properties": { "POLYGON.ID": 931.0, "subregion": "India--Mizoram--Lunglei--mid elevations", "POLYGON": "India--Mizoram--Lunglei--mid elevations", "SHOW": "1", "FILTER": "Not-Assigned", "FILTER.ID": null, "OLD.POLYGON": null, "STATE": "Mizoram", "COUNTY": "Lunglei", "OWNER": null }, "geometry": { "type": "MultiPolygon", "coordinates": [ [ [ [ 92.841, 23.021 ], [ 92.851, 23.03 ], [ 92.847, 23.043 ], [ 92.833, 23.046 ], [ 92.829, 23.059 ], [ 92.839, 23.068 ], [ 92.835, 23.081 ], [ 92.821, 23.084 ], [ 92.811, 23.075 ], [ 92.797, 23.078 ], [ 92.793, 23.09 ], [ 92.779, 23.094 ], [ 92.775, 23.106 ], [ 92.785, 23.116 ], [ 92.781, 23.128 ], [ 92.767, 23.131 ], [ 92.763, 23.144 ], [ 92.773, 23.154 ], [ 92.769, 23.166 ], [ 92.755, 23.169 ], [ 92.751, 23.182 ], [ 92.762, 23.192 ], [ 92.758, 23.204 ], [ 92.743, 23.207 ], [ 92.733, 23.198 ], [ 92.719, 23.201 ], [ 92.715, 23.214 ], [ 92.701, 23.217 ], [ 92.697, 23.229 ], [ 92.683, 23.233 ], [ 92.679, 23.245 ], [ 92.689, 23.255 ], [ 92.685, 23.267 ], [ 92.696, 23.277 ], [ 92.692, 23.289 ], [ 92.677, 23.293 ], [ 92.673, 23.305 ], [ 92.684, 23.315 ], [ 92.68, 23.327 ], [ 92.666, 23.331 ], [ 92.662, 23.343 ], [ 92.672, 23.353 ], [ 92.668, 23.365 ], [ 92.654, 23.368 ], [ 92.65, 23.381 ], [ 92.636, 23.384 ], [ 92.625, 23.375 ], [ 92.611, 23.378 ], [ 92.607, 23.39 ], [ 92.593, 23.393 ], [ 92.583, 23.384 ], [ 92.569, 23.387 ], [ 92.558, 23.378 ], [ 92.544, 23.381 ], [ 92.534, 23.371 ], [ 92.52, 23.374 ], [ 92.516, 23.387 ], [ 92.501, 23.39 ], [ 92.491, 23.381 ], [ 92.477, 23.384 ], [ 92.467, 23.374 ], [ 92.47, 23.362 ], [ 92.46, 23.352 ], [ 92.464, 23.339 ], [ 92.454, 23.33 ], [ 92.458, 23.317 ], [ 92.447, 23.308 ], [ 92.451, 23.295 ], [ 92.441, 23.286 ], [ 92.445, 23.273 ], [ 92.435, 23.264 ], [ 92.439, 23.251 ], [ 92.453, 23.248 ], [ 92.457, 23.235 ], [ 92.471, 23.232 ], [ 92.475, 23.219 ], [ 92.464, 23.21 ], [ 92.468, 23.197 ], [ 92.483, 23.194 ], [ 92.487, 23.182 ], [ 92.476, 23.172 ], [ 92.48, 23.159 ], [ 92.47, 23.15 ], [ 92.474, 23.137 ], [ 92.488, 23.134 ], [ 92.492, 23.121 ], [ 92.506, 23.118 ], [ 92.51, 23.106 ], [ 92.5, 23.096 ], [ 92.504, 23.083 ], [ 92.518, 23.08 ], [ 92.522, 23.068 ], [ 92.536, 23.065 ], [ 92.54, 23.052 ], [ 92.53, 23.042 ], [ 92.533, 23.03 ], [ 92.523, 23.02 ], [ 92.527, 23.008 ], [ 92.541, 23.004 ], [ 92.545, 22.992 ], [ 92.535, 22.982 ], [ 92.539, 22.97 ], [ 92.553, 22.966 ], [ 92.557, 22.954 ], [ 92.547, 22.944 ], [ 92.55, 22.932 ], [ 92.565, 22.928 ], [ 92.569, 22.916 ], [ 92.558, 22.906 ], [ 92.562, 22.894 ], [ 92.576, 22.89 ], [ 92.58, 22.878 ], [ 92.594, 22.875 ], [ 92.598, 22.862 ], [ 92.588, 22.852 ], [ 92.592, 22.84 ], [ 92.606, 22.837 ], [ 92.61, 22.824 ], [ 92.624, 22.821 ], [ 92.628, 22.808 ], [ 92.618, 22.799 ], [ 92.622, 22.786 ], [ 92.636, 22.783 ], [ 92.64, 22.77 ], [ 92.63, 22.761 ], [ 92.633, 22.748 ], [ 92.623, 22.738 ], [ 92.627, 22.726 ], [ 92.641, 22.722 ], [ 92.645, 22.71 ], [ 92.659, 22.707 ], [ 92.663, 22.694 ], [ 92.653, 22.684 ], [ 92.657, 22.672 ], [ 92.671, 22.669 ], [ 92.675, 22.656 ], [ 92.665, 22.646 ], [ 92.669, 22.634 ], [ 92.683, 22.63 ], [ 92.687, 22.618 ], [ 92.701, 22.615 ], [ 92.705, 22.602 ], [ 92.694, 22.592 ], [ 92.698, 22.58 ], [ 92.713, 22.576 ], [ 92.716, 22.564 ], [ 92.731, 22.561 ], [ 92.735, 22.548 ], [ 92.749, 22.545 ], [ 92.753, 22.532 ], [ 92.742, 22.522 ], [ 92.746, 22.51 ], [ 92.76, 22.507 ], [ 92.771, 22.516 ], [ 92.767, 22.529 ], [ 92.777, 22.538 ], [ 92.791, 22.535 ], [ 92.802, 22.545 ], [ 92.798, 22.557 ], [ 92.808, 22.567 ], [ 92.804, 22.58 ], [ 92.79, 22.583 ], [ 92.786, 22.596 ], [ 92.796, 22.605 ], [ 92.792, 22.618 ], [ 92.803, 22.627 ], [ 92.817, 22.624 ], [ 92.827, 22.634 ], [ 92.841, 22.631 ], [ 92.845, 22.618 ], [ 92.859, 22.615 ], [ 92.863, 22.602 ], [ 92.878, 22.599 ], [ 92.881, 22.586 ], [ 92.896, 22.583 ], [ 92.9, 22.57 ], [ 92.914, 22.567 ], [ 92.918, 22.554 ], [ 92.932, 22.551 ], [ 92.942, 22.561 ], [ 92.938, 22.573 ], [ 92.949, 22.583 ], [ 92.945, 22.596 ], [ 92.955, 22.605 ], [ 92.951, 22.618 ], [ 92.961, 22.627 ], [ 92.957, 22.64 ], [ 92.943, 22.643 ], [ 92.939, 22.656 ], [ 92.925, 22.659 ], [ 92.921, 22.672 ], [ 92.932, 22.681 ], [ 92.928, 22.694 ], [ 92.938, 22.704 ], [ 92.934, 22.716 ], [ 92.92, 22.72 ], [ 92.916, 22.732 ], [ 92.926, 22.742 ], [ 92.922, 22.754 ], [ 92.933, 22.764 ], [ 92.929, 22.777 ], [ 92.915, 22.78 ], [ 92.911, 22.793 ], [ 92.921, 22.802 ], [ 92.917, 22.815 ], [ 92.903, 22.818 ], [ 92.899, 22.831 ], [ 92.885, 22.834 ], [ 92.881, 22.846 ], [ 92.867, 22.85 ], [ 92.863, 22.862 ], [ 92.873, 22.872 ], [ 92.869, 22.884 ], [ 92.88, 22.894 ], [ 92.876, 22.907 ], [ 92.886, 22.916 ], [ 92.882, 22.929 ], [ 92.892, 22.938 ], [ 92.889, 22.951 ], [ 92.899, 22.961 ], [ 92.895, 22.973 ], [ 92.881, 22.976 ], [ 92.877, 22.989 ], [ 92.887, 22.999 ], [ 92.883, 23.011 ], [ 92.869, 23.014 ], [ 92.859, 23.005 ], [ 92.845, 23.008 ], [ 92.841, 23.021 ] ] ] ] } },
{ "type": "Feature", "properties": { "POLYGON.ID": 930.0, "subregion": "India--Mizoram--Lengpui", "POLYGON": "India--Mizoram--Lengpui", "SHOW": "1", "FILTER": "Not-Assigned", "FILTER.ID": null, "OLD.POLYGON": null, "STATE": "Mizoram", "COUNTY": "spl_region", "OWNER": null }, "geometry": { "type": "MultiPolygon", "coordinates": [ [ [ [ 92.586, 23.759 ], [ 92.6, 23.756 ], [ 92.61, 23.765 ], [ 92.625, 23.762 ], [ 92.628, 23.75 ], [ 92.643, 23.747 ], [ 92.653, 23.756 ], [ 92.649, 23.769 ], [ 92.659, 23.778 ], [ 92.656, 23.791 ], [ 92.666, 23.8 ], [ 92.662, 23.813 ], [ 92.672, 23.822 ], [ 92.668, 23.835 ], [ 92.679, 23.844 ], [ 92.675, 23.857 ], [ 92.661, 23.86 ], [ 92.657, 23.873 ], [ 92.667, 23.882 ], [ 92.663, 23.895 ], [ 92.673, 23.904 ], [ 92.669, 23.917 ], [ 92.68, 23.926 ], [ 92.676, 23.939 ], [ 92.686, 23.948 ], [ 92.682, 23.961 ], [ 92.693, 23.97 ], [ 92.689, 23.983 ], [ 92.674, 23.986 ], [ 92.671, 23.998 ], [ 92.681, 24.008 ], [ 92.677, 24.02 ], [ 92.663, 24.023 ], [ 92.652, 24.014 ], [ 92.638, 24.017 ], [ 92.628, 24.008 ], [ 92.632, 23.995 ], [ 92.621, 23.986 ], [ 92.625, 23.973 ], [ 92.615, 23.964 ], [ 92.619, 23.951 ], [ 92.609, 23.942 ], [ 92.612, 23.929 ], [ 92.602, 23.92 ], [ 92.606, 23.907 ], [ 92.62, 23.904 ], [ 92.624, 23.891 ], [ 92.614, 23.882 ], [ 92.618, 23.869 ], [ 92.607, 23.86 ], [ 92.611, 23.847 ], [ 92.601, 23.838 ], [ 92.605, 23.825 ], [ 92.595, 23.816 ], [ 92.599, 23.803 ], [ 92.588, 23.794 ], [ 92.592, 23.781 ], [ 92.582, 23.772 ], [ 92.586, 23.759 ] ] ] ] } },
{ "type": "Feature", "properties": { "POLYGON.ID": 929.0, "subregion": "India--Mizoram--Mamit--low elevations (north)", "POLYGON": "India--Mizoram--Mamit--low elevations (north)", "SHOW": "1", "FILTER": "Not-Assigned", "FILTER.ID": null, "OLD.POLYGON": null, "STATE": "Mizoram", "COUNTY": "Mamit", "OWNER": null }, "geometry": { "type": "MultiPolygon", "coordinates": [ [ [ [ 92.413, 23.972 ], [ 92.417, 23.96 ], [ 92.407, 23.95 ], [ 92.41, 23.938 ], [ 92.4, 23.928 ], [ 92.404, 23.916 ], [ 92.418, 23.913 ], [ 92.429, 23.922 ], [ 92.443, 23.919 ], [ 92.453, 23.928 ], [ 92.449, 23.941 ], [ 92.46, 23.95 ], [ 92.456, 23.963 ], [ 92.466, 23.972 ], [ 92.462, 23.985 ], [ 92.472, 23.995 ], [ 92.469, 24.007 ], [ 92.479, 24.017 ], [ 92.475, 24.029 ], [ 92.485, 24.039 ], [ 92.481, 24.051 ], [ 92.467, 24.054 ], [ 92.463, 24.067 ], [ 92.473, 24.076 ], [ 92.47, 24.089 ], [ 92.48, 24.098 ], [ 92.476, 24.111 ], [ 92.486, 24.12 ], [ 92.482, 24.133 ], [ 92.493, 24.142 ], [ 92.489, 24.155 ], [ 92.475, 24.158 ], [ 92.464, 24.148 ], [ 92.45, 24.151 ], [ 92.446, 24.164 ], [ 92.432, 24.167 ], [ 92.428, 24.179 ], [ 92.414, 24.183 ], [ 92.41, 24.195 ], [ 92.42, 24.204 ], [ 92.416, 24.217 ], [ 92.426, 24.226 ], [ 92.422, 24.239 ], [ 92.433, 24.248 ], [ 92.429, 24.261 ], [ 92.415, 24.264 ], [ 92.404, 24.255 ], [ 92.39, 24.258 ], [ 92.38, 24.248 ], [ 92.365, 24.251 ], [ 92.361, 24.264 ], [ 92.347, 24.267 ], [ 92.337, 24.257 ], [ 92.323, 24.26 ], [ 92.312, 24.251 ], [ 92.298, 24.254 ], [ 92.288, 24.245 ], [ 92.292, 24.232 ], [ 92.306, 24.229 ], [ 92.31, 24.216 ], [ 92.324, 24.213 ], [ 92.328, 24.201 ], [ 92.318, 24.191 ], [ 92.322, 24.179 ], [ 92.336, 24.176 ], [ 92.34, 24.163 ], [ 92.329, 24.154 ], [ 92.333, 24.141 ], [ 92.323, 24.132 ], [ 92.327, 24.119 ], [ 92.317, 24.11 ], [ 92.321, 24.097 ], [ 92.31, 24.088 ], [ 92.314, 24.075 ], [ 92.304, 24.066 ], [ 92.308, 24.053 ], [ 92.322, 24.05 ], [ 92.326, 24.038 ], [ 92.316, 24.028 ], [ 92.32, 24.016 ], [ 92.334, 24.013 ], [ 92.344, 24.022 ], [ 92.358, 24.019 ], [ 92.369, 24.029 ], [ 92.383, 24.026 ], [ 92.387, 24.013 ], [ 92.401, 24.01 ], [ 92.405, 23.997 ], [ 92.395, 23.988 ], [ 92.399, 23.975 ], [ 92.413, 23.972 ] ] ] ] } },
{ "type": "Feature", "properties": { "POLYGON.ID": 928.0, "subregion": "India--Mizoram--Mamit--low elevations (centre)", "POLYGON": "India--Mizoram--Mamit--low elevations (centre)", "SHOW": "1", "FILTER": "Not-Assigned", "FILTER.ID": null, "OLD.POLYGON": null, "STATE": "Mizoram", "COUNTY": "Mamit", "OWNER": null }, "geometry": { "type": "MultiPolygon", "coordinates": [ [ [ [ 92.368, 23.478 ], [ 92.382, 23.475 ], [ 92.386, 23.462 ], [ 92.4, 23.459 ], [ 92.404, 23.447 ], [ 92.419, 23.443 ], [ 92.422, 23.431 ], [ 92.412, 23.421 ], [ 92.416, 23.409 ], [ 92.406, 23.399 ], [ 92.41, 23.387 ], [ 92.399, 23.377 ], [ 92.403, 23.364 ], [ 92.417, 23.361 ], [ 92.421, 23.349 ], [ 92.411, 23.339 ], [ 92.415, 23.327 ], [ 92.429, 23.324 ], [ 92.433, 23.311 ], [ 92.423, 23.301 ], [ 92.427, 23.289 ], [ 92.416, 23.279 ], [ 92.42, 23.267 ], [ 92.435, 23.264 ], [ 92.445, 23.273 ], [ 92.441, 23.286 ], [ 92.451, 23.295 ], [ 92.447, 23.308 ], [ 92.458, 23.317 ], [ 92.454, 23.33 ], [ 92.464, 23.339 ], [ 92.46, 23.352 ], [ 92.47, 23.362 ], [ 92.467, 23.374 ], [ 92.477, 23.384 ], [ 92.473, 23.396 ], [ 92.483, 23.406 ], [ 92.479, 23.418 ], [ 92.49, 23.428 ], [ 92.486, 23.441 ], [ 92.472, 23.444 ], [ 92.468, 23.456 ], [ 92.478, 23.466 ], [ 92.474, 23.478 ], [ 92.484, 23.488 ], [ 92.48, 23.5 ], [ 92.491, 23.51 ], [ 92.487, 23.523 ], [ 92.473, 23.526 ], [ 92.469, 23.538 ], [ 92.454, 23.541 ], [ 92.444, 23.532 ], [ 92.448, 23.519 ], [ 92.438, 23.51 ], [ 92.442, 23.497 ], [ 92.431, 23.488 ], [ 92.435, 23.475 ], [ 92.425, 23.466 ], [ 92.411, 23.469 ], [ 92.407, 23.481 ], [ 92.393, 23.484 ], [ 92.389, 23.497 ], [ 92.399, 23.506 ], [ 92.395, 23.519 ], [ 92.405, 23.529 ], [ 92.401, 23.541 ], [ 92.387, 23.544 ], [ 92.383, 23.557 ], [ 92.394, 23.566 ], [ 92.39, 23.579 ], [ 92.4, 23.588 ], [ 92.396, 23.601 ], [ 92.406, 23.61 ], [ 92.402, 23.623 ], [ 92.388, 23.626 ], [ 92.384, 23.639 ], [ 92.395, 23.648 ], [ 92.391, 23.661 ], [ 92.401, 23.67 ], [ 92.397, 23.683 ], [ 92.407, 23.692 ], [ 92.403, 23.705 ], [ 92.414, 23.714 ], [ 92.428, 23.711 ], [ 92.438, 23.721 ], [ 92.453, 23.718 ], [ 92.463, 23.727 ], [ 92.459, 23.74 ], [ 92.469, 23.749 ], [ 92.465, 23.762 ], [ 92.476, 23.771 ], [ 92.472, 23.784 ], [ 92.458, 23.787 ], [ 92.454, 23.8 ], [ 92.439, 23.803 ], [ 92.435, 23.815 ], [ 92.446, 23.825 ], [ 92.442, 23.837 ], [ 92.452, 23.847 ], [ 92.448, 23.859 ], [ 92.459, 23.869 ], [ 92.455, 23.881 ], [ 92.465, 23.891 ], [ 92.461, 23.903 ], [ 92.471, 23.913 ], [ 92.467, 23.925 ], [ 92.453, 23.928 ], [ 92.443, 23.919 ], [ 92.429, 23.922 ], [ 92.418, 23.913 ], [ 92.404, 23.916 ], [ 92.4, 23.928 ], [ 92.41, 23.938 ], [ 92.407, 23.95 ], [ 92.417, 23.96 ], [ 92.413, 23.972 ], [ 92.399, 23.975 ], [ 92.395, 23.988 ], [ 92.405, 23.997 ], [ 92.401, 24.01 ], [ 92.387, 24.013 ], [ 92.383, 24.026 ], [ 92.369, 24.029 ], [ 92.358, 24.019 ], [ 92.344, 24.022 ], [ 92.334, 24.013 ], [ 92.32, 24.016 ], [ 92.309, 24.006 ], [ 92.313, 23.994 ], [ 92.303, 23.984 ], [ 92.307, 23.972 ], [ 92.297, 23.962 ], [ 92.3, 23.95 ], [ 92.29, 23.94 ], [ 92.294, 23.928 ], [ 92.308, 23.925 ], [ 92.312, 23.912 ], [ 92.302, 23.903 ], [ 92.306, 23.89 ], [ 92.32, 23.887 ], [ 92.324, 23.874 ], [ 92.314, 23.865 ], [ 92.299, 23.868 ], [ 92.289, 23.859 ], [ 92.275, 23.862 ], [ 92.265, 23.852 ], [ 92.268, 23.84 ], [ 92.283, 23.837 ], [ 92.287, 23.824 ], [ 92.276, 23.815 ], [ 92.262, 23.818 ], [ 92.252, 23.808 ], [ 92.256, 23.796 ], [ 92.27, 23.792 ], [ 92.274, 23.78 ], [ 92.264, 23.77 ], [ 92.267, 23.758 ], [ 92.257, 23.748 ], [ 92.261, 23.736 ], [ 92.251, 23.726 ], [ 92.255, 23.714 ], [ 92.244, 23.704 ], [ 92.248, 23.692 ], [ 92.238, 23.682 ], [ 92.242, 23.67 ], [ 92.232, 23.66 ], [ 92.236, 23.648 ], [ 92.25, 23.644 ], [ 92.254, 23.632 ], [ 92.268, 23.629 ], [ 92.272, 23.616 ], [ 92.262, 23.607 ], [ 92.266, 23.594 ], [ 92.28, 23.591 ], [ 92.29, 23.601 ], [ 92.304, 23.597 ], [ 92.315, 23.607 ], [ 92.329, 23.604 ], [ 92.333, 23.591 ], [ 92.347, 23.588 ], [ 92.351, 23.576 ], [ 92.341, 23.566 ], [ 92.345, 23.554 ], [ 92.359, 23.55 ], [ 92.363, 23.538 ], [ 92.352, 23.528 ], [ 92.356, 23.516 ], [ 92.346, 23.506 ], [ 92.35, 23.494 ], [ 92.364, 23.491 ], [ 92.368, 23.478 ] ] ] ] } },
{ "type": "Feature", "properties": { "POLYGON.ID": 927.0, "subregion": "India--Mizoram--Mamit--low elevations (south)", "POLYGON": "India--Mizoram--Mamit--low elevations (south)", "SHOW": "1", "FILTER": "Not-Assigned", "FILTER.ID": null, "OLD.POLYGON": null, "STATE": "Mizoram", "COUNTY": "Mamit", "OWNER": null }, "geometry": { "type": "MultiPolygon", "coordinates": [ [ [ [ 92.292, 23.553 ], [ 92.295, 23.541 ], [ 92.285, 23.531 ], [ 92.289, 23.519 ], [ 92.303, 23.516 ], [ 92.307, 23.503 ], [ 92.297, 23.493 ], [ 92.301, 23.481 ], [ 92.315, 23.478 ], [ 92.319, 23.465 ], [ 92.309, 23.456 ], [ 92.313, 23.443 ], [ 92.327, 23.44 ], [ 92.331, 23.427 ], [ 92.32, 23.418 ], [ 92.324, 23.405 ], [ 92.339, 23.402 ], [ 92.342, 23.389 ], [ 92.332, 23.38 ], [ 92.336, 23.367 ], [ 92.35, 23.364 ], [ 92.354, 23.352 ], [ 92.368, 23.349 ], [ 92.372, 23.336 ], [ 92.362, 23.326 ], [ 92.366, 23.314 ], [ 92.356, 23.304 ], [ 92.36, 23.292 ], [ 92.374, 23.289 ], [ 92.378, 23.276 ], [ 92.367, 23.266 ], [ 92.371, 23.254 ], [ 92.386, 23.251 ], [ 92.396, 23.26 ], [ 92.41, 23.257 ], [ 92.42, 23.267 ], [ 92.416, 23.279 ], [ 92.427, 23.289 ], [ 92.423, 23.301 ], [ 92.433, 23.311 ], [ 92.429, 23.324 ], [ 92.415, 23.327 ], [ 92.411, 23.339 ], [ 92.421, 23.349 ], [ 92.417, 23.361 ], [ 92.403, 23.364 ], [ 92.399, 23.377 ], [ 92.41, 23.387 ], [ 92.406, 23.399 ], [ 92.416, 23.409 ], [ 92.412, 23.421 ], [ 92.422, 23.431 ], [ 92.419, 23.443 ], [ 92.404, 23.447 ], [ 92.4, 23.459 ], [ 92.386, 23.462 ], [ 92.382, 23.475 ], [ 92.368, 23.478 ], [ 92.364, 23.491 ], [ 92.35, 23.494 ], [ 92.346, 23.506 ], [ 92.356, 23.516 ], [ 92.352, 23.528 ], [ 92.363, 23.538 ], [ 92.359, 23.55 ], [ 92.345, 23.554 ], [ 92.341, 23.566 ], [ 92.351, 23.576 ], [ 92.347, 23.588 ], [ 92.333, 23.591 ], [ 92.329, 23.604 ], [ 92.315, 23.607 ], [ 92.304, 23.597 ], [ 92.29, 23.601 ], [ 92.28, 23.591 ], [ 92.284, 23.578 ], [ 92.298, 23.575 ], [ 92.302, 23.563 ], [ 92.292, 23.553 ] ] ] ] } },
{ "type": "Feature", "properties": { "POLYGON.ID": 926.0, "subregion": "India--Mizoram--Lunglei--low elevations", "POLYGON": "India--Mizoram--Lunglei--low elevations", "SHOW": "1", "FILTER": "Not-Assigned", "FILTER.ID": null, "OLD.POLYGON": null, "STATE": "Mizoram", "COUNTY": "Lunglei", "OWNER": null }, "geometry": { "type": "MultiPolygon", "coordinates": [ [ [ [ 92.599, 22.732 ], [ 92.603, 22.719 ], [ 92.592, 22.71 ], [ 92.596, 22.697 ], [ 92.61, 22.694 ], [ 92.614, 22.681 ], [ 92.629, 22.678 ], [ 92.632, 22.665 ], [ 92.647, 22.662 ], [ 92.65, 22.649 ], [ 92.665, 22.646 ], [ 92.675, 22.656 ], [ 92.671, 22.669 ], [ 92.657, 22.672 ], [ 92.653, 22.684 ], [ 92.663, 22.694 ], [ 92.659, 22.707 ], [ 92.645, 22.71 ], [ 92.641, 22.722 ], [ 92.627, 22.726 ], [ 92.623, 22.738 ], [ 92.633, 22.748 ], [ 92.63, 22.761 ], [ 92.64, 22.77 ], [ 92.636, 22.783 ], [ 92.622, 22.786 ], [ 92.618, 22.799 ], [ 92.628, 22.808 ], [ 92.624, 22.821 ], [ 92.61, 22.824 ], [ 92.606, 22.837 ], [ 92.592, 22.84 ], [ 92.588, 22.852 ], [ 92.598, 22.862 ], [ 92.594, 22.875 ], [ 92.58, 22.878 ], [ 92.576, 22.89 ], [ 92.562, 22.894 ], [ 92.558, 22.906 ], [ 92.569, 22.916 ], [ 92.565, 22.928 ], [ 92.55, 22.932 ], [ 92.547, 22.944 ], [ 92.557, 22.954 ], [ 92.553, 22.966 ], [ 92.539, 22.97 ], [ 92.535, 22.982 ], [ 92.545, 22.992 ], [ 92.541, 23.004 ], [ 92.527, 23.008 ], [ 92.523, 23.02 ], [ 92.533, 23.03 ], [ 92.53, 23.042 ], [ 92.54, 23.052 ], [ 92.536, 23.065 ], [ 92.522, 23.068 ], [ 92.518, 23.08 ], [ 92.504, 23.083 ], [ 92.5, 23.096 ], [ 92.51, 23.106 ], [ 92.506, 23.118 ], [ 92.492, 23.121 ], [ 92.488, 23.134 ], [ 92.474, 23.137 ], [ 92.47, 23.15 ], [ 92.48, 23.159 ], [ 92.476, 23.172 ], [ 92.487, 23.182 ], [ 92.483, 23.194 ], [ 92.468, 23.197 ], [ 92.464, 23.21 ], [ 92.475, 23.219 ], [ 92.471, 23.232 ], [ 92.457, 23.235 ], [ 92.453, 23.248 ], [ 92.439, 23.251 ], [ 92.435, 23.264 ], [ 92.42, 23.267 ], [ 92.41, 23.257 ], [ 92.396, 23.26 ], [ 92.386, 23.251 ], [ 92.371, 23.254 ], [ 92.361, 23.244 ], [ 92.347, 23.247 ], [ 92.337, 23.238 ], [ 92.34, 23.225 ], [ 92.33, 23.216 ], [ 92.334, 23.203 ], [ 92.348, 23.2 ], [ 92.352, 23.187 ], [ 92.342, 23.178 ], [ 92.346, 23.165 ], [ 92.336, 23.156 ], [ 92.339, 23.143 ], [ 92.354, 23.14 ], [ 92.358, 23.127 ], [ 92.347, 23.118 ], [ 92.351, 23.105 ], [ 92.341, 23.096 ], [ 92.345, 23.083 ], [ 92.335, 23.073 ], [ 92.338, 23.061 ], [ 92.353, 23.058 ], [ 92.363, 23.067 ], [ 92.377, 23.064 ], [ 92.381, 23.051 ], [ 92.371, 23.042 ], [ 92.375, 23.029 ], [ 92.364, 23.02 ], [ 92.368, 23.007 ], [ 92.358, 22.998 ], [ 92.362, 22.985 ], [ 92.352, 22.975 ], [ 92.356, 22.963 ], [ 92.37, 22.96 ], [ 92.374, 22.947 ], [ 92.363, 22.937 ], [ 92.367, 22.925 ], [ 92.381, 22.922 ], [ 92.385, 22.909 ], [ 92.4, 22.906 ], [ 92.404, 22.893 ], [ 92.418, 22.89 ], [ 92.422, 22.877 ], [ 92.436, 22.874 ], [ 92.44, 22.862 ], [ 92.429, 22.852 ], [ 92.433, 22.839 ], [ 92.448, 22.836 ], [ 92.451, 22.824 ], [ 92.441, 22.814 ], [ 92.445, 22.801 ], [ 92.459, 22.798 ], [ 92.463, 22.786 ], [ 92.453, 22.776 ], [ 92.457, 22.763 ], [ 92.471, 22.76 ], [ 92.475, 22.747 ], [ 92.489, 22.744 ], [ 92.493, 22.732 ], [ 92.507, 22.729 ], [ 92.517, 22.738 ], [ 92.532, 22.735 ], [ 92.542, 22.744 ], [ 92.556, 22.741 ], [ 92.56, 22.729 ], [ 92.574, 22.726 ], [ 92.585, 22.735 ], [ 92.599, 22.732 ] ] ] ] } },
{ "type": "Feature", "properties": { "POLYGON.ID": 925.0, "subregion": "India--Mizoram--Lawngtlai--low elevations", "POLYGON": "India--Mizoram--Lawngtlai--low elevations", "SHOW": "1", "FILTER": "Not-Assigned", "FILTER.ID": null, "OLD.POLYGON": null, "STATE": "Mizoram", "COUNTY": "Lawngtlai", "OWNER": null }, "geometry": { "type": "MultiPolygon", "coordinates": [ [ [ [ 92.566, 22.277 ], [ 92.556, 22.268 ], [ 92.56, 22.255 ], [ 92.574, 22.252 ], [ 92.578, 22.239 ], [ 92.568, 22.229 ], [ 92.572, 22.217 ], [ 92.586, 22.213 ], [ 92.59, 22.201 ], [ 92.579, 22.191 ], [ 92.583, 22.178 ], [ 92.573, 22.169 ], [ 92.577, 22.156 ], [ 92.567, 22.147 ], [ 92.553, 22.15 ], [ 92.542, 22.14 ], [ 92.546, 22.127 ], [ 92.56, 22.124 ], [ 92.564, 22.111 ], [ 92.554, 22.102 ], [ 92.558, 22.089 ], [ 92.572, 22.086 ], [ 92.576, 22.073 ], [ 92.566, 22.064 ], [ 92.57, 22.051 ], [ 92.584, 22.048 ], [ 92.588, 22.035 ], [ 92.577, 22.025 ], [ 92.581, 22.013 ], [ 92.595, 22.009 ], [ 92.599, 21.997 ], [ 92.589, 21.987 ], [ 92.593, 21.974 ], [ 92.607, 21.971 ], [ 92.611, 21.958 ], [ 92.625, 21.955 ], [ 92.635, 21.965 ], [ 92.632, 21.977 ], [ 92.642, 21.987 ], [ 92.656, 21.984 ], [ 92.666, 21.993 ], [ 92.68, 21.99 ], [ 92.691, 22.0 ], [ 92.687, 22.013 ], [ 92.697, 22.022 ], [ 92.693, 22.035 ], [ 92.703, 22.045 ], [ 92.7, 22.057 ], [ 92.71, 22.067 ], [ 92.706, 22.08 ], [ 92.716, 22.089 ], [ 92.712, 22.102 ], [ 92.723, 22.112 ], [ 92.719, 22.124 ], [ 92.705, 22.128 ], [ 92.701, 22.14 ], [ 92.711, 22.15 ], [ 92.707, 22.163 ], [ 92.693, 22.166 ], [ 92.689, 22.179 ], [ 92.699, 22.188 ], [ 92.695, 22.201 ], [ 92.706, 22.21 ], [ 92.702, 22.223 ], [ 92.712, 22.233 ], [ 92.708, 22.245 ], [ 92.694, 22.249 ], [ 92.69, 22.261 ], [ 92.7, 22.271 ], [ 92.696, 22.284 ], [ 92.707, 22.293 ], [ 92.703, 22.306 ], [ 92.713, 22.316 ], [ 92.709, 22.328 ], [ 92.695, 22.331 ], [ 92.691, 22.344 ], [ 92.701, 22.354 ], [ 92.698, 22.366 ], [ 92.683, 22.37 ], [ 92.679, 22.382 ], [ 92.69, 22.392 ], [ 92.686, 22.405 ], [ 92.696, 22.414 ], [ 92.692, 22.427 ], [ 92.703, 22.437 ], [ 92.699, 22.449 ], [ 92.684, 22.452 ], [ 92.681, 22.465 ], [ 92.691, 22.475 ], [ 92.687, 22.487 ], [ 92.673, 22.491 ], [ 92.669, 22.503 ], [ 92.679, 22.513 ], [ 92.675, 22.526 ], [ 92.661, 22.529 ], [ 92.657, 22.541 ], [ 92.667, 22.551 ], [ 92.682, 22.548 ], [ 92.692, 22.557 ], [ 92.688, 22.57 ], [ 92.698, 22.58 ], [ 92.694, 22.592 ], [ 92.705, 22.602 ], [ 92.701, 22.615 ], [ 92.687, 22.618 ], [ 92.683, 22.63 ], [ 92.669, 22.634 ], [ 92.665, 22.646 ], [ 92.65, 22.649 ], [ 92.647, 22.662 ], [ 92.632, 22.665 ], [ 92.629, 22.678 ], [ 92.614, 22.681 ], [ 92.61, 22.694 ], [ 92.596, 22.697 ], [ 92.592, 22.71 ], [ 92.603, 22.719 ], [ 92.599, 22.732 ], [ 92.585, 22.735 ], [ 92.574, 22.726 ], [ 92.56, 22.729 ], [ 92.556, 22.741 ], [ 92.542, 22.744 ], [ 92.532, 22.735 ], [ 92.517, 22.738 ], [ 92.507, 22.729 ], [ 92.511, 22.716 ], [ 92.501, 22.706 ], [ 92.505, 22.694 ], [ 92.494, 22.684 ], [ 92.498, 22.671 ], [ 92.513, 22.668 ], [ 92.516, 22.656 ], [ 92.506, 22.646 ], [ 92.51, 22.633 ], [ 92.524, 22.63 ], [ 92.528, 22.617 ], [ 92.518, 22.608 ], [ 92.522, 22.595 ], [ 92.511, 22.586 ], [ 92.515, 22.573 ], [ 92.505, 22.563 ], [ 92.509, 22.551 ], [ 92.523, 22.548 ], [ 92.527, 22.535 ], [ 92.517, 22.525 ], [ 92.521, 22.513 ], [ 92.535, 22.509 ], [ 92.539, 22.497 ], [ 92.528, 22.487 ], [ 92.532, 22.474 ], [ 92.522, 22.465 ], [ 92.526, 22.452 ], [ 92.54, 22.449 ], [ 92.544, 22.436 ], [ 92.534, 22.427 ], [ 92.538, 22.414 ], [ 92.552, 22.411 ], [ 92.556, 22.398 ], [ 92.545, 22.389 ], [ 92.549, 22.376 ], [ 92.539, 22.366 ], [ 92.543, 22.354 ], [ 92.557, 22.35 ], [ 92.561, 22.338 ], [ 92.551, 22.328 ], [ 92.555, 22.315 ], [ 92.569, 22.312 ], [ 92.573, 22.299 ], [ 92.562, 22.29 ], [ 92.566, 22.277 ] ] ] ] } },
{ "type": "Feature", "properties": { "POLYGON.ID": 924.0, "subregion": "India--Mizoram--Lawngtlai--Blue Mountain NP", "POLYGON": "India--Mizoram--Lawngtlai--Blue Mountain NP", "SHOW": "1", "FILTER": "Not-Assigned", "FILTER.ID": null, "OLD.POLYGON": null, "STATE": "Mizoram", "COUNTY": "Lawngtlai", "OWNER": null }, "geometry": { "type": "MultiPolygon", "coordinates": [ [ [ [ 92.957, 22.64 ], [ 92.961, 22.627 ], [ 92.976, 22.624 ], [ 92.979, 22.611 ], [ 92.994, 22.608 ], [ 92.998, 22.596 ], [ 93.012, 22.592 ], [ 93.016, 22.58 ], [ 93.005, 22.57 ], [ 93.009, 22.557 ], [ 93.023, 22.554 ], [ 93.027, 22.541 ], [ 93.017, 22.532 ], [ 93.021, 22.519 ], [ 93.011, 22.51 ], [ 93.014, 22.497 ], [ 93.004, 22.487 ], [ 93.008, 22.475 ], [ 93.022, 22.472 ], [ 93.032, 22.481 ], [ 93.047, 22.478 ], [ 93.057, 22.487 ], [ 93.071, 22.484 ], [ 93.081, 22.494 ], [ 93.078, 22.506 ], [ 93.088, 22.516 ], [ 93.102, 22.513 ], [ 93.112, 22.522 ], [ 93.127, 22.519 ], [ 93.13, 22.506 ], [ 93.145, 22.503 ], [ 93.155, 22.513 ], [ 93.151, 22.525 ], [ 93.137, 22.529 ], [ 93.133, 22.541 ], [ 93.143, 22.551 ], [ 93.139, 22.564 ], [ 93.15, 22.573 ], [ 93.146, 22.586 ], [ 93.156, 22.595 ], [ 93.152, 22.608 ], [ 93.138, 22.611 ], [ 93.134, 22.624 ], [ 93.145, 22.634 ], [ 93.141, 22.646 ], [ 93.151, 22.656 ], [ 93.147, 22.668 ], [ 93.133, 22.672 ], [ 93.123, 22.662 ], [ 93.108, 22.665 ], [ 93.105, 22.678 ], [ 93.115, 22.688 ], [ 93.111, 22.7 ], [ 93.121, 22.71 ], [ 93.117, 22.723 ], [ 93.128, 22.732 ], [ 93.124, 22.745 ], [ 93.11, 22.748 ], [ 93.106, 22.761 ], [ 93.116, 22.77 ], [ 93.112, 22.783 ], [ 93.098, 22.786 ], [ 93.094, 22.799 ], [ 93.08, 22.802 ], [ 93.07, 22.792 ], [ 93.055, 22.796 ], [ 93.045, 22.786 ], [ 93.031, 22.789 ], [ 93.021, 22.78 ], [ 93.006, 22.783 ], [ 92.996, 22.773 ], [ 93.0, 22.761 ], [ 92.99, 22.751 ], [ 92.975, 22.754 ], [ 92.971, 22.767 ], [ 92.957, 22.77 ], [ 92.953, 22.783 ], [ 92.939, 22.786 ], [ 92.929, 22.777 ], [ 92.933, 22.764 ], [ 92.922, 22.754 ], [ 92.926, 22.742 ], [ 92.916, 22.732 ], [ 92.92, 22.72 ], [ 92.934, 22.716 ], [ 92.938, 22.704 ], [ 92.928, 22.694 ], [ 92.932, 22.681 ], [ 92.921, 22.672 ], [ 92.925, 22.659 ], [ 92.939, 22.656 ], [ 92.943, 22.643 ], [ 92.957, 22.64 ] ] ] ] } },
{ "type": "Feature", "properties": { "POLYGON.ID": 933.0, "subregion": "India--Mizoram--Siaha--around town", "POLYGON": "India--Mizoram--Siaha--around town", "SHOW": "1", "FILTER": "Not-Assigned", "FILTER.ID": null, "OLD.POLYGON": null, "STATE": "Mizoram", "COUNTY": "Siaha", "OWNER": null }, "geometry": { "type": "MultiPolygon", "coordinates": [ [ [ [ 92.925, 22.529 ], [ 92.929, 22.516 ], [ 92.943, 22.513 ], [ 92.947, 22.5 ], [ 92.937, 22.491 ], [ 92.941, 22.478 ], [ 92.931, 22.468 ], [ 92.935, 22.456 ], [ 92.949, 22.452 ], [ 92.953, 22.44 ], [ 92.942, 22.43 ], [ 92.946, 22.417 ], [ 92.96, 22.414 ], [ 92.964, 22.402 ], [ 92.978, 22.398 ], [ 92.982, 22.386 ], [ 92.996, 22.382 ], [ 93.007, 22.392 ], [ 93.003, 22.405 ], [ 93.013, 22.414 ], [ 93.009, 22.427 ], [ 93.02, 22.437 ], [ 93.016, 22.449 ], [ 93.026, 22.459 ], [ 93.022, 22.472 ], [ 93.008, 22.475 ], [ 93.004, 22.487 ], [ 93.014, 22.497 ], [ 93.011, 22.51 ], [ 93.021, 22.519 ], [ 93.017, 22.532 ], [ 93.027, 22.541 ], [ 93.023, 22.554 ], [ 93.009, 22.557 ], [ 93.005, 22.57 ], [ 93.016, 22.58 ], [ 93.012, 22.592 ], [ 92.998, 22.596 ], [ 92.994, 22.608 ], [ 92.979, 22.611 ], [ 92.976, 22.624 ], [ 92.961, 22.627 ], [ 92.951, 22.618 ], [ 92.955, 22.605 ], [ 92.945, 22.596 ], [ 92.949, 22.583 ], [ 92.938, 22.573 ], [ 92.942, 22.561 ], [ 92.932, 22.551 ], [ 92.936, 22.538 ], [ 92.925, 22.529 ] ] ] ] } },
{ "type": "Feature", "properties": { "POLYGON.ID": 934.0, "subregion": "India--Mizoram--Siaha (east)", "POLYGON": "India--Mizoram--Siaha (east)", "SHOW": "1", "FILTER": "Not-Assigned", "FILTER.ID": null, "OLD.POLYGON": null, "STATE": "Mizoram", "COUNTY": "Siaha", "OWNER": null }, "geometry": { "type": "MultiPolygon", "coordinates": [ [ [ [ 93.037, 22.207 ], [ 93.041, 22.194 ], [ 93.03, 22.185 ], [ 93.034, 22.172 ], [ 93.024, 22.163 ], [ 93.028, 22.15 ], [ 93.017, 22.14 ], [ 93.021, 22.127 ], [ 93.011, 22.118 ], [ 93.015, 22.105 ], [ 93.029, 22.102 ], [ 93.033, 22.089 ], [ 93.047, 22.086 ], [ 93.057, 22.095 ], [ 93.072, 22.092 ], [ 93.082, 22.102 ], [ 93.078, 22.115 ], [ 93.064, 22.118 ], [ 93.06, 22.131 ], [ 93.07, 22.14 ], [ 93.066, 22.153 ], [ 93.077, 22.162 ], [ 93.073, 22.175 ], [ 93.083, 22.185 ], [ 93.097, 22.182 ], [ 93.101, 22.169 ], [ 93.115, 22.166 ], [ 93.119, 22.153 ], [ 93.133, 22.15 ], [ 93.144, 22.159 ], [ 93.158, 22.156 ], [ 93.168, 22.165 ], [ 93.164, 22.178 ], [ 93.175, 22.188 ], [ 93.171, 22.201 ], [ 93.181, 22.21 ], [ 93.177, 22.223 ], [ 93.187, 22.232 ], [ 93.202, 22.229 ], [ 93.212, 22.239 ], [ 93.208, 22.251 ], [ 93.218, 22.261 ], [ 93.214, 22.274 ], [ 93.225, 22.283 ], [ 93.221, 22.296 ], [ 93.207, 22.299 ], [ 93.203, 22.312 ], [ 93.213, 22.322 ], [ 93.209, 22.334 ], [ 93.22, 22.344 ], [ 93.216, 22.357 ], [ 93.201, 22.36 ], [ 93.198, 22.373 ], [ 93.208, 22.382 ], [ 93.204, 22.395 ], [ 93.214, 22.404 ], [ 93.21, 22.417 ], [ 93.196, 22.42 ], [ 93.192, 22.433 ], [ 93.203, 22.443 ], [ 93.199, 22.455 ], [ 93.185, 22.459 ], [ 93.181, 22.471 ], [ 93.167, 22.474 ], [ 93.163, 22.487 ], [ 93.149, 22.49 ], [ 93.145, 22.503 ], [ 93.13, 22.506 ], [ 93.127, 22.519 ], [ 93.112, 22.522 ], [ 93.102, 22.513 ], [ 93.088, 22.516 ], [ 93.078, 22.506 ], [ 93.081, 22.494 ], [ 93.071, 22.484 ], [ 93.057, 22.487 ], [ 93.047, 22.478 ], [ 93.032, 22.481 ], [ 93.022, 22.472 ], [ 93.026, 22.459 ], [ 93.016, 22.449 ], [ 93.02, 22.437 ], [ 93.009, 22.427 ], [ 93.013, 22.414 ], [ 93.027, 22.411 ], [ 93.031, 22.398 ], [ 93.045, 22.395 ], [ 93.049, 22.382 ], [ 93.064, 22.379 ], [ 93.067, 22.366 ], [ 93.057, 22.357 ], [ 93.061, 22.344 ], [ 93.051, 22.335 ], [ 93.055, 22.322 ], [ 93.044, 22.312 ], [ 93.048, 22.3 ], [ 93.038, 22.29 ], [ 93.042, 22.277 ], [ 93.056, 22.274 ], [ 93.06, 22.261 ], [ 93.049, 22.252 ], [ 93.053, 22.239 ], [ 93.043, 22.229 ], [ 93.047, 22.217 ], [ 93.037, 22.207 ] ] ] ] } }
]
}
