{
"type": "FeatureCollection",
"name": "Nagaland",
"crs": { "type": "name", "properties": { "name": "urn:ogc:def:crs:OGC:1.3:CRS84" } },
"features": [
{ "type": "Feature", "properties": { "POLYGON.ID": 205.0, "subregion": "India--Nagaland--Dimapur_CL32179", "FILTER": "Nagaland", "POLYGON": "India--Nagaland--Dimapur_CL32179", "STATE": "Nagaland", "COUNTY": "Dimapur", "OWNER": null }, "geometry": { "type": "MultiPolygon", "coordinates": [ [ [ [ 94.008, 25.774 ], [ 94.004, 25.786 ], [ 94.014, 25.795 ], [ 94.01, 25.808 ], [ 94.021, 25.817 ], [ 94.017, 25.829 ], [ 94.002, 25.833 ], [ 93.992, 25.823 ], [ 93.978, 25.826 ], [ 93.967, 25.817 ], [ 93.971, 25.805 ], [ 93.961, 25.796 ], [ 93.946, 25.799 ], [ 93.936, 25.79 ], [ 93.921, 25.793 ], [ 93.911, 25.783 ], [ 93.897, 25.787 ], [ 93.886, 25.777 ], [ 93.872, 25.781 ], [ 93.861, 25.771 ], [ 93.865, 25.759 ], [ 93.855, 25.75 ], [ 93.84, 25.753 ], [ 93.83, 25.744 ], [ 93.816, 25.747 ], [ 93.805, 25.738 ], [ 93.809, 25.725 ], [ 93.799, 25.716 ], [ 93.802, 25.703 ], [ 93.792, 25.694 ], [ 93.778, 25.697 ], [ 93.767, 25.688 ], [ 93.753, 25.691 ], [ 93.749, 25.704 ], [ 93.735, 25.707 ], [ 93.724, 25.698 ], [ 93.71, 25.701 ], [ 93.699, 25.691 ], [ 93.685, 25.695 ], [ 93.674, 25.685 ], [ 93.678, 25.673 ], [ 93.668, 25.664 ], [ 93.654, 25.667 ], [ 93.643, 25.658 ], [ 93.647, 25.645 ], [ 93.661, 25.642 ], [ 93.672, 25.651 ], [ 93.686, 25.648 ], [ 93.697, 25.657 ], [ 93.711, 25.654 ], [ 93.721, 25.664 ], [ 93.736, 25.66 ], [ 93.746, 25.67 ], [ 93.761, 25.666 ], [ 93.771, 25.676 ], [ 93.785, 25.673 ], [ 93.789, 25.66 ], [ 93.804, 25.657 ], [ 93.814, 25.666 ], [ 93.828, 25.663 ], [ 93.839, 25.672 ], [ 93.853, 25.669 ], [ 93.864, 25.679 ], [ 93.878, 25.675 ], [ 93.889, 25.685 ], [ 93.903, 25.681 ], [ 93.913, 25.691 ], [ 93.928, 25.688 ], [ 93.938, 25.697 ], [ 93.934, 25.709 ], [ 93.945, 25.718 ], [ 93.959, 25.715 ], [ 93.97, 25.724 ], [ 93.984, 25.721 ], [ 93.994, 25.731 ], [ 93.99, 25.743 ], [ 94.001, 25.752 ], [ 93.997, 25.765 ], [ 94.008, 25.774 ] ] ], [ [ [ 93.621, 25.812 ], [ 93.607, 25.815 ], [ 93.596, 25.806 ], [ 93.6, 25.794 ], [ 93.59, 25.784 ], [ 93.594, 25.772 ], [ 93.608, 25.769 ], [ 93.618, 25.778 ], [ 93.615, 25.791 ], [ 93.625, 25.8 ], [ 93.621, 25.812 ] ] ] ] } },
{ "type": "Feature", "properties": { "POLYGON.ID": 206.0, "subregion": "India--Nagaland--Western Foothills_CL32180", "FILTER": "Nagaland", "POLYGON": "India--Nagaland--Western Foothills_CL32180", "STATE": "Nagaland", "COUNTY": "spl_region", "OWNER": null }, "geometry": { "type": "MultiPolygon", "coordinates": [ [ [ [ 95.229, 26.742 ], [ 95.225, 26.754 ], [ 95.236, 26.763 ], [ 95.232, 26.776 ], [ 95.217, 26.779 ], [ 95.214, 26.791 ], [ 95.199, 26.794 ], [ 95.195, 26.807 ], [ 95.206, 26.816 ], [ 95.202, 26.828 ], [ 95.188, 26.831 ], [ 95.184, 26.844 ], [ 95.194, 26.853 ], [ 95.191, 26.865 ], [ 95.201, 26.874 ], [ 95.215, 26.871 ], [ 95.226, 26.88 ], [ 95.222, 26.892 ], [ 95.233, 26.901 ], [ 95.229, 26.913 ], [ 95.214, 26.917 ], [ 95.211, 26.929 ], [ 95.221, 26.938 ], [ 95.217, 26.95 ], [ 95.203, 26.954 ], [ 95.199, 26.966 ], [ 95.21, 26.975 ], [ 95.206, 26.987 ], [ 95.191, 26.99 ], [ 95.187, 27.003 ], [ 95.173, 27.006 ], [ 95.162, 26.997 ], [ 95.148, 27.0 ], [ 95.137, 26.991 ], [ 95.123, 26.994 ], [ 95.113, 26.985 ], [ 95.116, 26.973 ], [ 95.106, 26.964 ], [ 95.11, 26.952 ], [ 95.099, 26.943 ], [ 95.085, 26.946 ], [ 95.074, 26.937 ], [ 95.06, 26.94 ], [ 95.049, 26.931 ], [ 95.035, 26.934 ], [ 95.024, 26.925 ], [ 95.01, 26.928 ], [ 94.999, 26.919 ], [ 94.985, 26.922 ], [ 94.974, 26.913 ], [ 94.96, 26.917 ], [ 94.949, 26.908 ], [ 94.935, 26.911 ], [ 94.924, 26.902 ], [ 94.91, 26.905 ], [ 94.899, 26.896 ], [ 94.903, 26.884 ], [ 94.893, 26.874 ], [ 94.897, 26.862 ], [ 94.886, 26.853 ], [ 94.89, 26.841 ], [ 94.879, 26.832 ], [ 94.883, 26.82 ], [ 94.873, 26.81 ], [ 94.877, 26.798 ], [ 94.866, 26.789 ], [ 94.87, 26.777 ], [ 94.884, 26.774 ], [ 94.888, 26.761 ], [ 94.878, 26.752 ], [ 94.881, 26.74 ], [ 94.871, 26.731 ], [ 94.875, 26.719 ], [ 94.864, 26.709 ], [ 94.868, 26.697 ], [ 94.858, 26.688 ], [ 94.861, 26.676 ], [ 94.851, 26.667 ], [ 94.837, 26.67 ], [ 94.826, 26.661 ], [ 94.812, 26.664 ], [ 94.801, 26.655 ], [ 94.787, 26.658 ], [ 94.776, 26.649 ], [ 94.762, 26.652 ], [ 94.758, 26.665 ], [ 94.743, 26.668 ], [ 94.733, 26.659 ], [ 94.718, 26.662 ], [ 94.708, 26.653 ], [ 94.712, 26.64 ], [ 94.701, 26.631 ], [ 94.705, 26.619 ], [ 94.695, 26.61 ], [ 94.699, 26.598 ], [ 94.688, 26.588 ], [ 94.674, 26.592 ], [ 94.663, 26.583 ], [ 94.667, 26.57 ], [ 94.656, 26.561 ], [ 94.66, 26.549 ], [ 94.65, 26.54 ], [ 94.654, 26.527 ], [ 94.643, 26.518 ], [ 94.629, 26.521 ], [ 94.618, 26.512 ], [ 94.622, 26.5 ], [ 94.612, 26.491 ], [ 94.615, 26.479 ], [ 94.605, 26.469 ], [ 94.591, 26.473 ], [ 94.58, 26.464 ], [ 94.584, 26.451 ], [ 94.573, 26.442 ], [ 94.577, 26.43 ], [ 94.567, 26.421 ], [ 94.552, 26.424 ], [ 94.542, 26.415 ], [ 94.546, 26.402 ], [ 94.535, 26.393 ], [ 94.521, 26.396 ], [ 94.51, 26.387 ], [ 94.514, 26.375 ], [ 94.504, 26.366 ], [ 94.489, 26.369 ], [ 94.479, 26.36 ], [ 94.464, 26.363 ], [ 94.454, 26.354 ], [ 94.439, 26.357 ], [ 94.429, 26.348 ], [ 94.433, 26.336 ], [ 94.422, 26.326 ], [ 94.426, 26.314 ], [ 94.416, 26.305 ], [ 94.42, 26.293 ], [ 94.409, 26.283 ], [ 94.413, 26.271 ], [ 94.427, 26.268 ], [ 94.431, 26.256 ], [ 94.446, 26.252 ], [ 94.456, 26.262 ], [ 94.47, 26.258 ], [ 94.481, 26.268 ], [ 94.495, 26.264 ], [ 94.499, 26.252 ], [ 94.514, 26.249 ], [ 94.518, 26.236 ], [ 94.507, 26.227 ], [ 94.511, 26.215 ], [ 94.525, 26.212 ], [ 94.536, 26.221 ], [ 94.55, 26.218 ], [ 94.561, 26.227 ], [ 94.575, 26.224 ], [ 94.586, 26.233 ], [ 94.582, 26.245 ], [ 94.567, 26.248 ], [ 94.563, 26.261 ], [ 94.574, 26.27 ], [ 94.57, 26.282 ], [ 94.581, 26.291 ], [ 94.577, 26.304 ], [ 94.587, 26.313 ], [ 94.602, 26.31 ], [ 94.612, 26.319 ], [ 94.608, 26.331 ], [ 94.619, 26.34 ], [ 94.633, 26.337 ], [ 94.644, 26.346 ], [ 94.658, 26.343 ], [ 94.669, 26.352 ], [ 94.665, 26.364 ], [ 94.675, 26.374 ], [ 94.671, 26.386 ], [ 94.682, 26.395 ], [ 94.678, 26.407 ], [ 94.689, 26.417 ], [ 94.703, 26.413 ], [ 94.713, 26.422 ], [ 94.71, 26.435 ], [ 94.72, 26.444 ], [ 94.716, 26.456 ], [ 94.727, 26.465 ], [ 94.741, 26.462 ], [ 94.752, 26.471 ], [ 94.766, 26.468 ], [ 94.77, 26.456 ], [ 94.784, 26.452 ], [ 94.788, 26.44 ], [ 94.803, 26.437 ], [ 94.806, 26.425 ], [ 94.821, 26.421 ], [ 94.825, 26.409 ], [ 94.839, 26.406 ], [ 94.843, 26.394 ], [ 94.857, 26.39 ], [ 94.861, 26.378 ], [ 94.876, 26.375 ], [ 94.879, 26.362 ], [ 94.894, 26.359 ], [ 94.904, 26.368 ], [ 94.901, 26.381 ], [ 94.911, 26.39 ], [ 94.907, 26.402 ], [ 94.893, 26.405 ], [ 94.889, 26.418 ], [ 94.899, 26.427 ], [ 94.896, 26.439 ], [ 94.906, 26.448 ], [ 94.902, 26.461 ], [ 94.913, 26.47 ], [ 94.927, 26.466 ], [ 94.938, 26.475 ], [ 94.934, 26.488 ], [ 94.944, 26.497 ], [ 94.959, 26.494 ], [ 94.969, 26.503 ], [ 94.965, 26.515 ], [ 94.976, 26.524 ], [ 94.99, 26.521 ], [ 95.001, 26.53 ], [ 94.997, 26.542 ], [ 95.008, 26.551 ], [ 95.022, 26.548 ], [ 95.033, 26.557 ], [ 95.047, 26.554 ], [ 95.057, 26.563 ], [ 95.054, 26.576 ], [ 95.064, 26.585 ], [ 95.06, 26.597 ], [ 95.071, 26.606 ], [ 95.067, 26.618 ], [ 95.078, 26.627 ], [ 95.092, 26.624 ], [ 95.102, 26.633 ], [ 95.117, 26.63 ], [ 95.127, 26.639 ], [ 95.142, 26.636 ], [ 95.152, 26.645 ], [ 95.167, 26.642 ], [ 95.177, 26.651 ], [ 95.192, 26.647 ], [ 95.202, 26.657 ], [ 95.217, 26.653 ], [ 95.227, 26.662 ], [ 95.242, 26.659 ], [ 95.252, 26.668 ], [ 95.248, 26.68 ], [ 95.234, 26.684 ], [ 95.23, 26.696 ], [ 95.216, 26.699 ], [ 95.212, 26.712 ], [ 95.222, 26.721 ], [ 95.219, 26.733 ], [ 95.229, 26.742 ] ] ], [ [ [ 93.766, 25.608 ], [ 93.776, 25.617 ], [ 93.791, 25.614 ], [ 93.801, 25.623 ], [ 93.815, 25.62 ], [ 93.826, 25.629 ], [ 93.84, 25.626 ], [ 93.851, 25.635 ], [ 93.847, 25.648 ], [ 93.857, 25.657 ], [ 93.853, 25.669 ], [ 93.839, 25.672 ], [ 93.828, 25.663 ], [ 93.814, 25.666 ], [ 93.804, 25.657 ], [ 93.789, 25.66 ], [ 93.785, 25.673 ], [ 93.771, 25.676 ], [ 93.761, 25.666 ], [ 93.746, 25.67 ], [ 93.736, 25.66 ], [ 93.721, 25.664 ], [ 93.711, 25.654 ], [ 93.697, 25.657 ], [ 93.686, 25.648 ], [ 93.672, 25.651 ], [ 93.661, 25.642 ], [ 93.647, 25.645 ], [ 93.643, 25.658 ], [ 93.629, 25.661 ], [ 93.618, 25.651 ], [ 93.604, 25.655 ], [ 93.594, 25.645 ], [ 93.597, 25.633 ], [ 93.587, 25.624 ], [ 93.573, 25.627 ], [ 93.562, 25.617 ], [ 93.566, 25.605 ], [ 93.556, 25.596 ], [ 93.541, 25.599 ], [ 93.531, 25.59 ], [ 93.535, 25.577 ], [ 93.524, 25.568 ], [ 93.528, 25.556 ], [ 93.518, 25.546 ], [ 93.522, 25.534 ], [ 93.511, 25.525 ], [ 93.497, 25.528 ], [ 93.487, 25.518 ], [ 93.49, 25.506 ], [ 93.48, 25.497 ], [ 93.466, 25.5 ], [ 93.455, 25.491 ], [ 93.441, 25.494 ], [ 93.43, 25.484 ], [ 93.416, 25.488 ], [ 93.406, 25.478 ], [ 93.391, 25.481 ], [ 93.381, 25.472 ], [ 93.385, 25.46 ], [ 93.399, 25.457 ], [ 93.403, 25.444 ], [ 93.417, 25.441 ], [ 93.428, 25.45 ], [ 93.442, 25.447 ], [ 93.446, 25.435 ], [ 93.46, 25.432 ], [ 93.471, 25.441 ], [ 93.485, 25.438 ], [ 93.496, 25.447 ], [ 93.51, 25.444 ], [ 93.52, 25.453 ], [ 93.535, 25.45 ], [ 93.545, 25.459 ], [ 93.541, 25.472 ], [ 93.552, 25.481 ], [ 93.548, 25.494 ], [ 93.558, 25.503 ], [ 93.573, 25.5 ], [ 93.583, 25.509 ], [ 93.579, 25.521 ], [ 93.59, 25.531 ], [ 93.604, 25.528 ], [ 93.614, 25.537 ], [ 93.629, 25.534 ], [ 93.639, 25.543 ], [ 93.653, 25.54 ], [ 93.664, 25.549 ], [ 93.678, 25.546 ], [ 93.682, 25.534 ], [ 93.696, 25.53 ], [ 93.707, 25.54 ], [ 93.703, 25.552 ], [ 93.713, 25.561 ], [ 93.71, 25.574 ], [ 93.72, 25.583 ], [ 93.734, 25.58 ], [ 93.745, 25.589 ], [ 93.741, 25.602 ], [ 93.751, 25.611 ], [ 93.766, 25.608 ] ] ] ] } },
{ "type": "Feature", "properties": { "POLYGON.ID": 208.0, "subregion": "India--Nagaland--Zunheboto--high elevations", "FILTER": "Nagaland", "POLYGON": "India--Nagaland--Zunheboto--high elevations", "STATE": "Nagaland", "COUNTY": "Zunheboto", "OWNER": null }, "geometry": { "type": "MultiPolygon", "coordinates": [ [ [ [ 94.524, 25.959 ], [ 94.539, 25.956 ], [ 94.542, 25.943 ], [ 94.532, 25.934 ], [ 94.536, 25.922 ], [ 94.55, 25.919 ], [ 94.554, 25.906 ], [ 94.568, 25.903 ], [ 94.579, 25.912 ], [ 94.593, 25.909 ], [ 94.604, 25.918 ], [ 94.6, 25.93 ], [ 94.61, 25.94 ], [ 94.607, 25.952 ], [ 94.617, 25.961 ], [ 94.631, 25.958 ], [ 94.642, 25.967 ], [ 94.638, 25.98 ], [ 94.649, 25.989 ], [ 94.645, 26.001 ], [ 94.655, 26.01 ], [ 94.67, 26.007 ], [ 94.68, 26.016 ], [ 94.676, 26.029 ], [ 94.687, 26.038 ], [ 94.683, 26.05 ], [ 94.669, 26.053 ], [ 94.665, 26.066 ], [ 94.675, 26.075 ], [ 94.671, 26.087 ], [ 94.682, 26.096 ], [ 94.678, 26.109 ], [ 94.688, 26.118 ], [ 94.685, 26.13 ], [ 94.695, 26.139 ], [ 94.691, 26.152 ], [ 94.702, 26.161 ], [ 94.698, 26.173 ], [ 94.683, 26.177 ], [ 94.68, 26.189 ], [ 94.69, 26.198 ], [ 94.686, 26.21 ], [ 94.672, 26.214 ], [ 94.661, 26.204 ], [ 94.647, 26.208 ], [ 94.636, 26.199 ], [ 94.622, 26.202 ], [ 94.612, 26.193 ], [ 94.597, 26.196 ], [ 94.593, 26.208 ], [ 94.579, 26.211 ], [ 94.575, 26.224 ], [ 94.561, 26.227 ], [ 94.55, 26.218 ], [ 94.536, 26.221 ], [ 94.525, 26.212 ], [ 94.511, 26.215 ], [ 94.5, 26.206 ], [ 94.504, 26.193 ], [ 94.494, 26.184 ], [ 94.498, 26.172 ], [ 94.487, 26.163 ], [ 94.491, 26.15 ], [ 94.481, 26.141 ], [ 94.484, 26.129 ], [ 94.474, 26.12 ], [ 94.478, 26.107 ], [ 94.467, 26.098 ], [ 94.471, 26.086 ], [ 94.461, 26.077 ], [ 94.465, 26.064 ], [ 94.479, 26.061 ], [ 94.483, 26.049 ], [ 94.472, 26.04 ], [ 94.476, 26.027 ], [ 94.466, 26.018 ], [ 94.47, 26.006 ], [ 94.459, 25.996 ], [ 94.463, 25.984 ], [ 94.452, 25.975 ], [ 94.438, 25.978 ], [ 94.428, 25.969 ], [ 94.431, 25.957 ], [ 94.421, 25.947 ], [ 94.407, 25.951 ], [ 94.396, 25.941 ], [ 94.4, 25.929 ], [ 94.389, 25.92 ], [ 94.393, 25.907 ], [ 94.383, 25.898 ], [ 94.387, 25.886 ], [ 94.376, 25.877 ], [ 94.362, 25.88 ], [ 94.351, 25.871 ], [ 94.355, 25.858 ], [ 94.345, 25.849 ], [ 94.33, 25.852 ], [ 94.32, 25.843 ], [ 94.324, 25.831 ], [ 94.313, 25.821 ], [ 94.317, 25.809 ], [ 94.332, 25.806 ], [ 94.342, 25.815 ], [ 94.356, 25.812 ], [ 94.367, 25.821 ], [ 94.381, 25.818 ], [ 94.392, 25.827 ], [ 94.388, 25.839 ], [ 94.398, 25.849 ], [ 94.413, 25.845 ], [ 94.423, 25.855 ], [ 94.438, 25.851 ], [ 94.448, 25.861 ], [ 94.462, 25.857 ], [ 94.466, 25.845 ], [ 94.481, 25.842 ], [ 94.491, 25.851 ], [ 94.487, 25.863 ], [ 94.498, 25.873 ], [ 94.494, 25.885 ], [ 94.504, 25.894 ], [ 94.501, 25.907 ], [ 94.511, 25.916 ], [ 94.507, 25.928 ], [ 94.518, 25.937 ], [ 94.514, 25.95 ], [ 94.524, 25.959 ] ] ] ] } },
{ "type": "Feature", "properties": { "POLYGON.ID": 209.0, "subregion": "India--Nagaland--Phek--high elevations", "FILTER": "Nagaland", "POLYGON": "India--Nagaland--Phek--high elevations", "STATE": "Nagaland", "COUNTY": "Phek", "OWNER": null }, "geometry": { "type": "MultiPolygon", "coordinates": [ [ [ [ 94.291, 25.723 ], [ 94.28, 25.713 ], [ 94.266, 25.717 ], [ 94.255, 25.707 ], [ 94.259, 25.695 ], [ 94.249, 25.686 ], [ 94.235, 25.689 ], [ 94.224, 25.68 ], [ 94.228, 25.667 ], [ 94.217, 25.658 ], [ 94.221, 25.646 ], [ 94.211, 25.636 ], [ 94.215, 25.624 ], [ 94.204, 25.615 ], [ 94.208, 25.602 ], [ 94.198, 25.593 ], [ 94.202, 25.581 ], [ 94.191, 25.572 ], [ 94.195, 25.559 ], [ 94.185, 25.55 ], [ 94.188, 25.537 ], [ 94.203, 25.534 ], [ 94.207, 25.522 ], [ 94.221, 25.519 ], [ 94.225, 25.506 ], [ 94.214, 25.497 ], [ 94.218, 25.485 ], [ 94.233, 25.481 ], [ 94.243, 25.491 ], [ 94.257, 25.487 ], [ 94.268, 25.497 ], [ 94.282, 25.493 ], [ 94.293, 25.503 ], [ 94.307, 25.499 ], [ 94.318, 25.509 ], [ 94.332, 25.506 ], [ 94.342, 25.515 ], [ 94.357, 25.512 ], [ 94.367, 25.521 ], [ 94.381, 25.518 ], [ 94.392, 25.527 ], [ 94.406, 25.524 ], [ 94.417, 25.533 ], [ 94.413, 25.545 ], [ 94.423, 25.554 ], [ 94.42, 25.567 ], [ 94.405, 25.57 ], [ 94.395, 25.561 ], [ 94.38, 25.564 ], [ 94.376, 25.576 ], [ 94.362, 25.58 ], [ 94.358, 25.592 ], [ 94.344, 25.595 ], [ 94.333, 25.586 ], [ 94.319, 25.589 ], [ 94.315, 25.602 ], [ 94.326, 25.611 ], [ 94.322, 25.623 ], [ 94.332, 25.633 ], [ 94.347, 25.629 ], [ 94.357, 25.639 ], [ 94.353, 25.651 ], [ 94.364, 25.66 ], [ 94.378, 25.657 ], [ 94.389, 25.666 ], [ 94.385, 25.679 ], [ 94.395, 25.688 ], [ 94.391, 25.7 ], [ 94.402, 25.709 ], [ 94.416, 25.706 ], [ 94.427, 25.715 ], [ 94.423, 25.728 ], [ 94.433, 25.737 ], [ 94.429, 25.75 ], [ 94.44, 25.759 ], [ 94.436, 25.771 ], [ 94.446, 25.78 ], [ 94.443, 25.793 ], [ 94.453, 25.802 ], [ 94.467, 25.799 ], [ 94.478, 25.808 ], [ 94.474, 25.82 ], [ 94.485, 25.829 ], [ 94.481, 25.842 ], [ 94.466, 25.845 ], [ 94.462, 25.857 ], [ 94.448, 25.861 ], [ 94.438, 25.851 ], [ 94.423, 25.855 ], [ 94.413, 25.845 ], [ 94.398, 25.849 ], [ 94.388, 25.839 ], [ 94.392, 25.827 ], [ 94.381, 25.818 ], [ 94.367, 25.821 ], [ 94.356, 25.812 ], [ 94.342, 25.815 ], [ 94.332, 25.806 ], [ 94.317, 25.809 ], [ 94.307, 25.8 ], [ 94.311, 25.787 ], [ 94.3, 25.778 ], [ 94.304, 25.766 ], [ 94.294, 25.757 ], [ 94.297, 25.744 ], [ 94.287, 25.735 ], [ 94.291, 25.723 ] ] ] ] } },
{ "type": "Feature", "properties": { "POLYGON.ID": 210.0, "subregion": "India--Nagaland--Eastern Hills_CL32184", "FILTER": "Nagaland", "POLYGON": "India--Nagaland--Eastern Hills_CL32184", "STATE": "Nagaland", "COUNTY": "spl_region", "OWNER": null }, "geometry": { "type": "MultiPolygon", "coordinates": [ [ [ [ 94.876, 26.375 ], [ 94.861, 26.378 ], [ 94.851, 26.369 ], [ 94.855, 26.356 ], [ 94.844, 26.347 ], [ 94.848, 26.335 ], [ 94.837, 26.326 ], [ 94.841, 26.314 ], [ 94.831, 26.304 ], [ 94.816, 26.308 ], [ 94.806, 26.299 ], [ 94.791, 26.302 ], [ 94.781, 26.293 ], [ 94.785, 26.28 ], [ 94.774, 26.271 ], [ 94.778, 26.259 ], [ 94.768, 26.25 ], [ 94.753, 26.253 ], [ 94.743, 26.244 ], [ 94.747, 26.231 ], [ 94.736, 26.222 ], [ 94.74, 26.21 ], [ 94.754, 26.207 ], [ 94.758, 26.194 ], [ 94.748, 26.185 ], [ 94.752, 26.173 ], [ 94.741, 26.164 ], [ 94.745, 26.151 ], [ 94.734, 26.142 ], [ 94.738, 26.13 ], [ 94.728, 26.121 ], [ 94.732, 26.108 ], [ 94.746, 26.105 ], [ 94.75, 26.093 ], [ 94.764, 26.089 ], [ 94.768, 26.077 ], [ 94.782, 26.074 ], [ 94.786, 26.061 ], [ 94.776, 26.052 ], [ 94.78, 26.04 ], [ 94.769, 26.031 ], [ 94.755, 26.034 ], [ 94.744, 26.025 ], [ 94.73, 26.028 ], [ 94.719, 26.019 ], [ 94.705, 26.022 ], [ 94.694, 26.013 ], [ 94.698, 26.001 ], [ 94.688, 25.991 ], [ 94.692, 25.979 ], [ 94.681, 25.97 ], [ 94.685, 25.958 ], [ 94.675, 25.948 ], [ 94.678, 25.936 ], [ 94.693, 25.933 ], [ 94.697, 25.92 ], [ 94.686, 25.911 ], [ 94.69, 25.899 ], [ 94.68, 25.89 ], [ 94.683, 25.877 ], [ 94.698, 25.874 ], [ 94.702, 25.862 ], [ 94.716, 25.858 ], [ 94.72, 25.846 ], [ 94.709, 25.837 ], [ 94.695, 25.84 ], [ 94.685, 25.831 ], [ 94.688, 25.818 ], [ 94.678, 25.809 ], [ 94.682, 25.797 ], [ 94.696, 25.794 ], [ 94.7, 25.781 ], [ 94.714, 25.778 ], [ 94.725, 25.787 ], [ 94.739, 25.784 ], [ 94.743, 25.772 ], [ 94.757, 25.768 ], [ 94.761, 25.756 ], [ 94.776, 25.753 ], [ 94.786, 25.762 ], [ 94.8, 25.759 ], [ 94.811, 25.768 ], [ 94.825, 25.764 ], [ 94.829, 25.752 ], [ 94.844, 25.749 ], [ 94.847, 25.736 ], [ 94.862, 25.733 ], [ 94.866, 25.721 ], [ 94.88, 25.717 ], [ 94.89, 25.727 ], [ 94.905, 25.723 ], [ 94.915, 25.733 ], [ 94.912, 25.745 ], [ 94.922, 25.754 ], [ 94.936, 25.751 ], [ 94.947, 25.76 ], [ 94.943, 25.772 ], [ 94.954, 25.782 ], [ 94.968, 25.778 ], [ 94.978, 25.788 ], [ 94.975, 25.8 ], [ 94.985, 25.809 ], [ 94.981, 25.822 ], [ 94.967, 25.825 ], [ 94.956, 25.816 ], [ 94.942, 25.819 ], [ 94.931, 25.81 ], [ 94.917, 25.813 ], [ 94.913, 25.825 ], [ 94.924, 25.835 ], [ 94.92, 25.847 ], [ 94.93, 25.856 ], [ 94.927, 25.869 ], [ 94.937, 25.878 ], [ 94.951, 25.874 ], [ 94.962, 25.884 ], [ 94.958, 25.896 ], [ 94.969, 25.905 ], [ 94.965, 25.918 ], [ 94.95, 25.921 ], [ 94.947, 25.933 ], [ 94.957, 25.942 ], [ 94.953, 25.955 ], [ 94.964, 25.964 ], [ 94.978, 25.961 ], [ 94.989, 25.97 ], [ 94.985, 25.982 ], [ 94.995, 25.991 ], [ 95.01, 25.988 ], [ 95.02, 25.997 ], [ 95.016, 26.01 ], [ 95.027, 26.019 ], [ 95.041, 26.016 ], [ 95.052, 26.025 ], [ 95.048, 26.037 ], [ 95.058, 26.046 ], [ 95.054, 26.059 ], [ 95.04, 26.062 ], [ 95.036, 26.074 ], [ 95.047, 26.083 ], [ 95.043, 26.096 ], [ 95.053, 26.105 ], [ 95.05, 26.117 ], [ 95.06, 26.126 ], [ 95.056, 26.139 ], [ 95.067, 26.148 ], [ 95.063, 26.16 ], [ 95.073, 26.169 ], [ 95.07, 26.182 ], [ 95.055, 26.185 ], [ 95.051, 26.197 ], [ 95.037, 26.201 ], [ 95.026, 26.191 ], [ 95.012, 26.195 ], [ 95.008, 26.207 ], [ 94.994, 26.21 ], [ 94.983, 26.201 ], [ 94.969, 26.204 ], [ 94.958, 26.195 ], [ 94.962, 26.183 ], [ 94.952, 26.174 ], [ 94.937, 26.177 ], [ 94.927, 26.168 ], [ 94.912, 26.171 ], [ 94.902, 26.162 ], [ 94.888, 26.165 ], [ 94.884, 26.178 ], [ 94.869, 26.181 ], [ 94.859, 26.172 ], [ 94.844, 26.175 ], [ 94.841, 26.187 ], [ 94.826, 26.191 ], [ 94.822, 26.203 ], [ 94.833, 26.212 ], [ 94.829, 26.224 ], [ 94.84, 26.234 ], [ 94.836, 26.246 ], [ 94.846, 26.255 ], [ 94.842, 26.267 ], [ 94.853, 26.277 ], [ 94.867, 26.273 ], [ 94.878, 26.282 ], [ 94.874, 26.295 ], [ 94.884, 26.304 ], [ 94.881, 26.316 ], [ 94.891, 26.325 ], [ 94.887, 26.338 ], [ 94.898, 26.347 ], [ 94.894, 26.359 ], [ 94.879, 26.362 ], [ 94.876, 26.375 ] ] ] ] } },
{ "type": "Feature", "properties": { "POLYGON.ID": 954.0, "subregion": "India--Nagaland--Kohima--Khonoma", "FILTER": "Nagaland", "POLYGON": "India--Nagaland--Kohima--Khonoma", "STATE": "Nagaland", "COUNTY": "Kohima", "OWNER": null }, "geometry": { "type": "MultiPolygon", "coordinates": [ [ [ [ 94.043, 25.662 ], [ 94.039, 25.675 ], [ 94.024, 25.678 ], [ 94.02, 25.69 ], [ 94.031, 25.699 ], [ 94.027, 25.712 ], [ 94.013, 25.715 ], [ 94.009, 25.727 ], [ 93.994, 25.731 ], [ 93.984, 25.721 ], [ 93.97, 25.724 ], [ 93.959, 25.715 ], [ 93.945, 25.718 ], [ 93.934, 25.709 ], [ 93.938, 25.697 ], [ 93.928, 25.688 ], [ 93.913, 25.691 ], [ 93.903, 25.681 ], [ 93.907, 25.669 ], [ 93.896, 25.66 ], [ 93.9, 25.647 ], [ 93.915, 25.644 ], [ 93.918, 25.632 ], [ 93.908, 25.623 ], [ 93.912, 25.61 ], [ 93.926, 25.607 ], [ 93.93, 25.595 ], [ 93.944, 25.591 ], [ 93.948, 25.579 ], [ 93.938, 25.57 ], [ 93.942, 25.557 ], [ 93.956, 25.554 ], [ 93.967, 25.563 ], [ 93.981, 25.56 ], [ 93.991, 25.57 ], [ 94.006, 25.566 ], [ 94.016, 25.576 ], [ 94.031, 25.572 ], [ 94.041, 25.582 ], [ 94.055, 25.579 ], [ 94.059, 25.566 ], [ 94.074, 25.563 ], [ 94.084, 25.572 ], [ 94.098, 25.569 ], [ 94.109, 25.578 ], [ 94.105, 25.591 ], [ 94.091, 25.594 ], [ 94.087, 25.606 ], [ 94.097, 25.615 ], [ 94.093, 25.628 ], [ 94.104, 25.637 ], [ 94.1, 25.65 ], [ 94.086, 25.653 ], [ 94.082, 25.665 ], [ 94.067, 25.668 ], [ 94.057, 25.659 ], [ 94.043, 25.662 ] ] ] ] } },
{ "type": "Feature", "properties": { "POLYGON.ID": 953.0, "subregion": "India--Nagaland--Kohima--Foothills", "FILTER": "Nagaland", "POLYGON": "India--Nagaland--Kohima--Foothills", "STATE": "Nagaland", "COUNTY": "Kohima", "OWNER": null }, "geometry": { "type": "MultiPolygon", "coordinates": [ [ [ [ 94.059, 25.866 ], [ 94.073, 25.863 ], [ 94.084, 25.872 ], [ 94.098, 25.869 ], [ 94.108, 25.878 ], [ 94.123, 25.875 ], [ 94.133, 25.884 ], [ 94.129, 25.897 ], [ 94.14, 25.906 ], [ 94.136, 25.918 ], [ 94.146, 25.928 ], [ 94.161, 25.924 ], [ 94.171, 25.934 ], [ 94.167, 25.946 ], [ 94.178, 25.955 ], [ 94.174, 25.968 ], [ 94.16, 25.971 ], [ 94.149, 25.962 ], [ 94.135, 25.965 ], [ 94.131, 25.977 ], [ 94.116, 25.98 ], [ 94.113, 25.993 ], [ 94.098, 25.996 ], [ 94.094, 26.008 ], [ 94.08, 26.011 ], [ 94.069, 26.002 ], [ 94.055, 26.005 ], [ 94.045, 25.996 ], [ 94.03, 25.999 ], [ 94.02, 25.99 ], [ 94.005, 25.993 ], [ 93.995, 25.984 ], [ 93.981, 25.987 ], [ 93.97, 25.978 ], [ 93.956, 25.981 ], [ 93.945, 25.972 ], [ 93.949, 25.959 ], [ 93.963, 25.956 ], [ 93.967, 25.944 ], [ 93.982, 25.941 ], [ 93.986, 25.928 ], [ 93.975, 25.919 ], [ 93.979, 25.907 ], [ 93.969, 25.898 ], [ 93.972, 25.885 ], [ 93.987, 25.882 ], [ 93.991, 25.87 ], [ 94.005, 25.867 ], [ 94.009, 25.854 ], [ 94.023, 25.851 ], [ 94.027, 25.839 ], [ 94.042, 25.835 ], [ 94.052, 25.845 ], [ 94.048, 25.857 ], [ 94.059, 25.866 ] ] ] ] } },
{ "type": "Feature", "properties": { "POLYGON.ID": 952.0, "subregion": "India--Nagaland--Dimapur--Foothills", "FILTER": "Nagaland", "POLYGON": "India--Nagaland--Dimapur--Foothills", "STATE": "Nagaland", "COUNTY": "Dimapur", "OWNER": null }, "geometry": { "type": "MultiPolygon", "coordinates": [ [ [ [ 93.617, 25.698 ], [ 93.607, 25.689 ], [ 93.592, 25.692 ], [ 93.582, 25.682 ], [ 93.586, 25.67 ], [ 93.6, 25.667 ], [ 93.604, 25.655 ], [ 93.618, 25.651 ], [ 93.629, 25.661 ], [ 93.643, 25.658 ], [ 93.654, 25.667 ], [ 93.668, 25.664 ], [ 93.678, 25.673 ], [ 93.674, 25.685 ], [ 93.685, 25.695 ], [ 93.699, 25.691 ], [ 93.71, 25.701 ], [ 93.724, 25.698 ], [ 93.735, 25.707 ], [ 93.749, 25.704 ], [ 93.753, 25.691 ], [ 93.767, 25.688 ], [ 93.778, 25.697 ], [ 93.792, 25.694 ], [ 93.802, 25.703 ], [ 93.799, 25.716 ], [ 93.809, 25.725 ], [ 93.805, 25.738 ], [ 93.816, 25.747 ], [ 93.83, 25.744 ], [ 93.84, 25.753 ], [ 93.855, 25.75 ], [ 93.865, 25.759 ], [ 93.861, 25.771 ], [ 93.872, 25.781 ], [ 93.886, 25.777 ], [ 93.897, 25.787 ], [ 93.911, 25.783 ], [ 93.921, 25.793 ], [ 93.936, 25.79 ], [ 93.946, 25.799 ], [ 93.961, 25.796 ], [ 93.971, 25.805 ], [ 93.967, 25.817 ], [ 93.978, 25.826 ], [ 93.992, 25.823 ], [ 94.002, 25.833 ], [ 94.017, 25.829 ], [ 94.027, 25.839 ], [ 94.023, 25.851 ], [ 94.009, 25.854 ], [ 94.005, 25.867 ], [ 93.991, 25.87 ], [ 93.987, 25.882 ], [ 93.972, 25.885 ], [ 93.969, 25.898 ], [ 93.954, 25.901 ], [ 93.944, 25.892 ], [ 93.929, 25.895 ], [ 93.919, 25.885 ], [ 93.923, 25.873 ], [ 93.912, 25.864 ], [ 93.898, 25.867 ], [ 93.888, 25.858 ], [ 93.873, 25.861 ], [ 93.863, 25.852 ], [ 93.848, 25.855 ], [ 93.838, 25.846 ], [ 93.824, 25.849 ], [ 93.813, 25.84 ], [ 93.817, 25.827 ], [ 93.806, 25.818 ], [ 93.792, 25.821 ], [ 93.782, 25.812 ], [ 93.786, 25.799 ], [ 93.775, 25.79 ], [ 93.761, 25.793 ], [ 93.75, 25.784 ], [ 93.754, 25.772 ], [ 93.744, 25.762 ], [ 93.729, 25.766 ], [ 93.719, 25.756 ], [ 93.705, 25.759 ], [ 93.694, 25.75 ], [ 93.698, 25.738 ], [ 93.688, 25.729 ], [ 93.673, 25.732 ], [ 93.663, 25.722 ], [ 93.648, 25.726 ], [ 93.638, 25.716 ], [ 93.624, 25.719 ], [ 93.613, 25.71 ], [ 93.617, 25.698 ] ] ] ] } },
{ "type": "Feature", "properties": { "POLYGON.ID": 951.0, "subregion": "India--Nagaland--Dimapur--Plains", "FILTER": "Nagaland", "POLYGON": "India--Nagaland--Dimapur--Plains", "STATE": "Nagaland", "COUNTY": "Dimapur", "OWNER": null }, "geometry": { "type": "MultiPolygon", "coordinates": [ [ [ [ 93.705, 25.759 ], [ 93.719, 25.756 ], [ 93.729, 25.766 ], [ 93.744, 25.762 ], [ 93.754, 25.772 ], [ 93.75, 25.784 ], [ 93.761, 25.793 ], [ 93.775, 25.79 ], [ 93.786, 25.799 ], [ 93.782, 25.812 ], [ 93.792, 25.821 ], [ 93.806, 25.818 ], [ 93.817, 25.827 ], [ 93.813, 25.84 ], [ 93.824, 25.849 ], [ 93.838, 25.846 ], [ 93.848, 25.855 ], [ 93.844, 25.867 ], [ 93.855, 25.876 ], [ 93.851, 25.889 ], [ 93.837, 25.892 ], [ 93.833, 25.904 ], [ 93.818, 25.907 ], [ 93.814, 25.92 ], [ 93.825, 25.929 ], [ 93.821, 25.941 ], [ 93.807, 25.945 ], [ 93.803, 25.957 ], [ 93.788, 25.96 ], [ 93.785, 25.972 ], [ 93.77, 25.976 ], [ 93.76, 25.966 ], [ 93.745, 25.969 ], [ 93.735, 25.96 ], [ 93.72, 25.963 ], [ 93.71, 25.954 ], [ 93.714, 25.942 ], [ 93.703, 25.932 ], [ 93.689, 25.936 ], [ 93.679, 25.926 ], [ 93.683, 25.914 ], [ 93.672, 25.905 ], [ 93.676, 25.892 ], [ 93.69, 25.889 ], [ 93.694, 25.877 ], [ 93.684, 25.868 ], [ 93.688, 25.855 ], [ 93.677, 25.846 ], [ 93.681, 25.834 ], [ 93.671, 25.824 ], [ 93.656, 25.828 ], [ 93.646, 25.818 ], [ 93.632, 25.821 ], [ 93.621, 25.812 ], [ 93.625, 25.8 ], [ 93.615, 25.791 ], [ 93.618, 25.778 ], [ 93.608, 25.769 ], [ 93.594, 25.772 ], [ 93.583, 25.763 ], [ 93.587, 25.75 ], [ 93.577, 25.741 ], [ 93.562, 25.744 ], [ 93.552, 25.735 ], [ 93.556, 25.723 ], [ 93.545, 25.713 ], [ 93.549, 25.701 ], [ 93.539, 25.692 ], [ 93.524, 25.695 ], [ 93.514, 25.686 ], [ 93.518, 25.673 ], [ 93.532, 25.67 ], [ 93.543, 25.679 ], [ 93.557, 25.676 ], [ 93.561, 25.664 ], [ 93.575, 25.661 ], [ 93.586, 25.67 ], [ 93.582, 25.682 ], [ 93.592, 25.692 ], [ 93.607, 25.689 ], [ 93.617, 25.698 ], [ 93.613, 25.71 ], [ 93.624, 25.719 ], [ 93.638, 25.716 ], [ 93.648, 25.726 ], [ 93.663, 25.722 ], [ 93.673, 25.732 ], [ 93.688, 25.729 ], [ 93.698, 25.738 ], [ 93.694, 25.75 ], [ 93.705, 25.759 ] ] ] ] } },
{ "type": "Feature", "properties": { "POLYGON.ID": 950.0, "subregion": "India--Nagaland--Peren--Intangki NP", "FILTER": "Nagaland", "POLYGON": "India--Nagaland--Peren--Intangki NP", "STATE": "Nagaland", "COUNTY": "Peren", "OWNER": null }, "geometry": { "type": "MultiPolygon", "coordinates": [ [ [ [ 93.412, 25.627 ], [ 93.402, 25.618 ], [ 93.406, 25.605 ], [ 93.395, 25.596 ], [ 93.399, 25.584 ], [ 93.389, 25.574 ], [ 93.374, 25.577 ], [ 93.364, 25.568 ], [ 93.35, 25.571 ], [ 93.339, 25.562 ], [ 93.343, 25.55 ], [ 93.333, 25.54 ], [ 93.337, 25.528 ], [ 93.351, 25.525 ], [ 93.355, 25.512 ], [ 93.369, 25.509 ], [ 93.373, 25.497 ], [ 93.387, 25.494 ], [ 93.391, 25.481 ], [ 93.406, 25.478 ], [ 93.416, 25.488 ], [ 93.43, 25.484 ], [ 93.441, 25.494 ], [ 93.455, 25.491 ], [ 93.466, 25.5 ], [ 93.48, 25.497 ], [ 93.49, 25.506 ], [ 93.487, 25.518 ], [ 93.497, 25.528 ], [ 93.511, 25.525 ], [ 93.522, 25.534 ], [ 93.518, 25.546 ], [ 93.528, 25.556 ], [ 93.524, 25.568 ], [ 93.535, 25.577 ], [ 93.531, 25.59 ], [ 93.541, 25.599 ], [ 93.556, 25.596 ], [ 93.566, 25.605 ], [ 93.562, 25.617 ], [ 93.573, 25.627 ], [ 93.587, 25.624 ], [ 93.597, 25.633 ], [ 93.594, 25.645 ], [ 93.604, 25.655 ], [ 93.6, 25.667 ], [ 93.586, 25.67 ], [ 93.575, 25.661 ], [ 93.561, 25.664 ], [ 93.557, 25.676 ], [ 93.543, 25.679 ], [ 93.532, 25.67 ], [ 93.518, 25.673 ], [ 93.507, 25.664 ], [ 93.493, 25.667 ], [ 93.483, 25.658 ], [ 93.487, 25.645 ], [ 93.476, 25.636 ], [ 93.462, 25.639 ], [ 93.451, 25.63 ], [ 93.437, 25.633 ], [ 93.427, 25.624 ], [ 93.412, 25.627 ] ] ] ] } },
{ "type": "Feature", "properties": { "POLYGON.ID": 949.0, "subregion": "India--Nagaland--Peren--high elevations", "FILTER": "Nagaland", "POLYGON": "India--Nagaland--Peren--high elevations", "STATE": "Nagaland", "COUNTY": "Peren", "OWNER": null }, "geometry": { "type": "MultiPolygon", "coordinates": [ [ [ [ 93.66, 25.307 ], [ 93.656, 25.32 ], [ 93.666, 25.329 ], [ 93.681, 25.326 ], [ 93.691, 25.335 ], [ 93.687, 25.347 ], [ 93.698, 25.357 ], [ 93.712, 25.354 ], [ 93.722, 25.363 ], [ 93.718, 25.375 ], [ 93.729, 25.385 ], [ 93.725, 25.397 ], [ 93.735, 25.406 ], [ 93.75, 25.403 ], [ 93.76, 25.412 ], [ 93.756, 25.425 ], [ 93.767, 25.434 ], [ 93.781, 25.431 ], [ 93.792, 25.44 ], [ 93.788, 25.453 ], [ 93.798, 25.462 ], [ 93.794, 25.474 ], [ 93.805, 25.484 ], [ 93.801, 25.496 ], [ 93.786, 25.499 ], [ 93.776, 25.49 ], [ 93.762, 25.493 ], [ 93.758, 25.505 ], [ 93.768, 25.515 ], [ 93.764, 25.527 ], [ 93.775, 25.536 ], [ 93.789, 25.533 ], [ 93.8, 25.542 ], [ 93.814, 25.539 ], [ 93.824, 25.549 ], [ 93.839, 25.545 ], [ 93.849, 25.555 ], [ 93.863, 25.552 ], [ 93.874, 25.561 ], [ 93.888, 25.558 ], [ 93.899, 25.567 ], [ 93.913, 25.564 ], [ 93.917, 25.551 ], [ 93.931, 25.548 ], [ 93.942, 25.557 ], [ 93.938, 25.57 ], [ 93.948, 25.579 ], [ 93.944, 25.591 ], [ 93.93, 25.595 ], [ 93.926, 25.607 ], [ 93.912, 25.61 ], [ 93.908, 25.623 ], [ 93.918, 25.632 ], [ 93.915, 25.644 ], [ 93.9, 25.647 ], [ 93.896, 25.66 ], [ 93.907, 25.669 ], [ 93.903, 25.681 ], [ 93.889, 25.685 ], [ 93.878, 25.675 ], [ 93.864, 25.679 ], [ 93.853, 25.669 ], [ 93.857, 25.657 ], [ 93.847, 25.648 ], [ 93.851, 25.635 ], [ 93.84, 25.626 ], [ 93.826, 25.629 ], [ 93.815, 25.62 ], [ 93.801, 25.623 ], [ 93.791, 25.614 ], [ 93.776, 25.617 ], [ 93.766, 25.608 ], [ 93.751, 25.611 ], [ 93.741, 25.602 ], [ 93.745, 25.589 ], [ 93.734, 25.58 ], [ 93.72, 25.583 ], [ 93.71, 25.574 ], [ 93.713, 25.561 ], [ 93.703, 25.552 ], [ 93.707, 25.54 ], [ 93.696, 25.53 ], [ 93.682, 25.534 ], [ 93.678, 25.546 ], [ 93.664, 25.549 ], [ 93.653, 25.54 ], [ 93.639, 25.543 ], [ 93.629, 25.534 ], [ 93.614, 25.537 ], [ 93.604, 25.528 ], [ 93.59, 25.531 ], [ 93.579, 25.521 ], [ 93.583, 25.509 ], [ 93.573, 25.5 ], [ 93.558, 25.503 ], [ 93.548, 25.494 ], [ 93.552, 25.481 ], [ 93.541, 25.472 ], [ 93.545, 25.459 ], [ 93.535, 25.45 ], [ 93.52, 25.453 ], [ 93.51, 25.444 ], [ 93.496, 25.447 ], [ 93.485, 25.438 ], [ 93.471, 25.441 ], [ 93.46, 25.432 ], [ 93.464, 25.419 ], [ 93.454, 25.41 ], [ 93.458, 25.398 ], [ 93.472, 25.394 ], [ 93.476, 25.382 ], [ 93.466, 25.373 ], [ 93.47, 25.36 ], [ 93.459, 25.351 ], [ 93.463, 25.339 ], [ 93.453, 25.329 ], [ 93.456, 25.317 ], [ 93.471, 25.314 ], [ 93.475, 25.301 ], [ 93.464, 25.292 ], [ 93.468, 25.28 ], [ 93.483, 25.276 ], [ 93.486, 25.264 ], [ 93.501, 25.261 ], [ 93.505, 25.248 ], [ 93.519, 25.245 ], [ 93.529, 25.255 ], [ 93.544, 25.251 ], [ 93.548, 25.239 ], [ 93.562, 25.236 ], [ 93.566, 25.223 ], [ 93.58, 25.22 ], [ 93.584, 25.208 ], [ 93.598, 25.205 ], [ 93.609, 25.214 ], [ 93.605, 25.226 ], [ 93.615, 25.236 ], [ 93.63, 25.233 ], [ 93.64, 25.242 ], [ 93.636, 25.254 ], [ 93.647, 25.264 ], [ 93.643, 25.276 ], [ 93.653, 25.285 ], [ 93.649, 25.298 ], [ 93.66, 25.307 ] ] ] ] } },
{ "type": "Feature", "properties": { "POLYGON.ID": 955.0, "subregion": "India--Nagaland--Wokha--Foothills", "FILTER": "Nagaland", "POLYGON": "India--Nagaland--Wokha--Foothills", "STATE": "Nagaland", "COUNTY": "Wokha", "OWNER": null }, "geometry": { "type": "MultiPolygon", "coordinates": [ [ [ [ 93.952, 25.993 ], [ 93.956, 25.981 ], [ 93.97, 25.978 ], [ 93.981, 25.987 ], [ 93.995, 25.984 ], [ 94.005, 25.993 ], [ 94.02, 25.99 ], [ 94.03, 25.999 ], [ 94.045, 25.996 ], [ 94.055, 26.005 ], [ 94.069, 26.002 ], [ 94.08, 26.011 ], [ 94.076, 26.024 ], [ 94.087, 26.033 ], [ 94.083, 26.045 ], [ 94.068, 26.048 ], [ 94.064, 26.061 ], [ 94.075, 26.07 ], [ 94.089, 26.067 ], [ 94.1, 26.076 ], [ 94.096, 26.088 ], [ 94.106, 26.097 ], [ 94.102, 26.11 ], [ 94.113, 26.119 ], [ 94.127, 26.116 ], [ 94.138, 26.125 ], [ 94.134, 26.137 ], [ 94.144, 26.147 ], [ 94.159, 26.143 ], [ 94.169, 26.153 ], [ 94.165, 26.165 ], [ 94.176, 26.174 ], [ 94.172, 26.186 ], [ 94.182, 26.196 ], [ 94.179, 26.208 ], [ 94.189, 26.217 ], [ 94.185, 26.23 ], [ 94.196, 26.239 ], [ 94.192, 26.251 ], [ 94.177, 26.254 ], [ 94.173, 26.267 ], [ 94.184, 26.276 ], [ 94.18, 26.288 ], [ 94.191, 26.297 ], [ 94.187, 26.31 ], [ 94.197, 26.319 ], [ 94.212, 26.316 ], [ 94.215, 26.303 ], [ 94.23, 26.3 ], [ 94.24, 26.309 ], [ 94.255, 26.306 ], [ 94.265, 26.315 ], [ 94.28, 26.312 ], [ 94.29, 26.321 ], [ 94.286, 26.334 ], [ 94.297, 26.343 ], [ 94.311, 26.34 ], [ 94.322, 26.349 ], [ 94.336, 26.346 ], [ 94.346, 26.355 ], [ 94.361, 26.351 ], [ 94.371, 26.361 ], [ 94.386, 26.357 ], [ 94.396, 26.367 ], [ 94.392, 26.379 ], [ 94.378, 26.382 ], [ 94.374, 26.394 ], [ 94.36, 26.398 ], [ 94.349, 26.388 ], [ 94.335, 26.392 ], [ 94.331, 26.404 ], [ 94.317, 26.407 ], [ 94.313, 26.419 ], [ 94.323, 26.429 ], [ 94.319, 26.441 ], [ 94.305, 26.444 ], [ 94.301, 26.456 ], [ 94.287, 26.46 ], [ 94.283, 26.472 ], [ 94.268, 26.475 ], [ 94.264, 26.487 ], [ 94.275, 26.496 ], [ 94.271, 26.509 ], [ 94.282, 26.518 ], [ 94.278, 26.53 ], [ 94.263, 26.533 ], [ 94.253, 26.524 ], [ 94.257, 26.512 ], [ 94.246, 26.503 ], [ 94.232, 26.506 ], [ 94.221, 26.497 ], [ 94.225, 26.484 ], [ 94.215, 26.475 ], [ 94.219, 26.463 ], [ 94.208, 26.454 ], [ 94.194, 26.457 ], [ 94.183, 26.448 ], [ 94.187, 26.436 ], [ 94.177, 26.426 ], [ 94.18, 26.414 ], [ 94.17, 26.405 ], [ 94.174, 26.393 ], [ 94.188, 26.389 ], [ 94.192, 26.377 ], [ 94.182, 26.368 ], [ 94.185, 26.356 ], [ 94.175, 26.347 ], [ 94.179, 26.334 ], [ 94.168, 26.325 ], [ 94.154, 26.328 ], [ 94.144, 26.319 ], [ 94.129, 26.322 ], [ 94.119, 26.313 ], [ 94.104, 26.316 ], [ 94.094, 26.307 ], [ 94.098, 26.295 ], [ 94.087, 26.285 ], [ 94.073, 26.289 ], [ 94.062, 26.279 ], [ 94.066, 26.267 ], [ 94.056, 26.258 ], [ 94.06, 26.246 ], [ 94.049, 26.236 ], [ 94.035, 26.24 ], [ 94.024, 26.23 ], [ 94.028, 26.218 ], [ 94.018, 26.209 ], [ 94.022, 26.197 ], [ 94.011, 26.187 ], [ 94.015, 26.175 ], [ 94.004, 26.166 ], [ 94.008, 26.153 ], [ 93.998, 26.144 ], [ 94.002, 26.132 ], [ 93.991, 26.123 ], [ 93.995, 26.11 ], [ 93.985, 26.101 ], [ 93.989, 26.089 ], [ 93.978, 26.08 ], [ 93.982, 26.067 ], [ 93.972, 26.058 ], [ 93.975, 26.046 ], [ 93.965, 26.037 ], [ 93.969, 26.024 ], [ 93.958, 26.015 ], [ 93.962, 26.003 ], [ 93.952, 25.993 ] ] ] ] } },
{ "type": "Feature", "properties": { "POLYGON.ID": 956.0, "subregion": "India--Nagaland--Doyang and surroundings", "FILTER": "Nagaland", "POLYGON": "India--Nagaland--Doyang and surroundings", "STATE": "Nagaland", "COUNTY": "spl_region", "OWNER": null }, "geometry": { "type": "MultiPolygon", "coordinates": [ [ [ [ 94.203, 25.961 ], [ 94.217, 25.958 ], [ 94.221, 25.946 ], [ 94.235, 25.942 ], [ 94.246, 25.952 ], [ 94.26, 25.949 ], [ 94.271, 25.958 ], [ 94.285, 25.955 ], [ 94.295, 25.964 ], [ 94.31, 25.961 ], [ 94.32, 25.97 ], [ 94.335, 25.967 ], [ 94.345, 25.976 ], [ 94.36, 25.973 ], [ 94.363, 25.96 ], [ 94.378, 25.957 ], [ 94.388, 25.966 ], [ 94.403, 25.963 ], [ 94.413, 25.972 ], [ 94.409, 25.985 ], [ 94.42, 25.994 ], [ 94.416, 26.006 ], [ 94.402, 26.009 ], [ 94.398, 26.022 ], [ 94.408, 26.031 ], [ 94.404, 26.043 ], [ 94.415, 26.052 ], [ 94.411, 26.065 ], [ 94.421, 26.074 ], [ 94.418, 26.086 ], [ 94.403, 26.089 ], [ 94.399, 26.102 ], [ 94.41, 26.111 ], [ 94.424, 26.108 ], [ 94.435, 26.117 ], [ 94.431, 26.129 ], [ 94.416, 26.133 ], [ 94.412, 26.145 ], [ 94.423, 26.154 ], [ 94.419, 26.166 ], [ 94.43, 26.176 ], [ 94.426, 26.188 ], [ 94.436, 26.197 ], [ 94.432, 26.209 ], [ 94.443, 26.219 ], [ 94.439, 26.231 ], [ 94.449, 26.24 ], [ 94.446, 26.252 ], [ 94.431, 26.256 ], [ 94.427, 26.268 ], [ 94.413, 26.271 ], [ 94.409, 26.283 ], [ 94.42, 26.293 ], [ 94.416, 26.305 ], [ 94.426, 26.314 ], [ 94.422, 26.326 ], [ 94.433, 26.336 ], [ 94.429, 26.348 ], [ 94.439, 26.357 ], [ 94.436, 26.369 ], [ 94.421, 26.373 ], [ 94.411, 26.363 ], [ 94.396, 26.367 ], [ 94.386, 26.357 ], [ 94.371, 26.361 ], [ 94.361, 26.351 ], [ 94.346, 26.355 ], [ 94.336, 26.346 ], [ 94.322, 26.349 ], [ 94.311, 26.34 ], [ 94.297, 26.343 ], [ 94.286, 26.334 ], [ 94.29, 26.321 ], [ 94.28, 26.312 ], [ 94.265, 26.315 ], [ 94.255, 26.306 ], [ 94.24, 26.309 ], [ 94.23, 26.3 ], [ 94.215, 26.303 ], [ 94.212, 26.316 ], [ 94.197, 26.319 ], [ 94.187, 26.31 ], [ 94.191, 26.297 ], [ 94.18, 26.288 ], [ 94.184, 26.276 ], [ 94.173, 26.267 ], [ 94.177, 26.254 ], [ 94.192, 26.251 ], [ 94.196, 26.239 ], [ 94.185, 26.23 ], [ 94.189, 26.217 ], [ 94.179, 26.208 ], [ 94.182, 26.196 ], [ 94.172, 26.186 ], [ 94.176, 26.174 ], [ 94.165, 26.165 ], [ 94.169, 26.153 ], [ 94.159, 26.143 ], [ 94.144, 26.147 ], [ 94.134, 26.137 ], [ 94.138, 26.125 ], [ 94.127, 26.116 ], [ 94.113, 26.119 ], [ 94.102, 26.11 ], [ 94.106, 26.097 ], [ 94.096, 26.088 ], [ 94.1, 26.076 ], [ 94.089, 26.067 ], [ 94.075, 26.07 ], [ 94.064, 26.061 ], [ 94.068, 26.048 ], [ 94.083, 26.045 ], [ 94.087, 26.033 ], [ 94.076, 26.024 ], [ 94.08, 26.011 ], [ 94.094, 26.008 ], [ 94.098, 25.996 ], [ 94.113, 25.993 ], [ 94.116, 25.98 ], [ 94.131, 25.977 ], [ 94.135, 25.965 ], [ 94.149, 25.962 ], [ 94.16, 25.971 ], [ 94.174, 25.968 ], [ 94.184, 25.977 ], [ 94.199, 25.974 ], [ 94.203, 25.961 ] ] ] ] } },
{ "type": "Feature", "properties": { "POLYGON.ID": 957.0, "subregion": "India--Nagaland--Mokokchung--Foothills", "FILTER": "Nagaland", "POLYGON": "India--Nagaland--Mokokchung--Foothills", "STATE": "Nagaland", "COUNTY": "Mokokchung", "OWNER": null }, "geometry": { "type": "MultiPolygon", "coordinates": [ [ [ [ 94.392, 26.379 ], [ 94.396, 26.367 ], [ 94.411, 26.363 ], [ 94.421, 26.373 ], [ 94.436, 26.369 ], [ 94.439, 26.357 ], [ 94.454, 26.354 ], [ 94.464, 26.363 ], [ 94.479, 26.36 ], [ 94.489, 26.369 ], [ 94.504, 26.366 ], [ 94.514, 26.375 ], [ 94.51, 26.387 ], [ 94.521, 26.396 ], [ 94.535, 26.393 ], [ 94.546, 26.402 ], [ 94.542, 26.415 ], [ 94.552, 26.424 ], [ 94.567, 26.421 ], [ 94.577, 26.43 ], [ 94.573, 26.442 ], [ 94.584, 26.451 ], [ 94.58, 26.464 ], [ 94.591, 26.473 ], [ 94.605, 26.469 ], [ 94.615, 26.479 ], [ 94.612, 26.491 ], [ 94.622, 26.5 ], [ 94.618, 26.512 ], [ 94.629, 26.521 ], [ 94.643, 26.518 ], [ 94.654, 26.527 ], [ 94.65, 26.54 ], [ 94.66, 26.549 ], [ 94.656, 26.561 ], [ 94.642, 26.564 ], [ 94.638, 26.577 ], [ 94.624, 26.58 ], [ 94.62, 26.592 ], [ 94.605, 26.595 ], [ 94.602, 26.608 ], [ 94.612, 26.617 ], [ 94.608, 26.629 ], [ 94.594, 26.632 ], [ 94.59, 26.645 ], [ 94.6, 26.654 ], [ 94.597, 26.666 ], [ 94.607, 26.675 ], [ 94.603, 26.687 ], [ 94.614, 26.696 ], [ 94.61, 26.709 ], [ 94.62, 26.718 ], [ 94.617, 26.73 ], [ 94.602, 26.733 ], [ 94.592, 26.724 ], [ 94.577, 26.727 ], [ 94.567, 26.718 ], [ 94.571, 26.706 ], [ 94.56, 26.697 ], [ 94.546, 26.7 ], [ 94.535, 26.691 ], [ 94.521, 26.694 ], [ 94.51, 26.685 ], [ 94.514, 26.673 ], [ 94.504, 26.664 ], [ 94.489, 26.667 ], [ 94.479, 26.658 ], [ 94.464, 26.661 ], [ 94.454, 26.652 ], [ 94.458, 26.639 ], [ 94.447, 26.63 ], [ 94.433, 26.633 ], [ 94.422, 26.624 ], [ 94.426, 26.612 ], [ 94.415, 26.603 ], [ 94.419, 26.591 ], [ 94.409, 26.582 ], [ 94.413, 26.569 ], [ 94.402, 26.56 ], [ 94.406, 26.548 ], [ 94.421, 26.545 ], [ 94.424, 26.532 ], [ 94.439, 26.529 ], [ 94.443, 26.517 ], [ 94.457, 26.514 ], [ 94.461, 26.501 ], [ 94.45, 26.492 ], [ 94.454, 26.48 ], [ 94.444, 26.471 ], [ 94.429, 26.474 ], [ 94.419, 26.465 ], [ 94.423, 26.452 ], [ 94.412, 26.443 ], [ 94.416, 26.431 ], [ 94.406, 26.422 ], [ 94.41, 26.41 ], [ 94.399, 26.4 ], [ 94.385, 26.404 ], [ 94.374, 26.394 ], [ 94.378, 26.382 ], [ 94.392, 26.379 ] ] ] ] } },
{ "type": "Feature", "properties": { "POLYGON.ID": 958.0, "subregion": "India--Nagaland--Mokokchung--Merayim and surroundings", "FILTER": "Nagaland", "POLYGON": "India--Nagaland--Mokokchung--Merayim and surroundings", "STATE": "Nagaland", "COUNTY": "Mokokchung", "OWNER": null }, "geometry": { "type": "MultiPolygon", "coordinates": [ [ [ [ 94.36, 26.398 ], [ 94.374, 26.394 ], [ 94.385, 26.404 ], [ 94.399, 26.4 ], [ 94.41, 26.41 ], [ 94.406, 26.422 ], [ 94.416, 26.431 ], [ 94.412, 26.443 ], [ 94.423, 26.452 ], [ 94.419, 26.465 ], [ 94.429, 26.474 ], [ 94.444, 26.471 ], [ 94.454, 26.48 ], [ 94.45, 26.492 ], [ 94.461, 26.501 ], [ 94.457, 26.514 ], [ 94.443, 26.517 ], [ 94.439, 26.529 ], [ 94.424, 26.532 ], [ 94.421, 26.545 ], [ 94.406, 26.548 ], [ 94.402, 26.56 ], [ 94.388, 26.563 ], [ 94.377, 26.554 ], [ 94.363, 26.557 ], [ 94.352, 26.548 ], [ 94.356, 26.536 ], [ 94.346, 26.527 ], [ 94.331, 26.53 ], [ 94.321, 26.521 ], [ 94.306, 26.524 ], [ 94.296, 26.515 ], [ 94.282, 26.518 ], [ 94.271, 26.509 ], [ 94.275, 26.496 ], [ 94.264, 26.487 ], [ 94.268, 26.475 ], [ 94.283, 26.472 ], [ 94.287, 26.46 ], [ 94.301, 26.456 ], [ 94.305, 26.444 ], [ 94.319, 26.441 ], [ 94.323, 26.429 ], [ 94.313, 26.419 ], [ 94.317, 26.407 ], [ 94.331, 26.404 ], [ 94.335, 26.392 ], [ 94.349, 26.388 ], [ 94.36, 26.398 ] ] ] ] } },
{ "type": "Feature", "properties": { "POLYGON.ID": 959.0, "subregion": "India--Nagaland--Mokokchung--Foothills (east)", "FILTER": "Nagaland", "POLYGON": "India--Nagaland--Mokokchung--Foothills (east)", "STATE": "Nagaland", "COUNTY": "Mokokchung", "OWNER": null }, "geometry": { "type": "MultiPolygon", "coordinates": [ [ [ [ 94.741, 26.76 ], [ 94.727, 26.763 ], [ 94.716, 26.754 ], [ 94.72, 26.741 ], [ 94.71, 26.732 ], [ 94.695, 26.736 ], [ 94.685, 26.726 ], [ 94.67, 26.73 ], [ 94.66, 26.721 ], [ 94.645, 26.724 ], [ 94.635, 26.715 ], [ 94.62, 26.718 ], [ 94.61, 26.709 ], [ 94.614, 26.696 ], [ 94.603, 26.687 ], [ 94.607, 26.675 ], [ 94.597, 26.666 ], [ 94.6, 26.654 ], [ 94.59, 26.645 ], [ 94.594, 26.632 ], [ 94.608, 26.629 ], [ 94.612, 26.617 ], [ 94.602, 26.608 ], [ 94.605, 26.595 ], [ 94.62, 26.592 ], [ 94.624, 26.58 ], [ 94.638, 26.577 ], [ 94.642, 26.564 ], [ 94.656, 26.561 ], [ 94.667, 26.57 ], [ 94.663, 26.583 ], [ 94.674, 26.592 ], [ 94.688, 26.588 ], [ 94.699, 26.598 ], [ 94.695, 26.61 ], [ 94.705, 26.619 ], [ 94.701, 26.631 ], [ 94.712, 26.64 ], [ 94.708, 26.653 ], [ 94.718, 26.662 ], [ 94.733, 26.659 ], [ 94.743, 26.668 ], [ 94.74, 26.68 ], [ 94.75, 26.689 ], [ 94.746, 26.701 ], [ 94.757, 26.71 ], [ 94.753, 26.723 ], [ 94.763, 26.732 ], [ 94.76, 26.744 ], [ 94.77, 26.753 ], [ 94.766, 26.766 ], [ 94.752, 26.769 ], [ 94.741, 26.76 ] ] ] ] } },
{ "type": "Feature", "properties": { "POLYGON.ID": 960.0, "subregion": "India--Nagaland--Longleng--Foothills", "FILTER": "Nagaland", "POLYGON": "India--Nagaland--Longleng--Foothills", "STATE": "Nagaland", "COUNTY": "Longleng", "OWNER": null }, "geometry": { "type": "MultiPolygon", "coordinates": [ [ [ [ 94.841, 26.783 ], [ 94.827, 26.786 ], [ 94.823, 26.799 ], [ 94.808, 26.802 ], [ 94.798, 26.793 ], [ 94.783, 26.796 ], [ 94.773, 26.787 ], [ 94.777, 26.775 ], [ 94.766, 26.766 ], [ 94.77, 26.753 ], [ 94.76, 26.744 ], [ 94.763, 26.732 ], [ 94.753, 26.723 ], [ 94.757, 26.71 ], [ 94.746, 26.701 ], [ 94.75, 26.689 ], [ 94.74, 26.68 ], [ 94.743, 26.668 ], [ 94.758, 26.665 ], [ 94.762, 26.652 ], [ 94.776, 26.649 ], [ 94.787, 26.658 ], [ 94.801, 26.655 ], [ 94.812, 26.664 ], [ 94.808, 26.676 ], [ 94.818, 26.685 ], [ 94.814, 26.698 ], [ 94.825, 26.707 ], [ 94.821, 26.719 ], [ 94.832, 26.728 ], [ 94.828, 26.74 ], [ 94.838, 26.75 ], [ 94.834, 26.762 ], [ 94.845, 26.771 ], [ 94.841, 26.783 ] ] ] ] } },
{ "type": "Feature", "properties": { "POLYGON.ID": 969.0, "subregion": "India--Manipur and Nagaland--Jessami and Meluri", "FILTER": "Nagaland", "POLYGON": "India--Manipur and Nagaland--Jessami and Meluri", "STATE": "Nagaland", "COUNTY": "spl_region", "OWNER": null }, "geometry": { "type": "MultiPolygon", "coordinates": [ [ [ [ 94.542, 25.943 ], [ 94.539, 25.956 ], [ 94.524, 25.959 ], [ 94.514, 25.95 ], [ 94.518, 25.937 ], [ 94.507, 25.928 ], [ 94.511, 25.916 ], [ 94.501, 25.907 ], [ 94.504, 25.894 ], [ 94.494, 25.885 ], [ 94.498, 25.873 ], [ 94.487, 25.863 ], [ 94.491, 25.851 ], [ 94.481, 25.842 ], [ 94.485, 25.829 ], [ 94.474, 25.82 ], [ 94.478, 25.808 ], [ 94.467, 25.799 ], [ 94.453, 25.802 ], [ 94.443, 25.793 ], [ 94.446, 25.78 ], [ 94.436, 25.771 ], [ 94.44, 25.759 ], [ 94.429, 25.75 ], [ 94.433, 25.737 ], [ 94.423, 25.728 ], [ 94.427, 25.715 ], [ 94.416, 25.706 ], [ 94.402, 25.709 ], [ 94.391, 25.7 ], [ 94.395, 25.688 ], [ 94.385, 25.679 ], [ 94.389, 25.666 ], [ 94.378, 25.657 ], [ 94.364, 25.66 ], [ 94.353, 25.651 ], [ 94.357, 25.639 ], [ 94.347, 25.629 ], [ 94.332, 25.633 ], [ 94.322, 25.623 ], [ 94.326, 25.611 ], [ 94.315, 25.602 ], [ 94.319, 25.589 ], [ 94.333, 25.586 ], [ 94.344, 25.595 ], [ 94.358, 25.592 ], [ 94.362, 25.58 ], [ 94.376, 25.576 ], [ 94.38, 25.564 ], [ 94.395, 25.561 ], [ 94.405, 25.57 ], [ 94.42, 25.567 ], [ 94.423, 25.554 ], [ 94.413, 25.545 ], [ 94.417, 25.533 ], [ 94.406, 25.524 ], [ 94.392, 25.527 ], [ 94.381, 25.518 ], [ 94.385, 25.505 ], [ 94.375, 25.496 ], [ 94.379, 25.483 ], [ 94.368, 25.474 ], [ 94.372, 25.462 ], [ 94.362, 25.453 ], [ 94.366, 25.44 ], [ 94.355, 25.431 ], [ 94.359, 25.418 ], [ 94.373, 25.415 ], [ 94.384, 25.424 ], [ 94.398, 25.421 ], [ 94.409, 25.43 ], [ 94.405, 25.443 ], [ 94.415, 25.452 ], [ 94.411, 25.465 ], [ 94.422, 25.474 ], [ 94.436, 25.471 ], [ 94.44, 25.458 ], [ 94.454, 25.455 ], [ 94.458, 25.443 ], [ 94.473, 25.439 ], [ 94.476, 25.427 ], [ 94.491, 25.424 ], [ 94.495, 25.411 ], [ 94.484, 25.402 ], [ 94.488, 25.389 ], [ 94.502, 25.386 ], [ 94.506, 25.374 ], [ 94.496, 25.365 ], [ 94.5, 25.352 ], [ 94.514, 25.349 ], [ 94.524, 25.358 ], [ 94.539, 25.355 ], [ 94.549, 25.364 ], [ 94.545, 25.377 ], [ 94.556, 25.386 ], [ 94.552, 25.398 ], [ 94.562, 25.407 ], [ 94.559, 25.42 ], [ 94.544, 25.423 ], [ 94.54, 25.436 ], [ 94.551, 25.445 ], [ 94.547, 25.457 ], [ 94.558, 25.466 ], [ 94.554, 25.479 ], [ 94.564, 25.488 ], [ 94.56, 25.501 ], [ 94.571, 25.51 ], [ 94.567, 25.522 ], [ 94.577, 25.531 ], [ 94.574, 25.544 ], [ 94.584, 25.553 ], [ 94.58, 25.566 ], [ 94.591, 25.575 ], [ 94.587, 25.587 ], [ 94.597, 25.596 ], [ 94.612, 25.593 ], [ 94.622, 25.602 ], [ 94.636, 25.599 ], [ 94.647, 25.608 ], [ 94.661, 25.605 ], [ 94.672, 25.614 ], [ 94.686, 25.611 ], [ 94.697, 25.62 ], [ 94.693, 25.633 ], [ 94.703, 25.642 ], [ 94.718, 25.639 ], [ 94.728, 25.648 ], [ 94.724, 25.66 ], [ 94.735, 25.669 ], [ 94.749, 25.666 ], [ 94.76, 25.675 ], [ 94.756, 25.688 ], [ 94.766, 25.697 ], [ 94.781, 25.694 ], [ 94.791, 25.703 ], [ 94.805, 25.7 ], [ 94.816, 25.709 ], [ 94.83, 25.706 ], [ 94.841, 25.715 ], [ 94.855, 25.712 ], [ 94.866, 25.721 ], [ 94.862, 25.733 ], [ 94.847, 25.736 ], [ 94.844, 25.749 ], [ 94.829, 25.752 ], [ 94.825, 25.764 ], [ 94.811, 25.768 ], [ 94.8, 25.759 ], [ 94.786, 25.762 ], [ 94.776, 25.753 ], [ 94.761, 25.756 ], [ 94.757, 25.768 ], [ 94.743, 25.772 ], [ 94.739, 25.784 ], [ 94.725, 25.787 ], [ 94.714, 25.778 ], [ 94.7, 25.781 ], [ 94.696, 25.794 ], [ 94.682, 25.797 ], [ 94.671, 25.788 ], [ 94.675, 25.775 ], [ 94.665, 25.766 ], [ 94.65, 25.769 ], [ 94.64, 25.76 ], [ 94.625, 25.763 ], [ 94.615, 25.754 ], [ 94.619, 25.742 ], [ 94.608, 25.733 ], [ 94.594, 25.736 ], [ 94.59, 25.748 ], [ 94.576, 25.751 ], [ 94.572, 25.764 ], [ 94.557, 25.767 ], [ 94.554, 25.779 ], [ 94.539, 25.783 ], [ 94.535, 25.795 ], [ 94.546, 25.804 ], [ 94.542, 25.817 ], [ 94.552, 25.826 ], [ 94.549, 25.838 ], [ 94.559, 25.847 ], [ 94.555, 25.86 ], [ 94.566, 25.869 ], [ 94.562, 25.881 ], [ 94.572, 25.891 ], [ 94.568, 25.903 ], [ 94.554, 25.906 ], [ 94.55, 25.919 ], [ 94.536, 25.922 ], [ 94.532, 25.934 ], [ 94.542, 25.943 ] ] ] ] } },
{ "type": "Feature", "properties": { "POLYGON.ID": 968.0, "subregion": "India--Nagaland--Phek--high elevations (Myanmar)", "FILTER": "Nagaland", "POLYGON": "India--Nagaland--Phek--high elevations (Myanmar)", "STATE": "Nagaland", "COUNTY": "Phek", "OWNER": null }, "geometry": { "type": "MultiPolygon", "coordinates": [ [ [ [ 94.857, 25.619 ], [ 94.853, 25.631 ], [ 94.864, 25.64 ], [ 94.86, 25.653 ], [ 94.871, 25.662 ], [ 94.867, 25.674 ], [ 94.877, 25.683 ], [ 94.873, 25.696 ], [ 94.859, 25.699 ], [ 94.855, 25.712 ], [ 94.841, 25.715 ], [ 94.83, 25.706 ], [ 94.816, 25.709 ], [ 94.805, 25.7 ], [ 94.791, 25.703 ], [ 94.781, 25.694 ], [ 94.766, 25.697 ], [ 94.756, 25.688 ], [ 94.76, 25.675 ], [ 94.749, 25.666 ], [ 94.735, 25.669 ], [ 94.724, 25.66 ], [ 94.728, 25.648 ], [ 94.718, 25.639 ], [ 94.703, 25.642 ], [ 94.693, 25.633 ], [ 94.697, 25.62 ], [ 94.686, 25.611 ], [ 94.672, 25.614 ], [ 94.661, 25.605 ], [ 94.647, 25.608 ], [ 94.636, 25.599 ], [ 94.622, 25.602 ], [ 94.612, 25.593 ], [ 94.597, 25.596 ], [ 94.587, 25.587 ], [ 94.591, 25.575 ], [ 94.58, 25.566 ], [ 94.584, 25.553 ], [ 94.574, 25.544 ], [ 94.577, 25.531 ], [ 94.567, 25.522 ], [ 94.571, 25.51 ], [ 94.56, 25.501 ], [ 94.564, 25.488 ], [ 94.578, 25.485 ], [ 94.589, 25.494 ], [ 94.603, 25.491 ], [ 94.607, 25.478 ], [ 94.622, 25.475 ], [ 94.625, 25.463 ], [ 94.64, 25.46 ], [ 94.644, 25.447 ], [ 94.658, 25.444 ], [ 94.668, 25.453 ], [ 94.683, 25.45 ], [ 94.693, 25.459 ], [ 94.708, 25.456 ], [ 94.718, 25.465 ], [ 94.732, 25.462 ], [ 94.743, 25.471 ], [ 94.757, 25.468 ], [ 94.768, 25.477 ], [ 94.782, 25.474 ], [ 94.793, 25.483 ], [ 94.807, 25.48 ], [ 94.817, 25.489 ], [ 94.814, 25.501 ], [ 94.824, 25.51 ], [ 94.838, 25.507 ], [ 94.849, 25.516 ], [ 94.845, 25.529 ], [ 94.856, 25.538 ], [ 94.87, 25.535 ], [ 94.88, 25.544 ], [ 94.895, 25.541 ], [ 94.905, 25.55 ], [ 94.901, 25.562 ], [ 94.912, 25.572 ], [ 94.908, 25.584 ], [ 94.894, 25.587 ], [ 94.89, 25.6 ], [ 94.875, 25.603 ], [ 94.872, 25.615 ], [ 94.857, 25.619 ] ] ] ] } },
{ "type": "Feature", "properties": { "POLYGON.ID": 967.0, "subregion": "India--Nagaland--Kiphire--high elevations", "FILTER": "Nagaland", "POLYGON": "India--Nagaland--Kiphire--high elevations", "STATE": "Nagaland", "COUNTY": "Kiphire", "OWNER": null }, "geometry": { "type": "MultiPolygon", "coordinates": [ [ [ [ 94.694, 26.013 ], [ 94.68, 26.016 ], [ 94.67, 26.007 ], [ 94.655, 26.01 ], [ 94.645, 26.001 ], [ 94.649, 25.989 ], [ 94.638, 25.98 ], [ 94.642, 25.967 ], [ 94.631, 25.958 ], [ 94.617, 25.961 ], [ 94.607, 25.952 ], [ 94.61, 25.94 ], [ 94.6, 25.93 ], [ 94.604, 25.918 ], [ 94.593, 25.909 ], [ 94.579, 25.912 ], [ 94.568, 25.903 ], [ 94.572, 25.891 ], [ 94.587, 25.887 ], [ 94.591, 25.875 ], [ 94.605, 25.872 ], [ 94.609, 25.859 ], [ 94.598, 25.85 ], [ 94.602, 25.838 ], [ 94.617, 25.835 ], [ 94.62, 25.822 ], [ 94.635, 25.819 ], [ 94.639, 25.807 ], [ 94.653, 25.803 ], [ 94.664, 25.812 ], [ 94.678, 25.809 ], [ 94.688, 25.818 ], [ 94.685, 25.831 ], [ 94.695, 25.84 ], [ 94.709, 25.837 ], [ 94.72, 25.846 ], [ 94.716, 25.858 ], [ 94.702, 25.862 ], [ 94.698, 25.874 ], [ 94.683, 25.877 ], [ 94.68, 25.89 ], [ 94.69, 25.899 ], [ 94.686, 25.911 ], [ 94.697, 25.92 ], [ 94.693, 25.933 ], [ 94.678, 25.936 ], [ 94.675, 25.948 ], [ 94.685, 25.958 ], [ 94.681, 25.97 ], [ 94.692, 25.979 ], [ 94.688, 25.991 ], [ 94.698, 26.001 ], [ 94.694, 26.013 ] ] ] ] } },
{ "type": "Feature", "properties": { "POLYGON.ID": 966.0, "subregion": "India--Nagaland--Kiphire--high elevations (Mt. Saramati)", "FILTER": "Nagaland", "POLYGON": "India--Nagaland--Kiphire--high elevations (Mt. Saramati)", "STATE": "Nagaland", "COUNTY": "Kiphire", "OWNER": null }, "geometry": { "type": "MultiPolygon", "coordinates": [ [ [ [ 95.076, 25.731 ], [ 95.072, 25.743 ], [ 95.083, 25.752 ], [ 95.079, 25.765 ], [ 95.065, 25.768 ], [ 95.061, 25.78 ], [ 95.046, 25.784 ], [ 95.043, 25.796 ], [ 95.028, 25.799 ], [ 95.018, 25.79 ], [ 95.021, 25.778 ], [ 95.011, 25.769 ], [ 94.997, 25.772 ], [ 94.986, 25.763 ], [ 94.99, 25.75 ], [ 94.979, 25.741 ], [ 94.983, 25.729 ], [ 94.998, 25.725 ], [ 95.002, 25.713 ], [ 95.016, 25.71 ], [ 95.02, 25.697 ], [ 95.034, 25.694 ], [ 95.045, 25.703 ], [ 95.041, 25.716 ], [ 95.051, 25.725 ], [ 95.066, 25.722 ], [ 95.076, 25.731 ] ] ] ] } },
{ "type": "Feature", "properties": { "POLYGON.ID": 965.0, "subregion": "India--Nagaland--Kiphire--high elevations (Myanmar)", "FILTER": "Nagaland", "POLYGON": "India--Nagaland--Kiphire--high elevations (Myanmar)", "STATE": "Nagaland", "COUNTY": "Kiphire", "OWNER": null }, "geometry": { "type": "MultiPolygon", "coordinates": [ [ [ [ 94.931, 25.81 ], [ 94.942, 25.819 ], [ 94.956, 25.816 ], [ 94.967, 25.825 ], [ 94.981, 25.822 ], [ 94.985, 25.809 ], [ 94.975, 25.8 ], [ 94.978, 25.788 ], [ 94.968, 25.778 ], [ 94.954, 25.782 ], [ 94.943, 25.772 ], [ 94.947, 25.76 ], [ 94.936, 25.751 ], [ 94.922, 25.754 ], [ 94.912, 25.745 ], [ 94.915, 25.733 ], [ 94.905, 25.723 ], [ 94.89, 25.727 ], [ 94.88, 25.717 ], [ 94.866, 25.721 ], [ 94.855, 25.712 ], [ 94.859, 25.699 ], [ 94.873, 25.696 ], [ 94.877, 25.683 ], [ 94.867, 25.674 ], [ 94.871, 25.662 ], [ 94.86, 25.653 ], [ 94.864, 25.64 ], [ 94.853, 25.631 ], [ 94.857, 25.619 ], [ 94.872, 25.615 ], [ 94.875, 25.603 ], [ 94.89, 25.6 ], [ 94.894, 25.587 ], [ 94.908, 25.584 ], [ 94.919, 25.593 ], [ 94.933, 25.59 ], [ 94.943, 25.599 ], [ 94.94, 25.612 ], [ 94.95, 25.621 ], [ 94.946, 25.633 ], [ 94.957, 25.642 ], [ 94.953, 25.655 ], [ 94.963, 25.664 ], [ 94.978, 25.661 ], [ 94.988, 25.67 ], [ 94.984, 25.682 ], [ 94.995, 25.691 ], [ 95.009, 25.688 ], [ 95.02, 25.697 ], [ 95.016, 25.71 ], [ 95.002, 25.713 ], [ 94.998, 25.725 ], [ 94.983, 25.729 ], [ 94.979, 25.741 ], [ 94.99, 25.75 ], [ 94.986, 25.763 ], [ 94.997, 25.772 ], [ 95.011, 25.769 ], [ 95.021, 25.778 ], [ 95.018, 25.79 ], [ 95.028, 25.799 ], [ 95.043, 25.796 ], [ 95.046, 25.784 ], [ 95.061, 25.78 ], [ 95.071, 25.79 ], [ 95.067, 25.802 ], [ 95.053, 25.805 ], [ 95.049, 25.818 ], [ 95.035, 25.821 ], [ 95.031, 25.833 ], [ 95.041, 25.843 ], [ 95.038, 25.855 ], [ 95.023, 25.858 ], [ 95.019, 25.871 ], [ 95.03, 25.88 ], [ 95.026, 25.892 ], [ 95.012, 25.895 ], [ 95.001, 25.886 ], [ 94.987, 25.89 ], [ 94.983, 25.902 ], [ 94.969, 25.905 ], [ 94.958, 25.896 ], [ 94.962, 25.884 ], [ 94.951, 25.874 ], [ 94.937, 25.878 ], [ 94.927, 25.869 ], [ 94.93, 25.856 ], [ 94.92, 25.847 ], [ 94.924, 25.835 ], [ 94.913, 25.825 ], [ 94.917, 25.813 ], [ 94.931, 25.81 ] ] ] ] } },
{ "type": "Feature", "properties": { "POLYGON.ID": 964.0, "subregion": "India--Nagaland--Tuensang--high elevations", "FILTER": "Nagaland", "POLYGON": "India--Nagaland--Tuensang--high elevations", "STATE": "Nagaland", "COUNTY": "Tuensang", "OWNER": null }, "geometry": { "type": "MultiPolygon", "coordinates": [ [ [ [ 94.781, 26.293 ], [ 94.791, 26.302 ], [ 94.806, 26.299 ], [ 94.816, 26.308 ], [ 94.831, 26.304 ], [ 94.841, 26.314 ], [ 94.837, 26.326 ], [ 94.848, 26.335 ], [ 94.844, 26.347 ], [ 94.855, 26.356 ], [ 94.851, 26.369 ], [ 94.861, 26.378 ], [ 94.857, 26.39 ], [ 94.843, 26.394 ], [ 94.839, 26.406 ], [ 94.825, 26.409 ], [ 94.821, 26.421 ], [ 94.806, 26.425 ], [ 94.803, 26.437 ], [ 94.788, 26.44 ], [ 94.784, 26.452 ], [ 94.77, 26.456 ], [ 94.766, 26.468 ], [ 94.752, 26.471 ], [ 94.741, 26.462 ], [ 94.727, 26.465 ], [ 94.716, 26.456 ], [ 94.72, 26.444 ], [ 94.71, 26.435 ], [ 94.713, 26.422 ], [ 94.703, 26.413 ], [ 94.689, 26.417 ], [ 94.678, 26.407 ], [ 94.682, 26.395 ], [ 94.671, 26.386 ], [ 94.675, 26.374 ], [ 94.665, 26.364 ], [ 94.669, 26.352 ], [ 94.658, 26.343 ], [ 94.644, 26.346 ], [ 94.633, 26.337 ], [ 94.619, 26.34 ], [ 94.608, 26.331 ], [ 94.612, 26.319 ], [ 94.602, 26.31 ], [ 94.587, 26.313 ], [ 94.577, 26.304 ], [ 94.581, 26.291 ], [ 94.57, 26.282 ], [ 94.574, 26.27 ], [ 94.563, 26.261 ], [ 94.567, 26.248 ], [ 94.582, 26.245 ], [ 94.586, 26.233 ], [ 94.575, 26.224 ], [ 94.579, 26.211 ], [ 94.593, 26.208 ], [ 94.597, 26.196 ], [ 94.612, 26.193 ], [ 94.622, 26.202 ], [ 94.636, 26.199 ], [ 94.647, 26.208 ], [ 94.661, 26.204 ], [ 94.672, 26.214 ], [ 94.686, 26.21 ], [ 94.69, 26.198 ], [ 94.68, 26.189 ], [ 94.683, 26.177 ], [ 94.698, 26.173 ], [ 94.702, 26.161 ], [ 94.691, 26.152 ], [ 94.695, 26.139 ], [ 94.685, 26.13 ], [ 94.688, 26.118 ], [ 94.678, 26.109 ], [ 94.682, 26.096 ], [ 94.671, 26.087 ], [ 94.675, 26.075 ], [ 94.665, 26.066 ], [ 94.669, 26.053 ], [ 94.683, 26.05 ], [ 94.687, 26.038 ], [ 94.676, 26.029 ], [ 94.68, 26.016 ], [ 94.694, 26.013 ], [ 94.705, 26.022 ], [ 94.719, 26.019 ], [ 94.73, 26.028 ], [ 94.744, 26.025 ], [ 94.755, 26.034 ], [ 94.769, 26.031 ], [ 94.78, 26.04 ], [ 94.776, 26.052 ], [ 94.786, 26.061 ], [ 94.782, 26.074 ], [ 94.768, 26.077 ], [ 94.764, 26.089 ], [ 94.75, 26.093 ], [ 94.746, 26.105 ], [ 94.732, 26.108 ], [ 94.728, 26.121 ], [ 94.738, 26.13 ], [ 94.734, 26.142 ], [ 94.745, 26.151 ], [ 94.741, 26.164 ], [ 94.752, 26.173 ], [ 94.748, 26.185 ], [ 94.758, 26.194 ], [ 94.754, 26.207 ], [ 94.74, 26.21 ], [ 94.736, 26.222 ], [ 94.747, 26.231 ], [ 94.743, 26.244 ], [ 94.753, 26.253 ], [ 94.768, 26.25 ], [ 94.778, 26.259 ], [ 94.774, 26.271 ], [ 94.785, 26.28 ], [ 94.781, 26.293 ] ] ] ] } },
{ "type": "Feature", "properties": { "POLYGON.ID": 963.0, "subregion": "India--Nagaland--Tuensang--high elevations (Myanmar)", "FILTER": "Nagaland", "POLYGON": "India--Nagaland--Tuensang--high elevations (Myanmar)", "STATE": "Nagaland", "COUNTY": "Tuensang", "OWNER": null }, "geometry": { "type": "MultiPolygon", "coordinates": [ [ [ [ 94.888, 26.165 ], [ 94.902, 26.162 ], [ 94.912, 26.171 ], [ 94.927, 26.168 ], [ 94.937, 26.177 ], [ 94.952, 26.174 ], [ 94.962, 26.183 ], [ 94.958, 26.195 ], [ 94.969, 26.204 ], [ 94.983, 26.201 ], [ 94.994, 26.21 ], [ 95.008, 26.207 ], [ 95.012, 26.195 ], [ 95.026, 26.191 ], [ 95.037, 26.201 ], [ 95.051, 26.197 ], [ 95.055, 26.185 ], [ 95.07, 26.182 ], [ 95.073, 26.169 ], [ 95.063, 26.16 ], [ 95.067, 26.148 ], [ 95.056, 26.139 ], [ 95.06, 26.126 ], [ 95.05, 26.117 ], [ 95.053, 26.105 ], [ 95.043, 26.096 ], [ 95.047, 26.083 ], [ 95.036, 26.074 ], [ 95.04, 26.062 ], [ 95.054, 26.059 ], [ 95.058, 26.046 ], [ 95.048, 26.037 ], [ 95.052, 26.025 ], [ 95.041, 26.016 ], [ 95.027, 26.019 ], [ 95.016, 26.01 ], [ 95.02, 25.997 ], [ 95.01, 25.988 ], [ 94.995, 25.991 ], [ 94.985, 25.982 ], [ 94.989, 25.97 ], [ 94.978, 25.961 ], [ 94.964, 25.964 ], [ 94.953, 25.955 ], [ 94.957, 25.942 ], [ 94.947, 25.933 ], [ 94.95, 25.921 ], [ 94.965, 25.918 ], [ 94.969, 25.905 ], [ 94.983, 25.902 ], [ 94.987, 25.89 ], [ 95.001, 25.886 ], [ 95.012, 25.895 ], [ 95.026, 25.892 ], [ 95.037, 25.901 ], [ 95.051, 25.898 ], [ 95.061, 25.907 ], [ 95.058, 25.92 ], [ 95.068, 25.929 ], [ 95.082, 25.925 ], [ 95.093, 25.935 ], [ 95.089, 25.947 ], [ 95.1, 25.956 ], [ 95.114, 25.953 ], [ 95.125, 25.962 ], [ 95.139, 25.959 ], [ 95.149, 25.968 ], [ 95.146, 25.98 ], [ 95.156, 25.989 ], [ 95.152, 26.002 ], [ 95.163, 26.011 ], [ 95.177, 26.008 ], [ 95.188, 26.017 ], [ 95.184, 26.029 ], [ 95.194, 26.038 ], [ 95.191, 26.051 ], [ 95.201, 26.06 ], [ 95.197, 26.072 ], [ 95.208, 26.081 ], [ 95.204, 26.094 ], [ 95.19, 26.097 ], [ 95.186, 26.109 ], [ 95.171, 26.113 ], [ 95.161, 26.104 ], [ 95.146, 26.107 ], [ 95.143, 26.119 ], [ 95.153, 26.128 ], [ 95.149, 26.141 ], [ 95.135, 26.144 ], [ 95.131, 26.156 ], [ 95.142, 26.165 ], [ 95.138, 26.178 ], [ 95.148, 26.187 ], [ 95.144, 26.199 ], [ 95.155, 26.208 ], [ 95.151, 26.221 ], [ 95.137, 26.224 ], [ 95.133, 26.236 ], [ 95.143, 26.246 ], [ 95.139, 26.258 ], [ 95.15, 26.267 ], [ 95.146, 26.279 ], [ 95.157, 26.288 ], [ 95.153, 26.301 ], [ 95.138, 26.304 ], [ 95.135, 26.316 ], [ 95.12, 26.32 ], [ 95.11, 26.311 ], [ 95.095, 26.314 ], [ 95.085, 26.305 ], [ 95.07, 26.308 ], [ 95.06, 26.299 ], [ 95.045, 26.302 ], [ 95.035, 26.293 ], [ 95.021, 26.296 ], [ 95.01, 26.287 ], [ 94.996, 26.29 ], [ 94.985, 26.281 ], [ 94.971, 26.284 ], [ 94.967, 26.297 ], [ 94.952, 26.3 ], [ 94.949, 26.312 ], [ 94.934, 26.316 ], [ 94.93, 26.328 ], [ 94.916, 26.331 ], [ 94.912, 26.344 ], [ 94.898, 26.347 ], [ 94.887, 26.338 ], [ 94.891, 26.325 ], [ 94.881, 26.316 ], [ 94.884, 26.304 ], [ 94.874, 26.295 ], [ 94.878, 26.282 ], [ 94.867, 26.273 ], [ 94.853, 26.277 ], [ 94.842, 26.267 ], [ 94.846, 26.255 ], [ 94.836, 26.246 ], [ 94.84, 26.234 ], [ 94.829, 26.224 ], [ 94.833, 26.212 ], [ 94.822, 26.203 ], [ 94.826, 26.191 ], [ 94.841, 26.187 ], [ 94.844, 26.175 ], [ 94.859, 26.172 ], [ 94.869, 26.181 ], [ 94.884, 26.178 ], [ 94.888, 26.165 ] ] ] ] } },
{ "type": "Feature", "properties": { "POLYGON.ID": 961.0, "subregion": "India--Nagaland--Mon--Foothills", "FILTER": "Nagaland", "POLYGON": "India--Nagaland--Mon--Foothills", "STATE": "Nagaland", "COUNTY": "Mon", "OWNER": null }, "geometry": { "type": "MultiPolygon", "coordinates": [ [ [ [ 94.877, 26.798 ], [ 94.873, 26.81 ], [ 94.883, 26.82 ], [ 94.879, 26.832 ], [ 94.89, 26.841 ], [ 94.886, 26.853 ], [ 94.897, 26.862 ], [ 94.893, 26.874 ], [ 94.903, 26.884 ], [ 94.899, 26.896 ], [ 94.91, 26.905 ], [ 94.924, 26.902 ], [ 94.935, 26.911 ], [ 94.949, 26.908 ], [ 94.96, 26.917 ], [ 94.956, 26.929 ], [ 94.942, 26.932 ], [ 94.938, 26.944 ], [ 94.923, 26.948 ], [ 94.913, 26.938 ], [ 94.898, 26.942 ], [ 94.888, 26.933 ], [ 94.873, 26.936 ], [ 94.863, 26.927 ], [ 94.867, 26.915 ], [ 94.856, 26.905 ], [ 94.86, 26.893 ], [ 94.849, 26.884 ], [ 94.853, 26.872 ], [ 94.843, 26.863 ], [ 94.828, 26.866 ], [ 94.818, 26.857 ], [ 94.822, 26.845 ], [ 94.811, 26.836 ], [ 94.815, 26.823 ], [ 94.804, 26.814 ], [ 94.808, 26.802 ], [ 94.823, 26.799 ], [ 94.827, 26.786 ], [ 94.841, 26.783 ], [ 94.845, 26.771 ], [ 94.834, 26.762 ], [ 94.838, 26.75 ], [ 94.828, 26.74 ], [ 94.832, 26.728 ], [ 94.821, 26.719 ], [ 94.825, 26.707 ], [ 94.814, 26.698 ], [ 94.818, 26.685 ], [ 94.808, 26.676 ], [ 94.812, 26.664 ], [ 94.826, 26.661 ], [ 94.837, 26.67 ], [ 94.851, 26.667 ], [ 94.861, 26.676 ], [ 94.858, 26.688 ], [ 94.868, 26.697 ], [ 94.864, 26.709 ], [ 94.875, 26.719 ], [ 94.871, 26.731 ], [ 94.881, 26.74 ], [ 94.878, 26.752 ], [ 94.888, 26.761 ], [ 94.884, 26.774 ], [ 94.87, 26.777 ], [ 94.866, 26.789 ], [ 94.877, 26.798 ] ] ] ] } },
{ "type": "Feature", "properties": { "POLYGON.ID": 962.0, "subregion": "India--Nagaland--Mon--high elevations", "FILTER": "Nagaland", "POLYGON": "India--Nagaland--Mon--high elevations", "STATE": "Nagaland", "COUNTY": "Mon", "OWNER": null }, "geometry": { "type": "MultiPolygon", "coordinates": [ [ [ [ 95.045, 26.302 ], [ 95.06, 26.299 ], [ 95.07, 26.308 ], [ 95.085, 26.305 ], [ 95.095, 26.314 ], [ 95.11, 26.311 ], [ 95.12, 26.32 ], [ 95.135, 26.316 ], [ 95.145, 26.326 ], [ 95.141, 26.338 ], [ 95.152, 26.347 ], [ 95.148, 26.359 ], [ 95.159, 26.368 ], [ 95.155, 26.381 ], [ 95.14, 26.384 ], [ 95.136, 26.396 ], [ 95.122, 26.4 ], [ 95.118, 26.412 ], [ 95.129, 26.421 ], [ 95.125, 26.433 ], [ 95.11, 26.437 ], [ 95.107, 26.449 ], [ 95.092, 26.452 ], [ 95.088, 26.465 ], [ 95.099, 26.474 ], [ 95.113, 26.47 ], [ 95.124, 26.479 ], [ 95.12, 26.492 ], [ 95.131, 26.501 ], [ 95.127, 26.513 ], [ 95.137, 26.522 ], [ 95.133, 26.535 ], [ 95.144, 26.544 ], [ 95.14, 26.556 ], [ 95.151, 26.565 ], [ 95.165, 26.562 ], [ 95.176, 26.571 ], [ 95.172, 26.583 ], [ 95.182, 26.592 ], [ 95.178, 26.605 ], [ 95.189, 26.614 ], [ 95.203, 26.611 ], [ 95.214, 26.62 ], [ 95.228, 26.616 ], [ 95.239, 26.625 ], [ 95.253, 26.622 ], [ 95.264, 26.631 ], [ 95.26, 26.644 ], [ 95.245, 26.647 ], [ 95.242, 26.659 ], [ 95.227, 26.662 ], [ 95.217, 26.653 ], [ 95.202, 26.657 ], [ 95.192, 26.647 ], [ 95.177, 26.651 ], [ 95.167, 26.642 ], [ 95.152, 26.645 ], [ 95.142, 26.636 ], [ 95.127, 26.639 ], [ 95.117, 26.63 ], [ 95.102, 26.633 ], [ 95.092, 26.624 ], [ 95.078, 26.627 ], [ 95.067, 26.618 ], [ 95.071, 26.606 ], [ 95.06, 26.597 ], [ 95.064, 26.585 ], [ 95.054, 26.576 ], [ 95.057, 26.563 ], [ 95.047, 26.554 ], [ 95.033, 26.557 ], [ 95.022, 26.548 ], [ 95.008, 26.551 ], [ 94.997, 26.542 ], [ 95.001, 26.53 ], [ 94.99, 26.521 ], [ 94.976, 26.524 ], [ 94.965, 26.515 ], [ 94.969, 26.503 ], [ 94.959, 26.494 ], [ 94.944, 26.497 ], [ 94.934, 26.488 ], [ 94.938, 26.475 ], [ 94.927, 26.466 ], [ 94.913, 26.47 ], [ 94.902, 26.461 ], [ 94.906, 26.448 ], [ 94.896, 26.439 ], [ 94.899, 26.427 ], [ 94.889, 26.418 ], [ 94.893, 26.405 ], [ 94.907, 26.402 ], [ 94.911, 26.39 ], [ 94.901, 26.381 ], [ 94.904, 26.368 ], [ 94.894, 26.359 ], [ 94.898, 26.347 ], [ 94.912, 26.344 ], [ 94.916, 26.331 ], [ 94.93, 26.328 ], [ 94.934, 26.316 ], [ 94.949, 26.312 ], [ 94.952, 26.3 ], [ 94.967, 26.297 ], [ 94.971, 26.284 ], [ 94.985, 26.281 ], [ 94.996, 26.29 ], [ 95.01, 26.287 ], [ 95.021, 26.296 ], [ 95.035, 26.293 ], [ 95.045, 26.302 ] ] ] ] } },
{ "type": "Feature", "properties": { "POLYGON.ID": 970.0, "subregion": "India--Nagaland--Zunheboto--high elevations (east)", "FILTER": "Nagaland", "POLYGON": "India--Nagaland--Zunheboto--high elevations (east)", "STATE": "Nagaland", "COUNTY": "Zunheboto", "OWNER": null }, "geometry": { "type": "MultiPolygon", "coordinates": [ [ [ [ 94.572, 25.891 ], [ 94.562, 25.881 ], [ 94.566, 25.869 ], [ 94.555, 25.86 ], [ 94.559, 25.847 ], [ 94.549, 25.838 ], [ 94.552, 25.826 ], [ 94.542, 25.817 ], [ 94.546, 25.804 ], [ 94.535, 25.795 ], [ 94.539, 25.783 ], [ 94.554, 25.779 ], [ 94.557, 25.767 ], [ 94.572, 25.764 ], [ 94.576, 25.751 ], [ 94.59, 25.748 ], [ 94.594, 25.736 ], [ 94.608, 25.733 ], [ 94.619, 25.742 ], [ 94.615, 25.754 ], [ 94.625, 25.763 ], [ 94.64, 25.76 ], [ 94.65, 25.769 ], [ 94.665, 25.766 ], [ 94.675, 25.775 ], [ 94.671, 25.788 ], [ 94.682, 25.797 ], [ 94.678, 25.809 ], [ 94.664, 25.812 ], [ 94.653, 25.803 ], [ 94.639, 25.807 ], [ 94.635, 25.819 ], [ 94.62, 25.822 ], [ 94.617, 25.835 ], [ 94.602, 25.838 ], [ 94.598, 25.85 ], [ 94.609, 25.859 ], [ 94.605, 25.872 ], [ 94.591, 25.875 ], [ 94.587, 25.887 ], [ 94.572, 25.891 ] ] ] ] } },
{ "type": "Feature", "properties": { "POLYGON.ID": 971.0, "subregion": "India--Nagaland--Zunheboto--mid elevations", "FILTER": "Nagaland", "POLYGON": "India--Nagaland--Zunheboto--mid elevations", "STATE": "Nagaland", "COUNTY": "Zunheboto", "OWNER": null }, "geometry": { "type": "MultiPolygon", "coordinates": [ [ [ [ 94.479, 26.061 ], [ 94.465, 26.064 ], [ 94.461, 26.077 ], [ 94.471, 26.086 ], [ 94.467, 26.098 ], [ 94.478, 26.107 ], [ 94.474, 26.12 ], [ 94.484, 26.129 ], [ 94.481, 26.141 ], [ 94.491, 26.15 ], [ 94.487, 26.163 ], [ 94.498, 26.172 ], [ 94.494, 26.184 ], [ 94.504, 26.193 ], [ 94.5, 26.206 ], [ 94.511, 26.215 ], [ 94.507, 26.227 ], [ 94.518, 26.236 ], [ 94.514, 26.249 ], [ 94.499, 26.252 ], [ 94.495, 26.264 ], [ 94.481, 26.268 ], [ 94.47, 26.258 ], [ 94.456, 26.262 ], [ 94.446, 26.252 ], [ 94.449, 26.24 ], [ 94.439, 26.231 ], [ 94.443, 26.219 ], [ 94.432, 26.209 ], [ 94.436, 26.197 ], [ 94.426, 26.188 ], [ 94.43, 26.176 ], [ 94.419, 26.166 ], [ 94.423, 26.154 ], [ 94.412, 26.145 ], [ 94.416, 26.133 ], [ 94.431, 26.129 ], [ 94.435, 26.117 ], [ 94.424, 26.108 ], [ 94.41, 26.111 ], [ 94.399, 26.102 ], [ 94.403, 26.089 ], [ 94.418, 26.086 ], [ 94.421, 26.074 ], [ 94.411, 26.065 ], [ 94.415, 26.052 ], [ 94.404, 26.043 ], [ 94.408, 26.031 ], [ 94.398, 26.022 ], [ 94.402, 26.009 ], [ 94.416, 26.006 ], [ 94.42, 25.994 ], [ 94.409, 25.985 ], [ 94.413, 25.972 ], [ 94.403, 25.963 ], [ 94.388, 25.966 ], [ 94.378, 25.957 ], [ 94.363, 25.96 ], [ 94.36, 25.973 ], [ 94.345, 25.976 ], [ 94.335, 25.967 ], [ 94.32, 25.97 ], [ 94.31, 25.961 ], [ 94.295, 25.964 ], [ 94.285, 25.955 ], [ 94.271, 25.958 ], [ 94.26, 25.949 ], [ 94.246, 25.952 ], [ 94.235, 25.942 ], [ 94.221, 25.946 ], [ 94.21, 25.936 ], [ 94.214, 25.924 ], [ 94.229, 25.921 ], [ 94.233, 25.909 ], [ 94.222, 25.899 ], [ 94.226, 25.887 ], [ 94.215, 25.878 ], [ 94.219, 25.865 ], [ 94.234, 25.862 ], [ 94.238, 25.85 ], [ 94.252, 25.847 ], [ 94.256, 25.834 ], [ 94.27, 25.831 ], [ 94.274, 25.819 ], [ 94.288, 25.815 ], [ 94.292, 25.803 ], [ 94.307, 25.8 ], [ 94.317, 25.809 ], [ 94.313, 25.821 ], [ 94.324, 25.831 ], [ 94.32, 25.843 ], [ 94.33, 25.852 ], [ 94.345, 25.849 ], [ 94.355, 25.858 ], [ 94.351, 25.871 ], [ 94.362, 25.88 ], [ 94.376, 25.877 ], [ 94.387, 25.886 ], [ 94.383, 25.898 ], [ 94.393, 25.907 ], [ 94.389, 25.92 ], [ 94.4, 25.929 ], [ 94.396, 25.941 ], [ 94.407, 25.951 ], [ 94.421, 25.947 ], [ 94.431, 25.957 ], [ 94.428, 25.969 ], [ 94.438, 25.978 ], [ 94.452, 25.975 ], [ 94.463, 25.984 ], [ 94.459, 25.996 ], [ 94.47, 26.006 ], [ 94.466, 26.018 ], [ 94.476, 26.027 ], [ 94.472, 26.04 ], [ 94.483, 26.049 ], [ 94.479, 26.061 ] ] ] ] } },
{ "type": "Feature", "properties": { "POLYGON.ID": 972.0, "subregion": "India--Nagaland--Kohima--mid elevations", "FILTER": "Nagaland", "POLYGON": "India--Nagaland--Kohima--mid elevations", "STATE": "Nagaland", "COUNTY": "Kohima", "OWNER": null }, "geometry": { "type": "MultiPolygon", "coordinates": [ [ [ [ 94.217, 25.958 ], [ 94.203, 25.961 ], [ 94.199, 25.974 ], [ 94.184, 25.977 ], [ 94.174, 25.968 ], [ 94.178, 25.955 ], [ 94.167, 25.946 ], [ 94.171, 25.934 ], [ 94.161, 25.924 ], [ 94.146, 25.928 ], [ 94.136, 25.918 ], [ 94.14, 25.906 ], [ 94.129, 25.897 ], [ 94.133, 25.884 ], [ 94.123, 25.875 ], [ 94.108, 25.878 ], [ 94.098, 25.869 ], [ 94.084, 25.872 ], [ 94.073, 25.863 ], [ 94.059, 25.866 ], [ 94.048, 25.857 ], [ 94.052, 25.845 ], [ 94.042, 25.835 ], [ 94.027, 25.839 ], [ 94.017, 25.829 ], [ 94.021, 25.817 ], [ 94.01, 25.808 ], [ 94.014, 25.795 ], [ 94.004, 25.786 ], [ 94.008, 25.774 ], [ 93.997, 25.765 ], [ 94.001, 25.752 ], [ 93.99, 25.743 ], [ 93.994, 25.731 ], [ 94.009, 25.727 ], [ 94.013, 25.715 ], [ 94.027, 25.712 ], [ 94.031, 25.699 ], [ 94.02, 25.69 ], [ 94.024, 25.678 ], [ 94.039, 25.675 ], [ 94.043, 25.662 ], [ 94.057, 25.659 ], [ 94.067, 25.668 ], [ 94.082, 25.665 ], [ 94.086, 25.653 ], [ 94.1, 25.65 ], [ 94.104, 25.637 ], [ 94.093, 25.628 ], [ 94.097, 25.615 ], [ 94.087, 25.606 ], [ 94.091, 25.594 ], [ 94.105, 25.591 ], [ 94.109, 25.578 ], [ 94.098, 25.569 ], [ 94.102, 25.557 ], [ 94.117, 25.553 ], [ 94.121, 25.541 ], [ 94.135, 25.538 ], [ 94.145, 25.547 ], [ 94.16, 25.544 ], [ 94.17, 25.553 ], [ 94.185, 25.55 ], [ 94.195, 25.559 ], [ 94.191, 25.572 ], [ 94.202, 25.581 ], [ 94.198, 25.593 ], [ 94.208, 25.602 ], [ 94.204, 25.615 ], [ 94.215, 25.624 ], [ 94.211, 25.636 ], [ 94.221, 25.646 ], [ 94.217, 25.658 ], [ 94.228, 25.667 ], [ 94.224, 25.68 ], [ 94.235, 25.689 ], [ 94.249, 25.686 ], [ 94.259, 25.695 ], [ 94.255, 25.707 ], [ 94.266, 25.717 ], [ 94.28, 25.713 ], [ 94.291, 25.723 ], [ 94.287, 25.735 ], [ 94.297, 25.744 ], [ 94.294, 25.757 ], [ 94.304, 25.766 ], [ 94.3, 25.778 ], [ 94.311, 25.787 ], [ 94.307, 25.8 ], [ 94.292, 25.803 ], [ 94.288, 25.815 ], [ 94.274, 25.819 ], [ 94.27, 25.831 ], [ 94.256, 25.834 ], [ 94.252, 25.847 ], [ 94.238, 25.85 ], [ 94.234, 25.862 ], [ 94.219, 25.865 ], [ 94.215, 25.878 ], [ 94.226, 25.887 ], [ 94.222, 25.899 ], [ 94.233, 25.909 ], [ 94.229, 25.921 ], [ 94.214, 25.924 ], [ 94.21, 25.936 ], [ 94.221, 25.946 ], [ 94.217, 25.958 ] ] ] ] } }
]
}
