{
"type": "FeatureCollection",
"name": "Odisha",
"crs": { "type": "name", "properties": { "name": "urn:ogc:def:crs:OGC:1.3:CRS84" } },
"features": [
{ "type": "Feature", "properties": { "POLYGON.ID": 291.0, "subregion": "IN-OR--pelagic", "POLYGON": "IN-OR--pelagic", "SHOW": "1", "FILTER": "Not-Assigned", "FILTER.ID": null, "OLD.POLYGON": null, "STATE": "Odisha", "COUNTY": "spl_region", "OWNER": null }, "geometry": { "type": "MultiPolygon", "coordinates": [ [ [ [ 89.037, 18.623 ], [ 89.023, 18.626 ], [ 89.019, 18.639 ], [ 89.029, 18.649 ], [ 89.025, 18.662 ], [ 89.011, 18.665 ], [ 89.007, 18.678 ], [ 88.993, 18.681 ], [ 88.989, 18.694 ], [ 88.999, 18.704 ], [ 88.995, 18.717 ], [ 88.981, 18.72 ], [ 88.977, 18.733 ], [ 88.964, 18.736 ], [ 88.96, 18.748 ], [ 88.97, 18.758 ], [ 88.966, 18.771 ], [ 88.952, 18.774 ], [ 88.948, 18.787 ], [ 88.934, 18.79 ], [ 88.93, 18.803 ], [ 88.94, 18.813 ], [ 88.936, 18.826 ], [ 88.922, 18.829 ], [ 88.918, 18.842 ], [ 88.904, 18.845 ], [ 88.9, 18.858 ], [ 88.91, 18.867 ], [ 88.906, 18.88 ], [ 88.892, 18.883 ], [ 88.888, 18.896 ], [ 88.898, 18.906 ], [ 88.894, 18.919 ], [ 88.88, 18.922 ], [ 88.876, 18.935 ], [ 88.862, 18.938 ], [ 88.859, 18.951 ], [ 88.845, 18.954 ], [ 88.841, 18.967 ], [ 88.851, 18.977 ], [ 88.847, 18.989 ], [ 88.833, 18.992 ], [ 88.829, 19.005 ], [ 88.815, 19.008 ], [ 88.811, 19.021 ], [ 88.821, 19.031 ], [ 88.817, 19.044 ], [ 88.803, 19.047 ], [ 88.799, 19.06 ], [ 88.785, 19.063 ], [ 88.781, 19.076 ], [ 88.791, 19.085 ], [ 88.787, 19.098 ], [ 88.773, 19.101 ], [ 88.769, 19.114 ], [ 88.779, 19.124 ], [ 88.775, 19.137 ], [ 88.761, 19.14 ], [ 88.757, 19.153 ], [ 88.743, 19.156 ], [ 88.739, 19.169 ], [ 88.749, 19.178 ], [ 88.745, 19.191 ], [ 88.732, 19.194 ], [ 88.728, 19.207 ], [ 88.714, 19.21 ], [ 88.71, 19.223 ], [ 88.72, 19.233 ], [ 88.716, 19.246 ], [ 88.702, 19.249 ], [ 88.698, 19.261 ], [ 88.684, 19.264 ], [ 88.68, 19.277 ], [ 88.69, 19.287 ], [ 88.686, 19.3 ], [ 88.672, 19.303 ], [ 88.668, 19.316 ], [ 88.678, 19.326 ], [ 88.674, 19.338 ], [ 88.66, 19.341 ], [ 88.656, 19.354 ], [ 88.642, 19.357 ], [ 88.638, 19.37 ], [ 88.648, 19.38 ], [ 88.644, 19.393 ], [ 88.63, 19.396 ], [ 88.626, 19.409 ], [ 88.636, 19.418 ], [ 88.632, 19.431 ], [ 88.618, 19.434 ], [ 88.614, 19.447 ], [ 88.6, 19.45 ], [ 88.596, 19.463 ], [ 88.606, 19.473 ], [ 88.602, 19.485 ], [ 88.588, 19.488 ], [ 88.585, 19.501 ], [ 88.594, 19.511 ], [ 88.59, 19.524 ], [ 88.577, 19.527 ], [ 88.573, 19.54 ], [ 88.583, 19.55 ], [ 88.579, 19.562 ], [ 88.565, 19.565 ], [ 88.561, 19.578 ], [ 88.547, 19.581 ], [ 88.543, 19.594 ], [ 88.553, 19.604 ], [ 88.549, 19.617 ], [ 88.535, 19.619 ], [ 88.531, 19.632 ], [ 88.517, 19.635 ], [ 88.513, 19.648 ], [ 88.523, 19.658 ], [ 88.519, 19.671 ], [ 88.505, 19.674 ], [ 88.501, 19.686 ], [ 88.487, 19.689 ], [ 88.483, 19.702 ], [ 88.493, 19.712 ], [ 88.489, 19.725 ], [ 88.475, 19.728 ], [ 88.471, 19.741 ], [ 88.457, 19.743 ], [ 88.453, 19.756 ], [ 88.439, 19.759 ], [ 88.435, 19.772 ], [ 88.445, 19.782 ], [ 88.441, 19.795 ], [ 88.427, 19.797 ], [ 88.423, 19.81 ], [ 88.409, 19.813 ], [ 88.406, 19.826 ], [ 88.415, 19.836 ], [ 88.411, 19.849 ], [ 88.398, 19.852 ], [ 88.394, 19.864 ], [ 88.38, 19.867 ], [ 88.376, 19.88 ], [ 88.386, 19.89 ], [ 88.382, 19.903 ], [ 88.368, 19.906 ], [ 88.364, 19.918 ], [ 88.35, 19.921 ], [ 88.346, 19.934 ], [ 88.356, 19.944 ], [ 88.352, 19.957 ], [ 88.338, 19.96 ], [ 88.334, 19.972 ], [ 88.32, 19.975 ], [ 88.316, 19.988 ], [ 88.302, 19.991 ], [ 88.298, 20.004 ], [ 88.308, 20.013 ], [ 88.304, 20.026 ], [ 88.29, 20.029 ], [ 88.286, 20.042 ], [ 88.272, 20.045 ], [ 88.268, 20.058 ], [ 88.278, 20.067 ], [ 88.274, 20.08 ], [ 88.26, 20.083 ], [ 88.256, 20.096 ], [ 88.242, 20.099 ], [ 88.238, 20.111 ], [ 88.248, 20.121 ], [ 88.244, 20.134 ], [ 88.23, 20.137 ], [ 88.226, 20.15 ], [ 88.212, 20.153 ], [ 88.208, 20.165 ], [ 88.194, 20.168 ], [ 88.19, 20.181 ], [ 88.2, 20.191 ], [ 88.196, 20.203 ], [ 88.182, 20.206 ], [ 88.178, 20.219 ], [ 88.165, 20.222 ], [ 88.161, 20.235 ], [ 88.17, 20.245 ], [ 88.166, 20.257 ], [ 88.153, 20.26 ], [ 88.149, 20.273 ], [ 88.135, 20.276 ], [ 88.131, 20.288 ], [ 88.141, 20.298 ], [ 88.137, 20.311 ], [ 88.123, 20.314 ], [ 88.119, 20.327 ], [ 88.105, 20.33 ], [ 88.101, 20.342 ], [ 88.087, 20.345 ], [ 88.083, 20.358 ], [ 88.093, 20.368 ], [ 88.089, 20.38 ], [ 88.075, 20.383 ], [ 88.071, 20.396 ], [ 88.057, 20.399 ], [ 88.053, 20.412 ], [ 88.063, 20.421 ], [ 88.059, 20.434 ], [ 88.045, 20.437 ], [ 88.041, 20.45 ], [ 88.027, 20.452 ], [ 88.023, 20.465 ], [ 88.033, 20.475 ], [ 88.029, 20.488 ], [ 88.015, 20.491 ], [ 88.011, 20.503 ], [ 87.997, 20.506 ], [ 87.993, 20.519 ], [ 87.979, 20.522 ], [ 87.975, 20.534 ], [ 87.985, 20.544 ], [ 87.981, 20.557 ], [ 87.967, 20.56 ], [ 87.963, 20.572 ], [ 87.949, 20.575 ], [ 87.945, 20.588 ], [ 87.931, 20.591 ], [ 87.927, 20.604 ], [ 87.937, 20.613 ], [ 87.933, 20.626 ], [ 87.919, 20.629 ], [ 87.915, 20.642 ], [ 87.901, 20.644 ], [ 87.897, 20.657 ], [ 87.883, 20.66 ], [ 87.879, 20.673 ], [ 87.865, 20.675 ], [ 87.861, 20.688 ], [ 87.871, 20.698 ], [ 87.867, 20.711 ], [ 87.853, 20.713 ], [ 87.849, 20.726 ], [ 87.835, 20.729 ], [ 87.831, 20.742 ], [ 87.818, 20.744 ], [ 87.814, 20.757 ], [ 87.8, 20.76 ], [ 87.796, 20.773 ], [ 87.806, 20.782 ], [ 87.801, 20.795 ], [ 87.788, 20.798 ], [ 87.784, 20.811 ], [ 87.77, 20.813 ], [ 87.766, 20.826 ], [ 87.752, 20.829 ], [ 87.748, 20.841 ], [ 87.734, 20.844 ], [ 87.73, 20.857 ], [ 87.716, 20.86 ], [ 87.712, 20.872 ], [ 87.722, 20.882 ], [ 87.718, 20.895 ], [ 87.704, 20.898 ], [ 87.7, 20.91 ], [ 87.686, 20.913 ], [ 87.682, 20.926 ], [ 87.668, 20.928 ], [ 87.664, 20.941 ], [ 87.65, 20.944 ], [ 87.646, 20.957 ], [ 87.656, 20.966 ], [ 87.652, 20.979 ], [ 87.638, 20.982 ], [ 87.634, 20.994 ], [ 87.644, 21.004 ], [ 87.64, 21.017 ], [ 87.65, 21.027 ], [ 87.646, 21.039 ], [ 87.632, 21.042 ], [ 87.628, 21.055 ], [ 87.638, 21.065 ], [ 87.634, 21.077 ], [ 87.644, 21.087 ], [ 87.639, 21.1 ], [ 87.649, 21.11 ], [ 87.645, 21.122 ], [ 87.655, 21.132 ], [ 87.651, 21.145 ], [ 87.661, 21.155 ], [ 87.657, 21.167 ], [ 87.667, 21.177 ], [ 87.663, 21.19 ], [ 87.673, 21.2 ], [ 87.669, 21.212 ], [ 87.655, 21.215 ], [ 87.651, 21.228 ], [ 87.661, 21.237 ], [ 87.657, 21.25 ], [ 87.643, 21.253 ], [ 87.639, 21.265 ], [ 87.625, 21.268 ], [ 87.621, 21.281 ], [ 87.631, 21.291 ], [ 87.627, 21.303 ], [ 87.613, 21.306 ], [ 87.609, 21.319 ], [ 87.619, 21.328 ], [ 87.615, 21.341 ], [ 87.601, 21.344 ], [ 87.597, 21.356 ], [ 87.583, 21.359 ], [ 87.579, 21.372 ], [ 87.589, 21.382 ], [ 87.585, 21.394 ], [ 87.571, 21.397 ], [ 87.567, 21.41 ], [ 87.553, 21.412 ], [ 87.549, 21.425 ], [ 87.535, 21.428 ], [ 87.525, 21.418 ], [ 87.511, 21.421 ], [ 87.501, 21.411 ], [ 87.487, 21.413 ], [ 87.477, 21.404 ], [ 87.481, 21.391 ], [ 87.471, 21.381 ], [ 87.457, 21.384 ], [ 87.448, 21.374 ], [ 87.434, 21.377 ], [ 87.43, 21.389 ], [ 87.416, 21.392 ], [ 87.406, 21.382 ], [ 87.392, 21.385 ], [ 87.382, 21.375 ], [ 87.368, 21.378 ], [ 87.364, 21.39 ], [ 87.35, 21.393 ], [ 87.34, 21.383 ], [ 87.326, 21.386 ], [ 87.316, 21.376 ], [ 87.303, 21.379 ], [ 87.298, 21.392 ], [ 87.285, 21.394 ], [ 87.275, 21.384 ], [ 87.261, 21.387 ], [ 87.251, 21.377 ], [ 87.237, 21.38 ], [ 87.227, 21.37 ], [ 87.231, 21.358 ], [ 87.221, 21.348 ], [ 87.207, 21.35 ], [ 87.197, 21.341 ], [ 87.184, 21.343 ], [ 87.174, 21.333 ], [ 87.178, 21.321 ], [ 87.168, 21.311 ], [ 87.154, 21.314 ], [ 87.144, 21.304 ], [ 87.13, 21.307 ], [ 87.12, 21.297 ], [ 87.124, 21.284 ], [ 87.114, 21.274 ], [ 87.101, 21.277 ], [ 87.091, 21.267 ], [ 87.077, 21.27 ], [ 87.067, 21.26 ], [ 87.071, 21.247 ], [ 87.061, 21.238 ], [ 87.065, 21.225 ], [ 87.055, 21.215 ], [ 87.059, 21.203 ], [ 87.049, 21.193 ], [ 87.036, 21.195 ], [ 87.026, 21.186 ], [ 87.03, 21.173 ], [ 87.02, 21.163 ], [ 87.024, 21.151 ], [ 87.014, 21.141 ], [ 87.018, 21.128 ], [ 87.032, 21.125 ], [ 87.036, 21.113 ], [ 87.026, 21.103 ], [ 87.03, 21.09 ], [ 87.044, 21.088 ], [ 87.048, 21.075 ], [ 87.062, 21.072 ], [ 87.066, 21.06 ], [ 87.056, 21.05 ], [ 87.06, 21.037 ], [ 87.074, 21.034 ], [ 87.078, 21.022 ], [ 87.068, 21.012 ], [ 87.072, 20.999 ], [ 87.086, 20.997 ], [ 87.09, 20.984 ], [ 87.104, 20.981 ], [ 87.108, 20.969 ], [ 87.098, 20.959 ], [ 87.102, 20.946 ], [ 87.116, 20.943 ], [ 87.12, 20.931 ], [ 87.134, 20.928 ], [ 87.138, 20.916 ], [ 87.128, 20.906 ], [ 87.132, 20.893 ], [ 87.146, 20.89 ], [ 87.15, 20.878 ], [ 87.164, 20.875 ], [ 87.168, 20.862 ], [ 87.182, 20.86 ], [ 87.186, 20.847 ], [ 87.176, 20.837 ], [ 87.18, 20.824 ], [ 87.194, 20.822 ], [ 87.198, 20.809 ], [ 87.188, 20.799 ], [ 87.192, 20.787 ], [ 87.206, 20.784 ], [ 87.21, 20.771 ], [ 87.224, 20.768 ], [ 87.228, 20.756 ], [ 87.218, 20.746 ], [ 87.222, 20.733 ], [ 87.212, 20.723 ], [ 87.216, 20.711 ], [ 87.207, 20.701 ], [ 87.211, 20.688 ], [ 87.224, 20.685 ], [ 87.229, 20.673 ], [ 87.219, 20.663 ], [ 87.205, 20.666 ], [ 87.195, 20.656 ], [ 87.199, 20.643 ], [ 87.189, 20.633 ], [ 87.193, 20.621 ], [ 87.183, 20.611 ], [ 87.169, 20.614 ], [ 87.16, 20.604 ], [ 87.164, 20.591 ], [ 87.154, 20.581 ], [ 87.14, 20.584 ], [ 87.13, 20.574 ], [ 87.116, 20.577 ], [ 87.106, 20.567 ], [ 87.11, 20.554 ], [ 87.1, 20.544 ], [ 87.087, 20.547 ], [ 87.077, 20.537 ], [ 87.063, 20.54 ], [ 87.053, 20.53 ], [ 87.057, 20.517 ], [ 87.047, 20.507 ], [ 87.033, 20.51 ], [ 87.024, 20.5 ], [ 87.01, 20.503 ], [ 87.0, 20.493 ], [ 87.004, 20.481 ], [ 86.994, 20.471 ], [ 86.98, 20.473 ], [ 86.97, 20.464 ], [ 86.974, 20.451 ], [ 86.965, 20.441 ], [ 86.969, 20.428 ], [ 86.959, 20.418 ], [ 86.963, 20.406 ], [ 86.977, 20.403 ], [ 86.981, 20.39 ], [ 86.971, 20.38 ], [ 86.975, 20.368 ], [ 86.965, 20.358 ], [ 86.969, 20.345 ], [ 86.959, 20.335 ], [ 86.963, 20.323 ], [ 86.953, 20.313 ], [ 86.957, 20.3 ], [ 86.948, 20.29 ], [ 86.952, 20.278 ], [ 86.942, 20.268 ], [ 86.928, 20.27 ], [ 86.918, 20.26 ], [ 86.922, 20.248 ], [ 86.912, 20.238 ], [ 86.916, 20.225 ], [ 86.907, 20.215 ], [ 86.893, 20.218 ], [ 86.883, 20.208 ], [ 86.869, 20.211 ], [ 86.859, 20.201 ], [ 86.863, 20.188 ], [ 86.854, 20.178 ], [ 86.84, 20.181 ], [ 86.83, 20.171 ], [ 86.816, 20.174 ], [ 86.806, 20.164 ], [ 86.81, 20.151 ], [ 86.8, 20.142 ], [ 86.787, 20.144 ], [ 86.777, 20.134 ], [ 86.763, 20.137 ], [ 86.753, 20.127 ], [ 86.739, 20.13 ], [ 86.73, 20.12 ], [ 86.734, 20.107 ], [ 86.724, 20.097 ], [ 86.71, 20.1 ], [ 86.7, 20.09 ], [ 86.686, 20.093 ], [ 86.677, 20.083 ], [ 86.663, 20.086 ], [ 86.653, 20.076 ], [ 86.657, 20.063 ], [ 86.647, 20.053 ], [ 86.633, 20.056 ], [ 86.624, 20.046 ], [ 86.628, 20.034 ], [ 86.618, 20.024 ], [ 86.622, 20.011 ], [ 86.612, 20.001 ], [ 86.598, 20.004 ], [ 86.589, 19.994 ], [ 86.593, 19.981 ], [ 86.583, 19.971 ], [ 86.587, 19.959 ], [ 86.577, 19.949 ], [ 86.581, 19.936 ], [ 86.571, 19.926 ], [ 86.575, 19.913 ], [ 86.566, 19.903 ], [ 86.552, 19.906 ], [ 86.542, 19.896 ], [ 86.546, 19.884 ], [ 86.536, 19.874 ], [ 86.54, 19.861 ], [ 86.53, 19.851 ], [ 86.517, 19.854 ], [ 86.507, 19.844 ], [ 86.493, 19.847 ], [ 86.483, 19.837 ], [ 86.487, 19.824 ], [ 86.478, 19.814 ], [ 86.464, 19.817 ], [ 86.454, 19.807 ], [ 86.44, 19.81 ], [ 86.43, 19.8 ], [ 86.417, 19.802 ], [ 86.407, 19.792 ], [ 86.393, 19.795 ], [ 86.383, 19.785 ], [ 86.37, 19.788 ], [ 86.366, 19.801 ], [ 86.352, 19.803 ], [ 86.342, 19.794 ], [ 86.346, 19.781 ], [ 86.336, 19.771 ], [ 86.323, 19.774 ], [ 86.313, 19.764 ], [ 86.299, 19.766 ], [ 86.289, 19.756 ], [ 86.275, 19.759 ], [ 86.266, 19.749 ], [ 86.252, 19.752 ], [ 86.242, 19.742 ], [ 86.228, 19.745 ], [ 86.219, 19.735 ], [ 86.205, 19.738 ], [ 86.195, 19.728 ], [ 86.181, 19.73 ], [ 86.172, 19.72 ], [ 86.158, 19.723 ], [ 86.148, 19.713 ], [ 86.134, 19.716 ], [ 86.125, 19.706 ], [ 86.111, 19.709 ], [ 86.101, 19.699 ], [ 86.087, 19.701 ], [ 86.078, 19.692 ], [ 86.064, 19.694 ], [ 86.054, 19.684 ], [ 86.04, 19.687 ], [ 86.031, 19.677 ], [ 86.017, 19.68 ], [ 86.013, 19.692 ], [ 85.999, 19.695 ], [ 85.989, 19.685 ], [ 85.976, 19.688 ], [ 85.966, 19.678 ], [ 85.952, 19.681 ], [ 85.943, 19.671 ], [ 85.929, 19.673 ], [ 85.919, 19.663 ], [ 85.905, 19.666 ], [ 85.896, 19.656 ], [ 85.882, 19.659 ], [ 85.872, 19.649 ], [ 85.858, 19.652 ], [ 85.849, 19.642 ], [ 85.835, 19.644 ], [ 85.825, 19.634 ], [ 85.812, 19.637 ], [ 85.802, 19.627 ], [ 85.806, 19.615 ], [ 85.796, 19.605 ], [ 85.782, 19.607 ], [ 85.773, 19.597 ], [ 85.759, 19.6 ], [ 85.749, 19.59 ], [ 85.736, 19.593 ], [ 85.726, 19.583 ], [ 85.712, 19.585 ], [ 85.702, 19.576 ], [ 85.707, 19.563 ], [ 85.697, 19.553 ], [ 85.683, 19.556 ], [ 85.673, 19.546 ], [ 85.66, 19.548 ], [ 85.65, 19.538 ], [ 85.636, 19.541 ], [ 85.627, 19.531 ], [ 85.613, 19.534 ], [ 85.603, 19.524 ], [ 85.59, 19.526 ], [ 85.58, 19.517 ], [ 85.584, 19.504 ], [ 85.574, 19.494 ], [ 85.56, 19.497 ], [ 85.551, 19.487 ], [ 85.537, 19.489 ], [ 85.527, 19.479 ], [ 85.514, 19.482 ], [ 85.504, 19.472 ], [ 85.49, 19.475 ], [ 85.481, 19.465 ], [ 85.467, 19.467 ], [ 85.457, 19.457 ], [ 85.461, 19.445 ], [ 85.452, 19.435 ], [ 85.438, 19.438 ], [ 85.428, 19.428 ], [ 85.415, 19.43 ], [ 85.405, 19.42 ], [ 85.391, 19.423 ], [ 85.382, 19.413 ], [ 85.386, 19.4 ], [ 85.376, 19.39 ], [ 85.362, 19.393 ], [ 85.353, 19.383 ], [ 85.339, 19.386 ], [ 85.329, 19.376 ], [ 85.333, 19.363 ], [ 85.324, 19.353 ], [ 85.31, 19.356 ], [ 85.3, 19.346 ], [ 85.287, 19.349 ], [ 85.277, 19.339 ], [ 85.263, 19.341 ], [ 85.254, 19.331 ], [ 85.258, 19.319 ], [ 85.248, 19.309 ], [ 85.234, 19.311 ], [ 85.225, 19.301 ], [ 85.229, 19.289 ], [ 85.219, 19.279 ], [ 85.206, 19.281 ], [ 85.196, 19.271 ], [ 85.2, 19.259 ], [ 85.19, 19.249 ], [ 85.177, 19.251 ], [ 85.167, 19.241 ], [ 85.153, 19.244 ], [ 85.144, 19.234 ], [ 85.13, 19.237 ], [ 85.12, 19.227 ], [ 85.124, 19.214 ], [ 85.115, 19.204 ], [ 85.101, 19.207 ], [ 85.092, 19.197 ], [ 85.078, 19.199 ], [ 85.068, 19.19 ], [ 85.072, 19.177 ], [ 85.063, 19.167 ], [ 85.049, 19.17 ], [ 85.039, 19.16 ], [ 85.026, 19.162 ], [ 85.016, 19.152 ], [ 85.02, 19.14 ], [ 85.011, 19.13 ], [ 84.997, 19.132 ], [ 84.987, 19.122 ], [ 84.991, 19.11 ], [ 84.982, 19.1 ], [ 84.968, 19.102 ], [ 84.959, 19.092 ], [ 84.963, 19.08 ], [ 84.953, 19.07 ], [ 84.939, 19.072 ], [ 84.93, 19.062 ], [ 84.934, 19.05 ], [ 84.924, 19.04 ], [ 84.928, 19.027 ], [ 84.919, 19.017 ], [ 84.923, 19.004 ], [ 84.913, 18.994 ], [ 84.899, 18.997 ], [ 84.89, 18.987 ], [ 84.894, 18.974 ], [ 84.908, 18.972 ], [ 84.912, 18.959 ], [ 84.925, 18.956 ], [ 84.929, 18.944 ], [ 84.943, 18.941 ], [ 84.947, 18.928 ], [ 84.961, 18.926 ], [ 84.97, 18.936 ], [ 84.984, 18.933 ], [ 84.988, 18.92 ], [ 85.001, 18.918 ], [ 85.006, 18.905 ], [ 85.019, 18.902 ], [ 85.023, 18.89 ], [ 85.037, 18.887 ], [ 85.041, 18.874 ], [ 85.055, 18.872 ], [ 85.059, 18.859 ], [ 85.072, 18.856 ], [ 85.076, 18.844 ], [ 85.09, 18.841 ], [ 85.094, 18.828 ], [ 85.108, 18.826 ], [ 85.117, 18.836 ], [ 85.131, 18.833 ], [ 85.135, 18.82 ], [ 85.149, 18.818 ], [ 85.153, 18.805 ], [ 85.166, 18.802 ], [ 85.17, 18.79 ], [ 85.184, 18.787 ], [ 85.188, 18.774 ], [ 85.202, 18.771 ], [ 85.206, 18.759 ], [ 85.219, 18.756 ], [ 85.229, 18.766 ], [ 85.243, 18.763 ], [ 85.247, 18.751 ], [ 85.26, 18.748 ], [ 85.264, 18.735 ], [ 85.278, 18.733 ], [ 85.282, 18.72 ], [ 85.296, 18.717 ], [ 85.3, 18.704 ], [ 85.313, 18.702 ], [ 85.317, 18.689 ], [ 85.331, 18.686 ], [ 85.341, 18.696 ], [ 85.354, 18.694 ], [ 85.358, 18.681 ], [ 85.372, 18.678 ], [ 85.376, 18.665 ], [ 85.39, 18.663 ], [ 85.394, 18.65 ], [ 85.407, 18.647 ], [ 85.411, 18.635 ], [ 85.425, 18.632 ], [ 85.429, 18.619 ], [ 85.443, 18.616 ], [ 85.447, 18.604 ], [ 85.46, 18.601 ], [ 85.465, 18.588 ], [ 85.478, 18.586 ], [ 85.488, 18.596 ], [ 85.501, 18.593 ], [ 85.506, 18.58 ], [ 85.519, 18.577 ], [ 85.523, 18.565 ], [ 85.537, 18.562 ], [ 85.541, 18.549 ], [ 85.555, 18.546 ], [ 85.559, 18.534 ], [ 85.549, 18.524 ], [ 85.553, 18.511 ], [ 85.567, 18.508 ], [ 85.571, 18.495 ], [ 85.584, 18.493 ], [ 85.588, 18.48 ], [ 85.602, 18.477 ], [ 85.606, 18.465 ], [ 85.62, 18.462 ], [ 85.624, 18.449 ], [ 85.637, 18.446 ], [ 85.641, 18.434 ], [ 85.655, 18.431 ], [ 85.659, 18.418 ], [ 85.673, 18.415 ], [ 85.677, 18.403 ], [ 85.691, 18.4 ], [ 85.695, 18.387 ], [ 85.708, 18.384 ], [ 85.712, 18.372 ], [ 85.726, 18.369 ], [ 85.73, 18.356 ], [ 85.72, 18.346 ], [ 85.724, 18.333 ], [ 85.738, 18.33 ], [ 85.742, 18.318 ], [ 85.756, 18.315 ], [ 85.76, 18.302 ], [ 85.773, 18.299 ], [ 85.777, 18.287 ], [ 85.791, 18.284 ], [ 85.795, 18.271 ], [ 85.809, 18.268 ], [ 85.813, 18.256 ], [ 85.826, 18.253 ], [ 85.83, 18.24 ], [ 85.844, 18.237 ], [ 85.848, 18.225 ], [ 85.862, 18.222 ], [ 85.866, 18.209 ], [ 85.88, 18.206 ], [ 85.884, 18.193 ], [ 85.897, 18.191 ], [ 85.901, 18.178 ], [ 85.915, 18.175 ], [ 85.919, 18.162 ], [ 85.909, 18.152 ], [ 85.913, 18.139 ], [ 85.927, 18.137 ], [ 85.931, 18.124 ], [ 85.945, 18.121 ], [ 85.949, 18.108 ], [ 85.962, 18.106 ], [ 85.966, 18.093 ], [ 85.98, 18.09 ], [ 85.984, 18.077 ], [ 85.998, 18.074 ], [ 86.002, 18.062 ], [ 86.015, 18.059 ], [ 86.019, 18.046 ], [ 86.033, 18.043 ], [ 86.037, 18.03 ], [ 86.051, 18.028 ], [ 86.055, 18.015 ], [ 86.069, 18.012 ], [ 86.073, 17.999 ], [ 86.086, 17.996 ], [ 86.09, 17.984 ], [ 86.081, 17.974 ], [ 86.085, 17.961 ], [ 86.098, 17.958 ], [ 86.102, 17.945 ], [ 86.116, 17.942 ], [ 86.12, 17.929 ], [ 86.134, 17.927 ], [ 86.138, 17.914 ], [ 86.151, 17.911 ], [ 86.155, 17.898 ], [ 86.169, 17.895 ], [ 86.173, 17.883 ], [ 86.187, 17.88 ], [ 86.191, 17.867 ], [ 86.204, 17.864 ], [ 86.208, 17.851 ], [ 86.222, 17.848 ], [ 86.226, 17.836 ], [ 86.24, 17.833 ], [ 86.244, 17.82 ], [ 86.258, 17.817 ], [ 86.262, 17.804 ], [ 86.275, 17.802 ], [ 86.279, 17.789 ], [ 86.293, 17.786 ], [ 86.297, 17.773 ], [ 86.311, 17.77 ], [ 86.315, 17.757 ], [ 86.328, 17.754 ], [ 86.332, 17.742 ], [ 86.346, 17.739 ], [ 86.35, 17.726 ], [ 86.364, 17.723 ], [ 86.368, 17.71 ], [ 86.381, 17.707 ], [ 86.385, 17.695 ], [ 86.376, 17.685 ], [ 86.38, 17.672 ], [ 86.393, 17.669 ], [ 86.397, 17.656 ], [ 86.411, 17.653 ], [ 86.415, 17.64 ], [ 86.429, 17.638 ], [ 86.433, 17.625 ], [ 86.446, 17.622 ], [ 86.45, 17.609 ], [ 86.441, 17.599 ], [ 86.445, 17.586 ], [ 86.458, 17.583 ], [ 86.462, 17.57 ], [ 86.476, 17.568 ], [ 86.48, 17.555 ], [ 86.494, 17.552 ], [ 86.498, 17.539 ], [ 86.488, 17.529 ], [ 86.492, 17.516 ], [ 86.506, 17.513 ], [ 86.51, 17.5 ], [ 86.524, 17.497 ], [ 86.527, 17.485 ], [ 86.518, 17.475 ], [ 86.522, 17.462 ], [ 86.535, 17.459 ], [ 86.539, 17.446 ], [ 86.553, 17.443 ], [ 86.557, 17.43 ], [ 86.547, 17.42 ], [ 86.551, 17.407 ], [ 86.565, 17.405 ], [ 86.569, 17.392 ], [ 86.583, 17.389 ], [ 86.587, 17.376 ], [ 86.601, 17.373 ], [ 86.605, 17.36 ], [ 86.595, 17.35 ], [ 86.599, 17.337 ], [ 86.613, 17.334 ], [ 86.617, 17.322 ], [ 86.63, 17.319 ], [ 86.634, 17.306 ], [ 86.648, 17.303 ], [ 86.652, 17.29 ], [ 86.642, 17.28 ], [ 86.646, 17.267 ], [ 86.66, 17.264 ], [ 86.664, 17.251 ], [ 86.678, 17.248 ], [ 86.682, 17.236 ], [ 86.672, 17.226 ], [ 86.676, 17.213 ], [ 86.69, 17.21 ], [ 86.693, 17.197 ], [ 86.707, 17.194 ], [ 86.711, 17.181 ], [ 86.725, 17.178 ], [ 86.729, 17.165 ], [ 86.719, 17.155 ], [ 86.723, 17.142 ], [ 86.737, 17.139 ], [ 86.741, 17.127 ], [ 86.755, 17.124 ], [ 86.758, 17.111 ], [ 86.772, 17.108 ], [ 86.776, 17.095 ], [ 86.766, 17.085 ], [ 86.77, 17.072 ], [ 86.784, 17.069 ], [ 86.788, 17.056 ], [ 86.802, 17.053 ], [ 86.806, 17.04 ], [ 86.819, 17.037 ], [ 86.823, 17.025 ], [ 86.814, 17.015 ], [ 86.818, 17.002 ], [ 86.831, 16.999 ], [ 86.835, 16.986 ], [ 86.849, 16.983 ], [ 86.853, 16.97 ], [ 86.843, 16.96 ], [ 86.847, 16.947 ], [ 86.861, 16.944 ], [ 86.865, 16.931 ], [ 86.879, 16.928 ], [ 86.883, 16.915 ], [ 86.896, 16.912 ], [ 86.9, 16.899 ], [ 86.891, 16.89 ], [ 86.895, 16.877 ], [ 86.908, 16.874 ], [ 86.912, 16.861 ], [ 86.926, 16.858 ], [ 86.93, 16.845 ], [ 86.92, 16.835 ], [ 86.924, 16.822 ], [ 86.938, 16.819 ], [ 86.942, 16.806 ], [ 86.956, 16.803 ], [ 86.96, 16.79 ], [ 86.973, 16.787 ], [ 86.977, 16.774 ], [ 86.968, 16.764 ], [ 86.972, 16.751 ], [ 86.985, 16.748 ], [ 86.989, 16.735 ], [ 87.003, 16.733 ], [ 87.007, 16.72 ], [ 87.021, 16.717 ], [ 87.025, 16.704 ], [ 87.015, 16.694 ], [ 87.019, 16.681 ], [ 87.033, 16.678 ], [ 87.036, 16.665 ], [ 87.05, 16.662 ], [ 87.054, 16.649 ], [ 87.044, 16.639 ], [ 87.048, 16.626 ], [ 87.062, 16.623 ], [ 87.066, 16.61 ], [ 87.08, 16.607 ], [ 87.084, 16.594 ], [ 87.097, 16.591 ], [ 87.101, 16.578 ], [ 87.092, 16.568 ], [ 87.096, 16.555 ], [ 87.109, 16.552 ], [ 87.113, 16.539 ], [ 87.127, 16.536 ], [ 87.131, 16.523 ], [ 87.145, 16.521 ], [ 87.154, 16.531 ], [ 87.15, 16.543 ], [ 87.16, 16.553 ], [ 87.174, 16.551 ], [ 87.184, 16.561 ], [ 87.18, 16.573 ], [ 87.189, 16.583 ], [ 87.203, 16.58 ], [ 87.213, 16.59 ], [ 87.209, 16.603 ], [ 87.218, 16.613 ], [ 87.232, 16.61 ], [ 87.242, 16.62 ], [ 87.238, 16.633 ], [ 87.248, 16.643 ], [ 87.244, 16.656 ], [ 87.253, 16.666 ], [ 87.267, 16.663 ], [ 87.277, 16.673 ], [ 87.273, 16.686 ], [ 87.283, 16.696 ], [ 87.296, 16.693 ], [ 87.306, 16.703 ], [ 87.32, 16.7 ], [ 87.33, 16.71 ], [ 87.343, 16.707 ], [ 87.353, 16.717 ], [ 87.349, 16.73 ], [ 87.359, 16.74 ], [ 87.372, 16.737 ], [ 87.382, 16.747 ], [ 87.396, 16.744 ], [ 87.406, 16.754 ], [ 87.419, 16.751 ], [ 87.429, 16.761 ], [ 87.443, 16.758 ], [ 87.453, 16.768 ], [ 87.466, 16.765 ], [ 87.476, 16.775 ], [ 87.49, 16.772 ], [ 87.5, 16.782 ], [ 87.513, 16.779 ], [ 87.523, 16.789 ], [ 87.537, 16.786 ], [ 87.547, 16.796 ], [ 87.56, 16.793 ], [ 87.57, 16.803 ], [ 87.584, 16.8 ], [ 87.593, 16.81 ], [ 87.607, 16.807 ], [ 87.617, 16.817 ], [ 87.631, 16.814 ], [ 87.64, 16.824 ], [ 87.654, 16.821 ], [ 87.664, 16.831 ], [ 87.678, 16.828 ], [ 87.688, 16.838 ], [ 87.701, 16.835 ], [ 87.711, 16.845 ], [ 87.725, 16.842 ], [ 87.735, 16.852 ], [ 87.748, 16.849 ], [ 87.758, 16.859 ], [ 87.754, 16.872 ], [ 87.764, 16.882 ], [ 87.778, 16.879 ], [ 87.787, 16.889 ], [ 87.801, 16.886 ], [ 87.811, 16.896 ], [ 87.825, 16.893 ], [ 87.834, 16.903 ], [ 87.848, 16.9 ], [ 87.858, 16.91 ], [ 87.872, 16.907 ], [ 87.882, 16.917 ], [ 87.895, 16.914 ], [ 87.905, 16.924 ], [ 87.919, 16.921 ], [ 87.929, 16.931 ], [ 87.942, 16.928 ], [ 87.952, 16.938 ], [ 87.948, 16.951 ], [ 87.958, 16.961 ], [ 87.972, 16.958 ], [ 87.982, 16.968 ], [ 87.995, 16.965 ], [ 88.005, 16.975 ], [ 88.019, 16.972 ], [ 88.029, 16.982 ], [ 88.042, 16.979 ], [ 88.052, 16.989 ], [ 88.066, 16.986 ], [ 88.076, 16.996 ], [ 88.072, 17.009 ], [ 88.082, 17.019 ], [ 88.095, 17.016 ], [ 88.105, 17.026 ], [ 88.119, 17.023 ], [ 88.129, 17.033 ], [ 88.143, 17.03 ], [ 88.152, 17.04 ], [ 88.148, 17.053 ], [ 88.158, 17.063 ], [ 88.172, 17.06 ], [ 88.182, 17.069 ], [ 88.196, 17.066 ], [ 88.205, 17.076 ], [ 88.202, 17.089 ], [ 88.211, 17.099 ], [ 88.225, 17.096 ], [ 88.235, 17.106 ], [ 88.249, 17.103 ], [ 88.259, 17.113 ], [ 88.272, 17.11 ], [ 88.282, 17.12 ], [ 88.278, 17.133 ], [ 88.288, 17.143 ], [ 88.302, 17.14 ], [ 88.312, 17.15 ], [ 88.325, 17.147 ], [ 88.335, 17.157 ], [ 88.349, 17.154 ], [ 88.359, 17.164 ], [ 88.355, 17.177 ], [ 88.365, 17.187 ], [ 88.379, 17.184 ], [ 88.388, 17.194 ], [ 88.402, 17.191 ], [ 88.412, 17.201 ], [ 88.426, 17.198 ], [ 88.436, 17.208 ], [ 88.432, 17.221 ], [ 88.442, 17.231 ], [ 88.455, 17.228 ], [ 88.465, 17.237 ], [ 88.461, 17.25 ], [ 88.471, 17.26 ], [ 88.485, 17.257 ], [ 88.495, 17.267 ], [ 88.509, 17.264 ], [ 88.518, 17.274 ], [ 88.514, 17.287 ], [ 88.524, 17.297 ], [ 88.538, 17.294 ], [ 88.548, 17.304 ], [ 88.562, 17.301 ], [ 88.572, 17.311 ], [ 88.568, 17.324 ], [ 88.577, 17.334 ], [ 88.591, 17.331 ], [ 88.601, 17.341 ], [ 88.597, 17.354 ], [ 88.607, 17.364 ], [ 88.621, 17.361 ], [ 88.631, 17.371 ], [ 88.645, 17.368 ], [ 88.654, 17.378 ], [ 88.65, 17.391 ], [ 88.66, 17.401 ], [ 88.674, 17.397 ], [ 88.684, 17.407 ], [ 88.698, 17.404 ], [ 88.708, 17.414 ], [ 88.704, 17.427 ], [ 88.714, 17.437 ], [ 88.727, 17.434 ], [ 88.737, 17.444 ], [ 88.733, 17.457 ], [ 88.743, 17.467 ], [ 88.757, 17.464 ], [ 88.767, 17.474 ], [ 88.781, 17.471 ], [ 88.791, 17.481 ], [ 88.787, 17.494 ], [ 88.797, 17.504 ], [ 88.81, 17.501 ], [ 88.82, 17.511 ], [ 88.816, 17.524 ], [ 88.826, 17.534 ], [ 88.84, 17.531 ], [ 88.85, 17.54 ], [ 88.846, 17.553 ], [ 88.856, 17.563 ], [ 88.87, 17.56 ], [ 88.88, 17.57 ], [ 88.876, 17.583 ], [ 88.886, 17.593 ], [ 88.899, 17.59 ], [ 88.909, 17.6 ], [ 88.905, 17.613 ], [ 88.915, 17.623 ], [ 88.929, 17.62 ], [ 88.939, 17.63 ], [ 88.935, 17.643 ], [ 88.945, 17.653 ], [ 88.959, 17.65 ], [ 88.969, 17.66 ], [ 88.965, 17.673 ], [ 88.975, 17.683 ], [ 88.988, 17.679 ], [ 88.998, 17.689 ], [ 88.994, 17.702 ], [ 89.004, 17.712 ], [ 89.018, 17.709 ], [ 89.028, 17.719 ], [ 89.024, 17.732 ], [ 89.034, 17.742 ], [ 89.048, 17.739 ], [ 89.058, 17.749 ], [ 89.054, 17.762 ], [ 89.064, 17.772 ], [ 89.078, 17.769 ], [ 89.087, 17.779 ], [ 89.083, 17.792 ], [ 89.093, 17.802 ], [ 89.107, 17.799 ], [ 89.117, 17.808 ], [ 89.113, 17.821 ], [ 89.123, 17.831 ], [ 89.137, 17.828 ], [ 89.147, 17.838 ], [ 89.161, 17.835 ], [ 89.171, 17.845 ], [ 89.167, 17.858 ], [ 89.177, 17.868 ], [ 89.191, 17.865 ], [ 89.2, 17.875 ], [ 89.196, 17.888 ], [ 89.206, 17.898 ], [ 89.22, 17.895 ], [ 89.23, 17.905 ], [ 89.226, 17.918 ], [ 89.236, 17.927 ], [ 89.25, 17.924 ], [ 89.26, 17.934 ], [ 89.256, 17.947 ], [ 89.266, 17.957 ], [ 89.28, 17.954 ], [ 89.29, 17.964 ], [ 89.304, 17.961 ], [ 89.314, 17.971 ], [ 89.31, 17.984 ], [ 89.32, 17.994 ], [ 89.333, 17.991 ], [ 89.343, 18.001 ], [ 89.339, 18.014 ], [ 89.349, 18.024 ], [ 89.345, 18.036 ], [ 89.332, 18.04 ], [ 89.328, 18.053 ], [ 89.338, 18.062 ], [ 89.334, 18.075 ], [ 89.32, 18.078 ], [ 89.316, 18.091 ], [ 89.302, 18.094 ], [ 89.298, 18.107 ], [ 89.308, 18.117 ], [ 89.304, 18.13 ], [ 89.29, 18.133 ], [ 89.286, 18.146 ], [ 89.272, 18.149 ], [ 89.268, 18.162 ], [ 89.278, 18.172 ], [ 89.274, 18.185 ], [ 89.26, 18.188 ], [ 89.256, 18.201 ], [ 89.243, 18.204 ], [ 89.239, 18.217 ], [ 89.249, 18.227 ], [ 89.245, 18.24 ], [ 89.231, 18.243 ], [ 89.227, 18.256 ], [ 89.213, 18.259 ], [ 89.209, 18.272 ], [ 89.219, 18.282 ], [ 89.215, 18.295 ], [ 89.201, 18.298 ], [ 89.197, 18.311 ], [ 89.183, 18.314 ], [ 89.179, 18.327 ], [ 89.189, 18.337 ], [ 89.185, 18.35 ], [ 89.171, 18.353 ], [ 89.167, 18.366 ], [ 89.154, 18.369 ], [ 89.15, 18.382 ], [ 89.16, 18.392 ], [ 89.156, 18.404 ], [ 89.142, 18.407 ], [ 89.138, 18.42 ], [ 89.148, 18.43 ], [ 89.144, 18.443 ], [ 89.13, 18.446 ], [ 89.126, 18.459 ], [ 89.112, 18.462 ], [ 89.108, 18.475 ], [ 89.118, 18.485 ], [ 89.114, 18.498 ], [ 89.1, 18.501 ], [ 89.096, 18.514 ], [ 89.082, 18.517 ], [ 89.078, 18.53 ], [ 89.088, 18.54 ], [ 89.084, 18.553 ], [ 89.071, 18.556 ], [ 89.067, 18.569 ], [ 89.053, 18.572 ], [ 89.049, 18.585 ], [ 89.059, 18.594 ], [ 89.055, 18.607 ], [ 89.041, 18.61 ], [ 89.037, 18.623 ] ] ] ] } },
{ "type": "Feature", "properties": { "POLYGON.ID": 303.0, "subregion": "India--Odisha--Chilika", "POLYGON": "India--Odisha--Chilika", "SHOW": "1", "FILTER": "Not-Assigned", "FILTER.ID": null, "OLD.POLYGON": null, "STATE": "Odisha", "COUNTY": "spl_region", "OWNER": null }, "geometry": { "type": "MultiPolygon", "coordinates": [ [ [ [ 85.099, 19.575 ], [ 85.103, 19.562 ], [ 85.093, 19.552 ], [ 85.097, 19.539 ], [ 85.088, 19.529 ], [ 85.092, 19.517 ], [ 85.082, 19.507 ], [ 85.086, 19.494 ], [ 85.1, 19.491 ], [ 85.104, 19.479 ], [ 85.118, 19.476 ], [ 85.127, 19.486 ], [ 85.141, 19.484 ], [ 85.15, 19.494 ], [ 85.146, 19.506 ], [ 85.156, 19.516 ], [ 85.17, 19.513 ], [ 85.179, 19.523 ], [ 85.193, 19.521 ], [ 85.203, 19.531 ], [ 85.199, 19.543 ], [ 85.208, 19.553 ], [ 85.204, 19.566 ], [ 85.214, 19.576 ], [ 85.228, 19.573 ], [ 85.237, 19.583 ], [ 85.251, 19.581 ], [ 85.261, 19.591 ], [ 85.274, 19.588 ], [ 85.284, 19.598 ], [ 85.28, 19.611 ], [ 85.29, 19.62 ], [ 85.303, 19.618 ], [ 85.313, 19.628 ], [ 85.327, 19.625 ], [ 85.336, 19.635 ], [ 85.35, 19.632 ], [ 85.36, 19.642 ], [ 85.373, 19.64 ], [ 85.383, 19.65 ], [ 85.379, 19.662 ], [ 85.389, 19.672 ], [ 85.402, 19.67 ], [ 85.412, 19.68 ], [ 85.408, 19.692 ], [ 85.418, 19.702 ], [ 85.431, 19.7 ], [ 85.441, 19.71 ], [ 85.455, 19.707 ], [ 85.464, 19.717 ], [ 85.478, 19.714 ], [ 85.488, 19.724 ], [ 85.501, 19.721 ], [ 85.511, 19.731 ], [ 85.525, 19.729 ], [ 85.529, 19.716 ], [ 85.543, 19.713 ], [ 85.552, 19.723 ], [ 85.566, 19.721 ], [ 85.576, 19.731 ], [ 85.572, 19.743 ], [ 85.581, 19.753 ], [ 85.577, 19.766 ], [ 85.587, 19.776 ], [ 85.583, 19.788 ], [ 85.593, 19.798 ], [ 85.589, 19.811 ], [ 85.598, 19.821 ], [ 85.594, 19.834 ], [ 85.604, 19.844 ], [ 85.6, 19.856 ], [ 85.61, 19.866 ], [ 85.606, 19.879 ], [ 85.592, 19.881 ], [ 85.588, 19.894 ], [ 85.597, 19.904 ], [ 85.593, 19.917 ], [ 85.58, 19.919 ], [ 85.576, 19.932 ], [ 85.562, 19.935 ], [ 85.552, 19.925 ], [ 85.538, 19.927 ], [ 85.534, 19.94 ], [ 85.521, 19.943 ], [ 85.511, 19.933 ], [ 85.497, 19.935 ], [ 85.488, 19.925 ], [ 85.474, 19.928 ], [ 85.464, 19.918 ], [ 85.45, 19.921 ], [ 85.446, 19.933 ], [ 85.433, 19.936 ], [ 85.423, 19.926 ], [ 85.409, 19.929 ], [ 85.4, 19.919 ], [ 85.404, 19.906 ], [ 85.394, 19.896 ], [ 85.38, 19.899 ], [ 85.371, 19.889 ], [ 85.375, 19.876 ], [ 85.365, 19.866 ], [ 85.351, 19.869 ], [ 85.342, 19.859 ], [ 85.346, 19.846 ], [ 85.336, 19.836 ], [ 85.322, 19.839 ], [ 85.313, 19.829 ], [ 85.299, 19.832 ], [ 85.289, 19.822 ], [ 85.276, 19.824 ], [ 85.266, 19.814 ], [ 85.252, 19.817 ], [ 85.243, 19.807 ], [ 85.247, 19.794 ], [ 85.237, 19.784 ], [ 85.223, 19.787 ], [ 85.214, 19.777 ], [ 85.2, 19.78 ], [ 85.19, 19.77 ], [ 85.194, 19.757 ], [ 85.185, 19.747 ], [ 85.189, 19.735 ], [ 85.179, 19.725 ], [ 85.183, 19.712 ], [ 85.173, 19.702 ], [ 85.177, 19.69 ], [ 85.168, 19.68 ], [ 85.154, 19.682 ], [ 85.145, 19.672 ], [ 85.149, 19.66 ], [ 85.139, 19.65 ], [ 85.143, 19.637 ], [ 85.133, 19.627 ], [ 85.12, 19.63 ], [ 85.11, 19.62 ], [ 85.114, 19.607 ], [ 85.104, 19.597 ], [ 85.108, 19.585 ], [ 85.099, 19.575 ] ] ] ] } },
{ "type": "Feature", "properties": { "POLYGON.ID": 1327.0, "subregion": "India--Odisha--Khordha--Hills", "POLYGON": "India--Odisha--Khordha--Hills", "SHOW": "1", "FILTER": "Not-Assigned", "FILTER.ID": null, "OLD.POLYGON": null, "STATE": "Odisha", "COUNTY": "Khordha", "OWNER": null }, "geometry": { "type": "MultiPolygon", "coordinates": [ [ [ [ 85.223, 19.787 ], [ 85.237, 19.784 ], [ 85.247, 19.794 ], [ 85.243, 19.807 ], [ 85.252, 19.817 ], [ 85.266, 19.814 ], [ 85.276, 19.824 ], [ 85.289, 19.822 ], [ 85.299, 19.832 ], [ 85.313, 19.829 ], [ 85.322, 19.839 ], [ 85.336, 19.836 ], [ 85.346, 19.846 ], [ 85.342, 19.859 ], [ 85.351, 19.869 ], [ 85.365, 19.866 ], [ 85.375, 19.876 ], [ 85.371, 19.889 ], [ 85.38, 19.899 ], [ 85.394, 19.896 ], [ 85.404, 19.906 ], [ 85.4, 19.919 ], [ 85.409, 19.929 ], [ 85.405, 19.941 ], [ 85.392, 19.944 ], [ 85.387, 19.956 ], [ 85.374, 19.959 ], [ 85.364, 19.949 ], [ 85.35, 19.952 ], [ 85.341, 19.942 ], [ 85.327, 19.944 ], [ 85.317, 19.935 ], [ 85.304, 19.937 ], [ 85.294, 19.927 ], [ 85.28, 19.93 ], [ 85.271, 19.92 ], [ 85.257, 19.923 ], [ 85.247, 19.913 ], [ 85.233, 19.915 ], [ 85.224, 19.905 ], [ 85.21, 19.908 ], [ 85.2, 19.898 ], [ 85.187, 19.901 ], [ 85.183, 19.913 ], [ 85.169, 19.916 ], [ 85.159, 19.906 ], [ 85.146, 19.908 ], [ 85.142, 19.921 ], [ 85.128, 19.924 ], [ 85.124, 19.936 ], [ 85.11, 19.939 ], [ 85.101, 19.929 ], [ 85.087, 19.931 ], [ 85.077, 19.922 ], [ 85.063, 19.924 ], [ 85.054, 19.914 ], [ 85.04, 19.917 ], [ 85.031, 19.907 ], [ 85.017, 19.909 ], [ 85.007, 19.899 ], [ 84.994, 19.902 ], [ 84.984, 19.892 ], [ 84.97, 19.895 ], [ 84.966, 19.907 ], [ 84.952, 19.91 ], [ 84.943, 19.9 ], [ 84.947, 19.887 ], [ 84.937, 19.877 ], [ 84.941, 19.865 ], [ 84.955, 19.862 ], [ 84.959, 19.85 ], [ 84.973, 19.847 ], [ 84.977, 19.834 ], [ 84.99, 19.832 ], [ 84.995, 19.819 ], [ 85.008, 19.817 ], [ 85.012, 19.804 ], [ 85.026, 19.801 ], [ 85.036, 19.811 ], [ 85.049, 19.809 ], [ 85.053, 19.796 ], [ 85.067, 19.794 ], [ 85.071, 19.781 ], [ 85.085, 19.778 ], [ 85.089, 19.766 ], [ 85.102, 19.763 ], [ 85.107, 19.75 ], [ 85.12, 19.748 ], [ 85.124, 19.735 ], [ 85.138, 19.733 ], [ 85.142, 19.72 ], [ 85.156, 19.717 ], [ 85.16, 19.705 ], [ 85.173, 19.702 ], [ 85.183, 19.712 ], [ 85.179, 19.725 ], [ 85.189, 19.735 ], [ 85.185, 19.747 ], [ 85.194, 19.757 ], [ 85.19, 19.77 ], [ 85.2, 19.78 ], [ 85.214, 19.777 ], [ 85.223, 19.787 ] ] ] ] } },
{ "type": "Feature", "properties": { "POLYGON.ID": 1326.0, "subregion": "India--Odisha--Puri--Coast", "POLYGON": "India--Odisha--Puri--Coast", "SHOW": "1", "FILTER": "Not-Assigned", "FILTER.ID": null, "OLD.POLYGON": null, "STATE": "Odisha", "COUNTY": "Puri", "OWNER": null }, "geometry": { "type": "MultiPolygon", "coordinates": [ [ [ [ 85.772, 19.68 ], [ 85.758, 19.683 ], [ 85.754, 19.696 ], [ 85.74, 19.699 ], [ 85.736, 19.711 ], [ 85.723, 19.714 ], [ 85.719, 19.726 ], [ 85.705, 19.729 ], [ 85.701, 19.742 ], [ 85.687, 19.744 ], [ 85.683, 19.757 ], [ 85.669, 19.76 ], [ 85.66, 19.75 ], [ 85.646, 19.753 ], [ 85.636, 19.743 ], [ 85.623, 19.745 ], [ 85.613, 19.735 ], [ 85.599, 19.738 ], [ 85.589, 19.728 ], [ 85.576, 19.731 ], [ 85.566, 19.721 ], [ 85.552, 19.723 ], [ 85.543, 19.713 ], [ 85.529, 19.716 ], [ 85.525, 19.729 ], [ 85.511, 19.731 ], [ 85.501, 19.721 ], [ 85.488, 19.724 ], [ 85.478, 19.714 ], [ 85.464, 19.717 ], [ 85.455, 19.707 ], [ 85.441, 19.71 ], [ 85.431, 19.7 ], [ 85.418, 19.702 ], [ 85.408, 19.692 ], [ 85.412, 19.68 ], [ 85.402, 19.67 ], [ 85.389, 19.672 ], [ 85.379, 19.662 ], [ 85.383, 19.65 ], [ 85.373, 19.64 ], [ 85.36, 19.642 ], [ 85.35, 19.632 ], [ 85.336, 19.635 ], [ 85.327, 19.625 ], [ 85.313, 19.628 ], [ 85.303, 19.618 ], [ 85.29, 19.62 ], [ 85.28, 19.611 ], [ 85.284, 19.598 ], [ 85.274, 19.588 ], [ 85.261, 19.591 ], [ 85.251, 19.581 ], [ 85.237, 19.583 ], [ 85.228, 19.573 ], [ 85.214, 19.576 ], [ 85.204, 19.566 ], [ 85.208, 19.553 ], [ 85.199, 19.543 ], [ 85.203, 19.531 ], [ 85.193, 19.521 ], [ 85.179, 19.523 ], [ 85.17, 19.513 ], [ 85.156, 19.516 ], [ 85.146, 19.506 ], [ 85.15, 19.494 ], [ 85.141, 19.484 ], [ 85.127, 19.486 ], [ 85.118, 19.476 ], [ 85.122, 19.464 ], [ 85.135, 19.461 ], [ 85.139, 19.448 ], [ 85.153, 19.446 ], [ 85.157, 19.433 ], [ 85.171, 19.43 ], [ 85.175, 19.418 ], [ 85.188, 19.415 ], [ 85.192, 19.402 ], [ 85.206, 19.4 ], [ 85.21, 19.387 ], [ 85.224, 19.384 ], [ 85.228, 19.372 ], [ 85.242, 19.369 ], [ 85.246, 19.357 ], [ 85.259, 19.354 ], [ 85.263, 19.341 ], [ 85.277, 19.339 ], [ 85.287, 19.349 ], [ 85.3, 19.346 ], [ 85.31, 19.356 ], [ 85.324, 19.353 ], [ 85.333, 19.363 ], [ 85.329, 19.376 ], [ 85.339, 19.386 ], [ 85.353, 19.383 ], [ 85.362, 19.393 ], [ 85.376, 19.39 ], [ 85.386, 19.4 ], [ 85.382, 19.413 ], [ 85.391, 19.423 ], [ 85.405, 19.42 ], [ 85.415, 19.43 ], [ 85.428, 19.428 ], [ 85.438, 19.438 ], [ 85.452, 19.435 ], [ 85.461, 19.445 ], [ 85.457, 19.457 ], [ 85.467, 19.467 ], [ 85.481, 19.465 ], [ 85.49, 19.475 ], [ 85.504, 19.472 ], [ 85.514, 19.482 ], [ 85.527, 19.479 ], [ 85.537, 19.489 ], [ 85.551, 19.487 ], [ 85.56, 19.497 ], [ 85.574, 19.494 ], [ 85.584, 19.504 ], [ 85.58, 19.517 ], [ 85.59, 19.526 ], [ 85.603, 19.524 ], [ 85.613, 19.534 ], [ 85.627, 19.531 ], [ 85.636, 19.541 ], [ 85.65, 19.538 ], [ 85.66, 19.548 ], [ 85.673, 19.546 ], [ 85.683, 19.556 ], [ 85.697, 19.553 ], [ 85.707, 19.563 ], [ 85.702, 19.576 ], [ 85.712, 19.585 ], [ 85.726, 19.583 ], [ 85.736, 19.593 ], [ 85.749, 19.59 ], [ 85.759, 19.6 ], [ 85.773, 19.597 ], [ 85.782, 19.607 ], [ 85.796, 19.605 ], [ 85.806, 19.615 ], [ 85.802, 19.627 ], [ 85.788, 19.63 ], [ 85.784, 19.643 ], [ 85.77, 19.645 ], [ 85.766, 19.658 ], [ 85.776, 19.668 ], [ 85.772, 19.68 ] ] ] ] } },
{ "type": "Feature", "properties": { "POLYGON.ID": 1325.0, "subregion": "India--Odisha--Kendrapara--Bhitarkanika NP", "POLYGON": "India--Odisha--Kendrapara--Bhitarkanika NP", "SHOW": "1", "FILTER": "Not-Assigned", "FILTER.ID": null, "OLD.POLYGON": null, "STATE": "Odisha", "COUNTY": "Kendrapara", "OWNER": null }, "geometry": { "type": "MultiPolygon", "coordinates": [ [ [ [ 86.862, 20.805 ], [ 86.848, 20.807 ], [ 86.838, 20.797 ], [ 86.824, 20.8 ], [ 86.814, 20.79 ], [ 86.818, 20.778 ], [ 86.808, 20.768 ], [ 86.795, 20.77 ], [ 86.785, 20.761 ], [ 86.771, 20.763 ], [ 86.761, 20.753 ], [ 86.747, 20.756 ], [ 86.737, 20.746 ], [ 86.741, 20.734 ], [ 86.732, 20.724 ], [ 86.736, 20.711 ], [ 86.726, 20.701 ], [ 86.73, 20.689 ], [ 86.72, 20.679 ], [ 86.724, 20.666 ], [ 86.714, 20.656 ], [ 86.718, 20.644 ], [ 86.708, 20.634 ], [ 86.712, 20.621 ], [ 86.703, 20.611 ], [ 86.707, 20.598 ], [ 86.697, 20.589 ], [ 86.701, 20.576 ], [ 86.691, 20.566 ], [ 86.695, 20.553 ], [ 86.685, 20.544 ], [ 86.689, 20.531 ], [ 86.703, 20.528 ], [ 86.707, 20.516 ], [ 86.721, 20.513 ], [ 86.725, 20.5 ], [ 86.739, 20.497 ], [ 86.743, 20.485 ], [ 86.757, 20.482 ], [ 86.767, 20.492 ], [ 86.781, 20.489 ], [ 86.79, 20.499 ], [ 86.804, 20.496 ], [ 86.808, 20.484 ], [ 86.822, 20.481 ], [ 86.826, 20.468 ], [ 86.816, 20.459 ], [ 86.82, 20.446 ], [ 86.81, 20.436 ], [ 86.814, 20.423 ], [ 86.805, 20.413 ], [ 86.809, 20.401 ], [ 86.823, 20.398 ], [ 86.827, 20.385 ], [ 86.84, 20.383 ], [ 86.85, 20.393 ], [ 86.864, 20.39 ], [ 86.868, 20.377 ], [ 86.882, 20.374 ], [ 86.892, 20.384 ], [ 86.906, 20.382 ], [ 86.91, 20.369 ], [ 86.923, 20.366 ], [ 86.933, 20.376 ], [ 86.947, 20.373 ], [ 86.957, 20.383 ], [ 86.971, 20.38 ], [ 86.981, 20.39 ], [ 86.977, 20.403 ], [ 86.963, 20.406 ], [ 86.959, 20.418 ], [ 86.969, 20.428 ], [ 86.965, 20.441 ], [ 86.974, 20.451 ], [ 86.97, 20.464 ], [ 86.98, 20.473 ], [ 86.994, 20.471 ], [ 87.004, 20.481 ], [ 87.0, 20.493 ], [ 87.01, 20.503 ], [ 87.024, 20.5 ], [ 87.033, 20.51 ], [ 87.047, 20.507 ], [ 87.057, 20.517 ], [ 87.053, 20.53 ], [ 87.063, 20.54 ], [ 87.077, 20.537 ], [ 87.087, 20.547 ], [ 87.1, 20.544 ], [ 87.11, 20.554 ], [ 87.106, 20.567 ], [ 87.116, 20.577 ], [ 87.13, 20.574 ], [ 87.14, 20.584 ], [ 87.154, 20.581 ], [ 87.164, 20.591 ], [ 87.16, 20.604 ], [ 87.169, 20.614 ], [ 87.183, 20.611 ], [ 87.193, 20.621 ], [ 87.189, 20.633 ], [ 87.199, 20.643 ], [ 87.195, 20.656 ], [ 87.205, 20.666 ], [ 87.219, 20.663 ], [ 87.229, 20.673 ], [ 87.224, 20.685 ], [ 87.211, 20.688 ], [ 87.207, 20.701 ], [ 87.216, 20.711 ], [ 87.212, 20.723 ], [ 87.222, 20.733 ], [ 87.218, 20.746 ], [ 87.228, 20.756 ], [ 87.224, 20.768 ], [ 87.21, 20.771 ], [ 87.206, 20.784 ], [ 87.192, 20.787 ], [ 87.188, 20.799 ], [ 87.198, 20.809 ], [ 87.194, 20.822 ], [ 87.18, 20.824 ], [ 87.17, 20.815 ], [ 87.156, 20.817 ], [ 87.147, 20.807 ], [ 87.133, 20.81 ], [ 87.123, 20.8 ], [ 87.109, 20.803 ], [ 87.105, 20.816 ], [ 87.091, 20.818 ], [ 87.081, 20.809 ], [ 87.067, 20.811 ], [ 87.063, 20.824 ], [ 87.049, 20.827 ], [ 87.04, 20.817 ], [ 87.026, 20.819 ], [ 87.022, 20.832 ], [ 87.008, 20.835 ], [ 86.998, 20.825 ], [ 86.984, 20.828 ], [ 86.974, 20.818 ], [ 86.96, 20.821 ], [ 86.951, 20.811 ], [ 86.937, 20.813 ], [ 86.933, 20.826 ], [ 86.919, 20.829 ], [ 86.909, 20.819 ], [ 86.895, 20.822 ], [ 86.885, 20.812 ], [ 86.871, 20.814 ], [ 86.862, 20.805 ] ] ] ] } },
{ "type": "Feature", "properties": { "POLYGON.ID": 1324.0, "subregion": "India--Odisha--Baleswar--Kuldiha WLS", "POLYGON": "India--Odisha--Baleswar--Kuldiha WLS", "SHOW": "1", "FILTER": "Not-Assigned", "FILTER.ID": null, "OLD.POLYGON": null, "STATE": "Odisha", "COUNTY": "Baleswar", "OWNER": null }, "geometry": { "type": "MultiPolygon", "coordinates": [ [ [ [ 86.603, 21.327 ], [ 86.613, 21.336 ], [ 86.627, 21.334 ], [ 86.631, 21.321 ], [ 86.645, 21.318 ], [ 86.654, 21.328 ], [ 86.668, 21.326 ], [ 86.678, 21.336 ], [ 86.692, 21.333 ], [ 86.702, 21.343 ], [ 86.698, 21.355 ], [ 86.708, 21.365 ], [ 86.721, 21.362 ], [ 86.731, 21.372 ], [ 86.727, 21.385 ], [ 86.737, 21.395 ], [ 86.751, 21.392 ], [ 86.761, 21.402 ], [ 86.757, 21.415 ], [ 86.767, 21.424 ], [ 86.763, 21.437 ], [ 86.772, 21.447 ], [ 86.786, 21.444 ], [ 86.796, 21.454 ], [ 86.81, 21.451 ], [ 86.82, 21.461 ], [ 86.816, 21.474 ], [ 86.826, 21.484 ], [ 86.822, 21.496 ], [ 86.832, 21.506 ], [ 86.827, 21.518 ], [ 86.837, 21.528 ], [ 86.833, 21.541 ], [ 86.819, 21.544 ], [ 86.815, 21.556 ], [ 86.825, 21.566 ], [ 86.821, 21.578 ], [ 86.831, 21.588 ], [ 86.827, 21.601 ], [ 86.813, 21.604 ], [ 86.803, 21.594 ], [ 86.789, 21.596 ], [ 86.785, 21.609 ], [ 86.771, 21.612 ], [ 86.762, 21.602 ], [ 86.748, 21.604 ], [ 86.738, 21.595 ], [ 86.724, 21.597 ], [ 86.714, 21.587 ], [ 86.7, 21.59 ], [ 86.69, 21.58 ], [ 86.676, 21.583 ], [ 86.672, 21.595 ], [ 86.658, 21.598 ], [ 86.649, 21.588 ], [ 86.635, 21.591 ], [ 86.625, 21.581 ], [ 86.611, 21.584 ], [ 86.601, 21.574 ], [ 86.587, 21.576 ], [ 86.577, 21.567 ], [ 86.582, 21.554 ], [ 86.572, 21.544 ], [ 86.576, 21.532 ], [ 86.566, 21.522 ], [ 86.552, 21.524 ], [ 86.542, 21.515 ], [ 86.546, 21.502 ], [ 86.536, 21.492 ], [ 86.541, 21.48 ], [ 86.531, 21.47 ], [ 86.517, 21.472 ], [ 86.507, 21.463 ], [ 86.511, 21.45 ], [ 86.501, 21.44 ], [ 86.505, 21.428 ], [ 86.495, 21.418 ], [ 86.482, 21.42 ], [ 86.472, 21.411 ], [ 86.476, 21.398 ], [ 86.466, 21.388 ], [ 86.452, 21.391 ], [ 86.442, 21.381 ], [ 86.428, 21.384 ], [ 86.419, 21.374 ], [ 86.423, 21.361 ], [ 86.413, 21.351 ], [ 86.417, 21.339 ], [ 86.431, 21.336 ], [ 86.435, 21.324 ], [ 86.449, 21.321 ], [ 86.459, 21.331 ], [ 86.472, 21.328 ], [ 86.482, 21.338 ], [ 86.496, 21.335 ], [ 86.506, 21.345 ], [ 86.52, 21.343 ], [ 86.524, 21.33 ], [ 86.538, 21.327 ], [ 86.547, 21.337 ], [ 86.561, 21.335 ], [ 86.565, 21.322 ], [ 86.579, 21.319 ], [ 86.589, 21.329 ], [ 86.603, 21.327 ] ] ] ] } },
{ "type": "Feature", "properties": { "POLYGON.ID": 1366.0, "subregion": "India--Odisha--Offshore", "POLYGON": "India--Odisha--Offshore", "SHOW": "1", "FILTER": "Not-Assigned", "FILTER.ID": null, "OLD.POLYGON": null, "STATE": "Odisha", "COUNTY": "spl_region", "OWNER": null }, "geometry": { "type": "MultiPolygon", "coordinates": [ [ [ [ 86.98, 20.84 ], [ 86.984, 20.828 ], [ 86.998, 20.825 ], [ 87.008, 20.835 ], [ 87.022, 20.832 ], [ 87.026, 20.819 ], [ 87.04, 20.817 ], [ 87.049, 20.827 ], [ 87.063, 20.824 ], [ 87.067, 20.811 ], [ 87.081, 20.809 ], [ 87.091, 20.818 ], [ 87.105, 20.816 ], [ 87.109, 20.803 ], [ 87.123, 20.8 ], [ 87.133, 20.81 ], [ 87.147, 20.807 ], [ 87.156, 20.817 ], [ 87.17, 20.815 ], [ 87.18, 20.824 ], [ 87.176, 20.837 ], [ 87.186, 20.847 ], [ 87.182, 20.86 ], [ 87.168, 20.862 ], [ 87.164, 20.875 ], [ 87.15, 20.878 ], [ 87.146, 20.89 ], [ 87.132, 20.893 ], [ 87.128, 20.906 ], [ 87.138, 20.916 ], [ 87.134, 20.928 ], [ 87.12, 20.931 ], [ 87.116, 20.943 ], [ 87.102, 20.946 ], [ 87.098, 20.959 ], [ 87.108, 20.969 ], [ 87.104, 20.981 ], [ 87.09, 20.984 ], [ 87.086, 20.997 ], [ 87.072, 20.999 ], [ 87.068, 21.012 ], [ 87.078, 21.022 ], [ 87.074, 21.034 ], [ 87.06, 21.037 ], [ 87.056, 21.05 ], [ 87.066, 21.06 ], [ 87.062, 21.072 ], [ 87.048, 21.075 ], [ 87.044, 21.088 ], [ 87.03, 21.09 ], [ 87.026, 21.103 ], [ 87.036, 21.113 ], [ 87.032, 21.125 ], [ 87.018, 21.128 ], [ 87.014, 21.141 ], [ 87.024, 21.151 ], [ 87.02, 21.163 ], [ 87.03, 21.173 ], [ 87.026, 21.186 ], [ 87.036, 21.195 ], [ 87.049, 21.193 ], [ 87.059, 21.203 ], [ 87.055, 21.215 ], [ 87.065, 21.225 ], [ 87.061, 21.238 ], [ 87.071, 21.247 ], [ 87.067, 21.26 ], [ 87.077, 21.27 ], [ 87.091, 21.267 ], [ 87.101, 21.277 ], [ 87.114, 21.274 ], [ 87.124, 21.284 ], [ 87.12, 21.297 ], [ 87.13, 21.307 ], [ 87.144, 21.304 ], [ 87.154, 21.314 ], [ 87.168, 21.311 ], [ 87.178, 21.321 ], [ 87.174, 21.333 ], [ 87.184, 21.343 ], [ 87.197, 21.341 ], [ 87.207, 21.35 ], [ 87.221, 21.348 ], [ 87.231, 21.358 ], [ 87.227, 21.37 ], [ 87.237, 21.38 ], [ 87.251, 21.377 ], [ 87.261, 21.387 ], [ 87.275, 21.384 ], [ 87.285, 21.394 ], [ 87.298, 21.392 ], [ 87.303, 21.379 ], [ 87.316, 21.376 ], [ 87.326, 21.386 ], [ 87.34, 21.383 ], [ 87.35, 21.393 ], [ 87.364, 21.39 ], [ 87.368, 21.378 ], [ 87.382, 21.375 ], [ 87.392, 21.385 ], [ 87.406, 21.382 ], [ 87.416, 21.392 ], [ 87.43, 21.389 ], [ 87.434, 21.377 ], [ 87.448, 21.374 ], [ 87.457, 21.384 ], [ 87.471, 21.381 ], [ 87.481, 21.391 ], [ 87.477, 21.404 ], [ 87.487, 21.413 ], [ 87.501, 21.411 ], [ 87.511, 21.421 ], [ 87.507, 21.433 ], [ 87.517, 21.443 ], [ 87.513, 21.456 ], [ 87.499, 21.458 ], [ 87.495, 21.471 ], [ 87.505, 21.481 ], [ 87.501, 21.493 ], [ 87.487, 21.496 ], [ 87.483, 21.509 ], [ 87.493, 21.518 ], [ 87.489, 21.531 ], [ 87.499, 21.541 ], [ 87.495, 21.553 ], [ 87.481, 21.556 ], [ 87.477, 21.569 ], [ 87.463, 21.571 ], [ 87.459, 21.584 ], [ 87.445, 21.587 ], [ 87.435, 21.577 ], [ 87.439, 21.564 ], [ 87.429, 21.555 ], [ 87.433, 21.542 ], [ 87.423, 21.532 ], [ 87.409, 21.535 ], [ 87.399, 21.525 ], [ 87.385, 21.528 ], [ 87.375, 21.518 ], [ 87.361, 21.521 ], [ 87.357, 21.533 ], [ 87.344, 21.536 ], [ 87.334, 21.526 ], [ 87.32, 21.529 ], [ 87.31, 21.519 ], [ 87.296, 21.522 ], [ 87.292, 21.534 ], [ 87.278, 21.537 ], [ 87.268, 21.527 ], [ 87.254, 21.53 ], [ 87.244, 21.52 ], [ 87.23, 21.523 ], [ 87.22, 21.513 ], [ 87.207, 21.516 ], [ 87.197, 21.506 ], [ 87.183, 21.508 ], [ 87.173, 21.499 ], [ 87.159, 21.501 ], [ 87.149, 21.491 ], [ 87.135, 21.494 ], [ 87.125, 21.484 ], [ 87.129, 21.472 ], [ 87.119, 21.462 ], [ 87.105, 21.465 ], [ 87.096, 21.455 ], [ 87.082, 21.457 ], [ 87.072, 21.448 ], [ 87.076, 21.435 ], [ 87.066, 21.425 ], [ 87.052, 21.428 ], [ 87.042, 21.418 ], [ 87.046, 21.405 ], [ 87.036, 21.396 ], [ 87.023, 21.398 ], [ 87.013, 21.388 ], [ 86.999, 21.391 ], [ 86.989, 21.381 ], [ 86.993, 21.369 ], [ 86.983, 21.359 ], [ 86.969, 21.362 ], [ 86.959, 21.352 ], [ 86.963, 21.339 ], [ 86.953, 21.329 ], [ 86.94, 21.332 ], [ 86.93, 21.322 ], [ 86.934, 21.31 ], [ 86.924, 21.3 ], [ 86.928, 21.287 ], [ 86.918, 21.277 ], [ 86.922, 21.265 ], [ 86.912, 21.255 ], [ 86.898, 21.258 ], [ 86.889, 21.248 ], [ 86.893, 21.235 ], [ 86.883, 21.225 ], [ 86.887, 21.213 ], [ 86.877, 21.203 ], [ 86.863, 21.206 ], [ 86.853, 21.196 ], [ 86.857, 21.183 ], [ 86.847, 21.173 ], [ 86.851, 21.161 ], [ 86.865, 21.158 ], [ 86.869, 21.145 ], [ 86.86, 21.135 ], [ 86.864, 21.123 ], [ 86.854, 21.113 ], [ 86.858, 21.1 ], [ 86.872, 21.098 ], [ 86.876, 21.085 ], [ 86.866, 21.075 ], [ 86.87, 21.063 ], [ 86.884, 21.06 ], [ 86.888, 21.047 ], [ 86.902, 21.045 ], [ 86.906, 21.032 ], [ 86.896, 21.022 ], [ 86.9, 21.01 ], [ 86.914, 21.007 ], [ 86.918, 20.994 ], [ 86.932, 20.992 ], [ 86.936, 20.979 ], [ 86.926, 20.969 ], [ 86.93, 20.956 ], [ 86.944, 20.954 ], [ 86.948, 20.941 ], [ 86.962, 20.938 ], [ 86.966, 20.926 ], [ 86.956, 20.916 ], [ 86.96, 20.903 ], [ 86.974, 20.901 ], [ 86.978, 20.888 ], [ 86.992, 20.885 ], [ 86.996, 20.873 ], [ 86.986, 20.863 ], [ 86.99, 20.85 ], [ 86.98, 20.84 ] ] ], [ [ [ 85.912, 19.807 ], [ 85.898, 19.81 ], [ 85.888, 19.8 ], [ 85.875, 19.803 ], [ 85.865, 19.793 ], [ 85.851, 19.795 ], [ 85.842, 19.785 ], [ 85.828, 19.788 ], [ 85.818, 19.778 ], [ 85.804, 19.781 ], [ 85.795, 19.771 ], [ 85.781, 19.774 ], [ 85.771, 19.764 ], [ 85.757, 19.766 ], [ 85.748, 19.756 ], [ 85.734, 19.759 ], [ 85.724, 19.749 ], [ 85.711, 19.752 ], [ 85.701, 19.742 ], [ 85.705, 19.729 ], [ 85.719, 19.726 ], [ 85.723, 19.714 ], [ 85.736, 19.711 ], [ 85.74, 19.699 ], [ 85.754, 19.696 ], [ 85.758, 19.683 ], [ 85.772, 19.68 ], [ 85.776, 19.668 ], [ 85.766, 19.658 ], [ 85.77, 19.645 ], [ 85.784, 19.643 ], [ 85.788, 19.63 ], [ 85.802, 19.627 ], [ 85.812, 19.637 ], [ 85.825, 19.634 ], [ 85.835, 19.644 ], [ 85.849, 19.642 ], [ 85.858, 19.652 ], [ 85.872, 19.649 ], [ 85.882, 19.659 ], [ 85.896, 19.656 ], [ 85.905, 19.666 ], [ 85.919, 19.663 ], [ 85.929, 19.673 ], [ 85.943, 19.671 ], [ 85.952, 19.681 ], [ 85.966, 19.678 ], [ 85.976, 19.688 ], [ 85.989, 19.685 ], [ 85.999, 19.695 ], [ 86.013, 19.692 ], [ 86.017, 19.68 ], [ 86.031, 19.677 ], [ 86.04, 19.687 ], [ 86.054, 19.684 ], [ 86.064, 19.694 ], [ 86.078, 19.692 ], [ 86.087, 19.701 ], [ 86.101, 19.699 ], [ 86.111, 19.709 ], [ 86.125, 19.706 ], [ 86.134, 19.716 ], [ 86.148, 19.713 ], [ 86.158, 19.723 ], [ 86.172, 19.72 ], [ 86.181, 19.73 ], [ 86.195, 19.728 ], [ 86.205, 19.738 ], [ 86.219, 19.735 ], [ 86.228, 19.745 ], [ 86.242, 19.742 ], [ 86.252, 19.752 ], [ 86.266, 19.749 ], [ 86.275, 19.759 ], [ 86.289, 19.756 ], [ 86.299, 19.766 ], [ 86.313, 19.764 ], [ 86.323, 19.774 ], [ 86.336, 19.771 ], [ 86.346, 19.781 ], [ 86.342, 19.794 ], [ 86.352, 19.803 ], [ 86.366, 19.801 ], [ 86.37, 19.788 ], [ 86.383, 19.785 ], [ 86.393, 19.795 ], [ 86.407, 19.792 ], [ 86.417, 19.802 ], [ 86.43, 19.8 ], [ 86.44, 19.81 ], [ 86.454, 19.807 ], [ 86.464, 19.817 ], [ 86.478, 19.814 ], [ 86.487, 19.824 ], [ 86.483, 19.837 ], [ 86.493, 19.847 ], [ 86.507, 19.844 ], [ 86.517, 19.854 ], [ 86.53, 19.851 ], [ 86.54, 19.861 ], [ 86.536, 19.874 ], [ 86.546, 19.884 ], [ 86.542, 19.896 ], [ 86.552, 19.906 ], [ 86.566, 19.903 ], [ 86.575, 19.913 ], [ 86.571, 19.926 ], [ 86.581, 19.936 ], [ 86.577, 19.949 ], [ 86.587, 19.959 ], [ 86.583, 19.971 ], [ 86.593, 19.981 ], [ 86.589, 19.994 ], [ 86.598, 20.004 ], [ 86.612, 20.001 ], [ 86.622, 20.011 ], [ 86.618, 20.024 ], [ 86.628, 20.034 ], [ 86.624, 20.046 ], [ 86.633, 20.056 ], [ 86.647, 20.053 ], [ 86.657, 20.063 ], [ 86.653, 20.076 ], [ 86.663, 20.086 ], [ 86.677, 20.083 ], [ 86.686, 20.093 ], [ 86.7, 20.09 ], [ 86.71, 20.1 ], [ 86.724, 20.097 ], [ 86.734, 20.107 ], [ 86.73, 20.12 ], [ 86.739, 20.13 ], [ 86.753, 20.127 ], [ 86.763, 20.137 ], [ 86.777, 20.134 ], [ 86.787, 20.144 ], [ 86.8, 20.142 ], [ 86.81, 20.151 ], [ 86.806, 20.164 ], [ 86.816, 20.174 ], [ 86.83, 20.171 ], [ 86.84, 20.181 ], [ 86.854, 20.178 ], [ 86.863, 20.188 ], [ 86.859, 20.201 ], [ 86.869, 20.211 ], [ 86.883, 20.208 ], [ 86.893, 20.218 ], [ 86.907, 20.215 ], [ 86.916, 20.225 ], [ 86.912, 20.238 ], [ 86.922, 20.248 ], [ 86.918, 20.26 ], [ 86.928, 20.27 ], [ 86.942, 20.268 ], [ 86.952, 20.278 ], [ 86.948, 20.29 ], [ 86.957, 20.3 ], [ 86.953, 20.313 ], [ 86.963, 20.323 ], [ 86.959, 20.335 ], [ 86.969, 20.345 ], [ 86.965, 20.358 ], [ 86.975, 20.368 ], [ 86.971, 20.38 ], [ 86.957, 20.383 ], [ 86.947, 20.373 ], [ 86.933, 20.376 ], [ 86.923, 20.366 ], [ 86.91, 20.369 ], [ 86.906, 20.382 ], [ 86.892, 20.384 ], [ 86.882, 20.374 ], [ 86.868, 20.377 ], [ 86.864, 20.39 ], [ 86.85, 20.393 ], [ 86.84, 20.383 ], [ 86.827, 20.385 ], [ 86.817, 20.375 ], [ 86.821, 20.363 ], [ 86.811, 20.353 ], [ 86.797, 20.356 ], [ 86.787, 20.346 ], [ 86.791, 20.333 ], [ 86.782, 20.323 ], [ 86.786, 20.311 ], [ 86.776, 20.301 ], [ 86.762, 20.303 ], [ 86.752, 20.293 ], [ 86.738, 20.296 ], [ 86.729, 20.286 ], [ 86.733, 20.274 ], [ 86.723, 20.264 ], [ 86.709, 20.266 ], [ 86.699, 20.257 ], [ 86.685, 20.259 ], [ 86.675, 20.249 ], [ 86.662, 20.252 ], [ 86.652, 20.242 ], [ 86.638, 20.245 ], [ 86.628, 20.235 ], [ 86.632, 20.222 ], [ 86.622, 20.212 ], [ 86.609, 20.215 ], [ 86.599, 20.205 ], [ 86.585, 20.208 ], [ 86.575, 20.198 ], [ 86.561, 20.201 ], [ 86.552, 20.191 ], [ 86.556, 20.178 ], [ 86.546, 20.168 ], [ 86.532, 20.171 ], [ 86.522, 20.161 ], [ 86.526, 20.149 ], [ 86.517, 20.139 ], [ 86.521, 20.126 ], [ 86.511, 20.116 ], [ 86.497, 20.119 ], [ 86.487, 20.109 ], [ 86.491, 20.096 ], [ 86.481, 20.086 ], [ 86.486, 20.074 ], [ 86.476, 20.064 ], [ 86.462, 20.066 ], [ 86.452, 20.056 ], [ 86.456, 20.044 ], [ 86.446, 20.034 ], [ 86.433, 20.037 ], [ 86.423, 20.027 ], [ 86.427, 20.014 ], [ 86.417, 20.004 ], [ 86.421, 19.991 ], [ 86.411, 19.982 ], [ 86.415, 19.969 ], [ 86.406, 19.959 ], [ 86.41, 19.946 ], [ 86.4, 19.936 ], [ 86.386, 19.939 ], [ 86.376, 19.929 ], [ 86.363, 19.932 ], [ 86.359, 19.945 ], [ 86.345, 19.947 ], [ 86.335, 19.937 ], [ 86.321, 19.94 ], [ 86.311, 19.93 ], [ 86.298, 19.933 ], [ 86.288, 19.923 ], [ 86.274, 19.926 ], [ 86.264, 19.916 ], [ 86.268, 19.903 ], [ 86.259, 19.893 ], [ 86.245, 19.896 ], [ 86.235, 19.886 ], [ 86.221, 19.889 ], [ 86.212, 19.879 ], [ 86.198, 19.881 ], [ 86.188, 19.871 ], [ 86.174, 19.874 ], [ 86.165, 19.864 ], [ 86.151, 19.867 ], [ 86.141, 19.857 ], [ 86.127, 19.86 ], [ 86.118, 19.85 ], [ 86.104, 19.852 ], [ 86.094, 19.843 ], [ 86.08, 19.845 ], [ 86.071, 19.835 ], [ 86.057, 19.838 ], [ 86.047, 19.828 ], [ 86.033, 19.831 ], [ 86.024, 19.821 ], [ 86.01, 19.824 ], [ 86.0, 19.814 ], [ 85.986, 19.816 ], [ 85.982, 19.829 ], [ 85.969, 19.832 ], [ 85.959, 19.822 ], [ 85.945, 19.824 ], [ 85.935, 19.814 ], [ 85.922, 19.817 ], [ 85.912, 19.807 ] ] ], [ [ [ 84.962, 19.281 ], [ 84.948, 19.284 ], [ 84.939, 19.274 ], [ 84.943, 19.261 ], [ 84.933, 19.251 ], [ 84.92, 19.254 ], [ 84.91, 19.244 ], [ 84.914, 19.231 ], [ 84.904, 19.221 ], [ 84.891, 19.224 ], [ 84.881, 19.214 ], [ 84.868, 19.217 ], [ 84.858, 19.207 ], [ 84.862, 19.194 ], [ 84.852, 19.184 ], [ 84.839, 19.187 ], [ 84.829, 19.177 ], [ 84.833, 19.164 ], [ 84.824, 19.154 ], [ 84.828, 19.141 ], [ 84.818, 19.131 ], [ 84.804, 19.134 ], [ 84.795, 19.124 ], [ 84.799, 19.111 ], [ 84.789, 19.101 ], [ 84.793, 19.089 ], [ 84.784, 19.079 ], [ 84.788, 19.066 ], [ 84.801, 19.064 ], [ 84.805, 19.051 ], [ 84.819, 19.048 ], [ 84.823, 19.036 ], [ 84.837, 19.033 ], [ 84.841, 19.02 ], [ 84.854, 19.018 ], [ 84.864, 19.028 ], [ 84.878, 19.025 ], [ 84.882, 19.012 ], [ 84.895, 19.01 ], [ 84.899, 18.997 ], [ 84.913, 18.994 ], [ 84.923, 19.004 ], [ 84.919, 19.017 ], [ 84.928, 19.027 ], [ 84.924, 19.04 ], [ 84.934, 19.05 ], [ 84.93, 19.062 ], [ 84.939, 19.072 ], [ 84.953, 19.07 ], [ 84.963, 19.08 ], [ 84.959, 19.092 ], [ 84.968, 19.102 ], [ 84.982, 19.1 ], [ 84.991, 19.11 ], [ 84.987, 19.122 ], [ 84.997, 19.132 ], [ 85.011, 19.13 ], [ 85.02, 19.14 ], [ 85.016, 19.152 ], [ 85.026, 19.162 ], [ 85.039, 19.16 ], [ 85.049, 19.17 ], [ 85.063, 19.167 ], [ 85.072, 19.177 ], [ 85.068, 19.19 ], [ 85.078, 19.199 ], [ 85.092, 19.197 ], [ 85.101, 19.207 ], [ 85.115, 19.204 ], [ 85.124, 19.214 ], [ 85.12, 19.227 ], [ 85.13, 19.237 ], [ 85.144, 19.234 ], [ 85.153, 19.244 ], [ 85.167, 19.241 ], [ 85.177, 19.251 ], [ 85.19, 19.249 ], [ 85.2, 19.259 ], [ 85.196, 19.271 ], [ 85.206, 19.281 ], [ 85.219, 19.279 ], [ 85.229, 19.289 ], [ 85.225, 19.301 ], [ 85.234, 19.311 ], [ 85.248, 19.309 ], [ 85.258, 19.319 ], [ 85.254, 19.331 ], [ 85.263, 19.341 ], [ 85.259, 19.354 ], [ 85.246, 19.357 ], [ 85.242, 19.369 ], [ 85.228, 19.372 ], [ 85.224, 19.384 ], [ 85.21, 19.387 ], [ 85.206, 19.4 ], [ 85.192, 19.402 ], [ 85.188, 19.415 ], [ 85.175, 19.418 ], [ 85.171, 19.43 ], [ 85.157, 19.433 ], [ 85.147, 19.423 ], [ 85.134, 19.426 ], [ 85.124, 19.416 ], [ 85.11, 19.418 ], [ 85.101, 19.408 ], [ 85.105, 19.396 ], [ 85.095, 19.386 ], [ 85.099, 19.373 ], [ 85.09, 19.363 ], [ 85.076, 19.366 ], [ 85.066, 19.356 ], [ 85.053, 19.358 ], [ 85.043, 19.349 ], [ 85.047, 19.336 ], [ 85.037, 19.326 ], [ 85.024, 19.329 ], [ 85.014, 19.319 ], [ 85.001, 19.321 ], [ 84.991, 19.311 ], [ 84.995, 19.299 ], [ 84.985, 19.289 ], [ 84.972, 19.291 ], [ 84.962, 19.281 ] ] ] ] } }
]
}
