{
"type": "FeatureCollection",
"name": "Puducherry",
"crs": { "type": "name", "properties": { "name": "urn:ogc:def:crs:OGC:1.3:CRS84" } },
"features": [
{ "type": "Feature", "properties": { "POLYGON.ID": 301.0, "subregion": "IN-PY--pelagic", "POLYGON": "IN-PY--pelagic", "SHOW": "1", "FILTER": "Not-Assigned", "FILTER.ID": null, "OLD.POLYGON": null, "STATE": "Puducherry", "COUNTY": "spl_region", "OWNER": null }, "geometry": { "type": "MultiPolygon", "coordinates": [ [ [ [ 80.843, 10.931 ], [ 80.83, 10.934 ], [ 80.827, 10.947 ], [ 80.814, 10.95 ], [ 80.805, 10.94 ], [ 80.792, 10.943 ], [ 80.788, 10.955 ], [ 80.775, 10.958 ], [ 80.766, 10.948 ], [ 80.753, 10.951 ], [ 80.744, 10.941 ], [ 80.731, 10.944 ], [ 80.727, 10.957 ], [ 80.714, 10.96 ], [ 80.705, 10.95 ], [ 80.693, 10.953 ], [ 80.684, 10.943 ], [ 80.671, 10.946 ], [ 80.667, 10.958 ], [ 80.654, 10.961 ], [ 80.645, 10.951 ], [ 80.632, 10.954 ], [ 80.623, 10.944 ], [ 80.61, 10.947 ], [ 80.606, 10.96 ], [ 80.593, 10.963 ], [ 80.585, 10.953 ], [ 80.572, 10.956 ], [ 80.563, 10.946 ], [ 80.55, 10.949 ], [ 80.546, 10.961 ], [ 80.533, 10.964 ], [ 80.524, 10.954 ], [ 80.511, 10.957 ], [ 80.502, 10.947 ], [ 80.49, 10.95 ], [ 80.486, 10.963 ], [ 80.473, 10.966 ], [ 80.464, 10.956 ], [ 80.451, 10.959 ], [ 80.442, 10.949 ], [ 80.429, 10.952 ], [ 80.425, 10.964 ], [ 80.412, 10.967 ], [ 80.403, 10.957 ], [ 80.391, 10.96 ], [ 80.382, 10.95 ], [ 80.369, 10.953 ], [ 80.365, 10.966 ], [ 80.352, 10.969 ], [ 80.343, 10.959 ], [ 80.33, 10.961 ], [ 80.321, 10.952 ], [ 80.309, 10.954 ], [ 80.305, 10.967 ], [ 80.292, 10.97 ], [ 80.283, 10.96 ], [ 80.27, 10.963 ], [ 80.261, 10.953 ], [ 80.248, 10.956 ], [ 80.244, 10.969 ], [ 80.232, 10.971 ], [ 80.223, 10.961 ], [ 80.21, 10.964 ], [ 80.206, 10.977 ], [ 80.193, 10.98 ], [ 80.184, 10.97 ], [ 80.171, 10.973 ], [ 80.162, 10.963 ], [ 80.15, 10.966 ], [ 80.146, 10.978 ], [ 80.133, 10.981 ], [ 80.124, 10.971 ], [ 80.111, 10.974 ], [ 80.102, 10.964 ], [ 80.089, 10.967 ], [ 80.085, 10.98 ], [ 80.073, 10.983 ], [ 80.064, 10.973 ], [ 80.051, 10.975 ], [ 80.042, 10.966 ], [ 80.029, 10.968 ], [ 80.021, 10.958 ], [ 80.024, 10.946 ], [ 80.016, 10.936 ], [ 80.02, 10.923 ], [ 80.011, 10.913 ], [ 80.015, 10.9 ], [ 80.028, 10.898 ], [ 80.032, 10.885 ], [ 80.023, 10.875 ], [ 80.027, 10.862 ], [ 80.018, 10.852 ], [ 80.022, 10.839 ], [ 80.013, 10.83 ], [ 80.017, 10.817 ], [ 80.03, 10.814 ], [ 80.039, 10.824 ], [ 80.051, 10.821 ], [ 80.06, 10.831 ], [ 80.073, 10.828 ], [ 80.077, 10.815 ], [ 80.09, 10.813 ], [ 80.099, 10.822 ], [ 80.112, 10.82 ], [ 80.12, 10.83 ], [ 80.133, 10.827 ], [ 80.142, 10.837 ], [ 80.155, 10.834 ], [ 80.159, 10.821 ], [ 80.172, 10.818 ], [ 80.181, 10.828 ], [ 80.193, 10.825 ], [ 80.202, 10.835 ], [ 80.215, 10.832 ], [ 80.219, 10.82 ], [ 80.232, 10.817 ], [ 80.241, 10.827 ], [ 80.254, 10.824 ], [ 80.262, 10.834 ], [ 80.275, 10.831 ], [ 80.279, 10.818 ], [ 80.292, 10.815 ], [ 80.301, 10.825 ], [ 80.314, 10.822 ], [ 80.323, 10.832 ], [ 80.336, 10.83 ], [ 80.339, 10.817 ], [ 80.352, 10.814 ], [ 80.361, 10.824 ], [ 80.374, 10.821 ], [ 80.383, 10.831 ], [ 80.396, 10.828 ], [ 80.4, 10.815 ], [ 80.413, 10.812 ], [ 80.422, 10.822 ], [ 80.434, 10.82 ], [ 80.443, 10.829 ], [ 80.456, 10.827 ], [ 80.465, 10.837 ], [ 80.478, 10.834 ], [ 80.482, 10.821 ], [ 80.495, 10.818 ], [ 80.504, 10.828 ], [ 80.516, 10.825 ], [ 80.525, 10.835 ], [ 80.538, 10.832 ], [ 80.542, 10.819 ], [ 80.555, 10.817 ], [ 80.564, 10.826 ], [ 80.577, 10.824 ], [ 80.586, 10.834 ], [ 80.599, 10.831 ], [ 80.603, 10.818 ], [ 80.615, 10.815 ], [ 80.624, 10.825 ], [ 80.637, 10.822 ], [ 80.646, 10.832 ], [ 80.659, 10.829 ], [ 80.663, 10.816 ], [ 80.676, 10.814 ], [ 80.685, 10.823 ], [ 80.698, 10.821 ], [ 80.707, 10.831 ], [ 80.719, 10.828 ], [ 80.723, 10.815 ], [ 80.736, 10.812 ], [ 80.745, 10.822 ], [ 80.758, 10.819 ], [ 80.767, 10.829 ], [ 80.78, 10.826 ], [ 80.784, 10.813 ], [ 80.797, 10.81 ], [ 80.806, 10.82 ], [ 80.819, 10.817 ], [ 80.828, 10.827 ], [ 80.84, 10.825 ], [ 80.844, 10.812 ], [ 80.857, 10.809 ], [ 80.866, 10.819 ], [ 80.879, 10.816 ], [ 80.888, 10.826 ], [ 80.901, 10.823 ], [ 80.905, 10.81 ], [ 80.918, 10.807 ], [ 80.927, 10.817 ], [ 80.94, 10.814 ], [ 80.949, 10.824 ], [ 80.962, 10.821 ], [ 80.966, 10.809 ], [ 80.979, 10.806 ], [ 80.987, 10.816 ], [ 81.0, 10.813 ], [ 81.004, 10.8 ], [ 81.017, 10.797 ], [ 81.026, 10.807 ], [ 81.039, 10.804 ], [ 81.048, 10.814 ], [ 81.061, 10.811 ], [ 81.065, 10.798 ], [ 81.078, 10.795 ], [ 81.087, 10.805 ], [ 81.1, 10.803 ], [ 81.109, 10.812 ], [ 81.122, 10.81 ], [ 81.126, 10.797 ], [ 81.139, 10.794 ], [ 81.143, 10.781 ], [ 81.156, 10.778 ], [ 81.164, 10.788 ], [ 81.16, 10.801 ], [ 81.169, 10.811 ], [ 81.182, 10.808 ], [ 81.191, 10.818 ], [ 81.204, 10.815 ], [ 81.213, 10.825 ], [ 81.226, 10.822 ], [ 81.235, 10.832 ], [ 81.248, 10.829 ], [ 81.257, 10.839 ], [ 81.27, 10.836 ], [ 81.279, 10.846 ], [ 81.292, 10.843 ], [ 81.301, 10.853 ], [ 81.314, 10.85 ], [ 81.323, 10.86 ], [ 81.319, 10.873 ], [ 81.328, 10.883 ], [ 81.341, 10.88 ], [ 81.35, 10.89 ], [ 81.363, 10.887 ], [ 81.372, 10.897 ], [ 81.385, 10.894 ], [ 81.394, 10.904 ], [ 81.39, 10.917 ], [ 81.377, 10.92 ], [ 81.368, 10.91 ], [ 81.355, 10.913 ], [ 81.351, 10.926 ], [ 81.338, 10.929 ], [ 81.329, 10.919 ], [ 81.316, 10.921 ], [ 81.307, 10.912 ], [ 81.294, 10.914 ], [ 81.29, 10.927 ], [ 81.277, 10.93 ], [ 81.268, 10.92 ], [ 81.255, 10.923 ], [ 81.246, 10.913 ], [ 81.233, 10.916 ], [ 81.229, 10.929 ], [ 81.216, 10.932 ], [ 81.207, 10.922 ], [ 81.194, 10.925 ], [ 81.19, 10.938 ], [ 81.177, 10.94 ], [ 81.169, 10.93 ], [ 81.156, 10.933 ], [ 81.147, 10.923 ], [ 81.134, 10.926 ], [ 81.13, 10.939 ], [ 81.117, 10.942 ], [ 81.108, 10.932 ], [ 81.095, 10.935 ], [ 81.086, 10.925 ], [ 81.073, 10.928 ], [ 81.069, 10.941 ], [ 81.056, 10.944 ], [ 81.047, 10.934 ], [ 81.034, 10.937 ], [ 81.025, 10.927 ], [ 81.012, 10.929 ], [ 81.008, 10.942 ], [ 80.995, 10.945 ], [ 80.986, 10.935 ], [ 80.974, 10.938 ], [ 80.965, 10.928 ], [ 80.952, 10.931 ], [ 80.948, 10.944 ], [ 80.935, 10.947 ], [ 80.926, 10.937 ], [ 80.913, 10.94 ], [ 80.904, 10.93 ], [ 80.891, 10.933 ], [ 80.887, 10.945 ], [ 80.874, 10.948 ], [ 80.865, 10.938 ], [ 80.852, 10.941 ], [ 80.843, 10.931 ] ] ], [ [ [ 80.56, 11.649 ], [ 80.573, 11.646 ], [ 80.577, 11.633 ], [ 80.59, 11.63 ], [ 80.599, 11.64 ], [ 80.611, 11.637 ], [ 80.62, 11.647 ], [ 80.633, 11.645 ], [ 80.637, 11.632 ], [ 80.65, 11.629 ], [ 80.659, 11.639 ], [ 80.672, 11.636 ], [ 80.681, 11.646 ], [ 80.694, 11.643 ], [ 80.703, 11.653 ], [ 80.716, 11.65 ], [ 80.725, 11.66 ], [ 80.721, 11.673 ], [ 80.708, 11.676 ], [ 80.699, 11.666 ], [ 80.686, 11.669 ], [ 80.682, 11.682 ], [ 80.669, 11.684 ], [ 80.665, 11.697 ], [ 80.652, 11.7 ], [ 80.643, 11.69 ], [ 80.63, 11.693 ], [ 80.626, 11.706 ], [ 80.613, 11.708 ], [ 80.609, 11.721 ], [ 80.596, 11.724 ], [ 80.588, 11.714 ], [ 80.575, 11.717 ], [ 80.571, 11.73 ], [ 80.558, 11.732 ], [ 80.554, 11.745 ], [ 80.541, 11.748 ], [ 80.532, 11.738 ], [ 80.519, 11.741 ], [ 80.515, 11.754 ], [ 80.502, 11.756 ], [ 80.493, 11.746 ], [ 80.48, 11.749 ], [ 80.476, 11.762 ], [ 80.463, 11.765 ], [ 80.459, 11.778 ], [ 80.447, 11.78 ], [ 80.438, 11.77 ], [ 80.425, 11.773 ], [ 80.421, 11.786 ], [ 80.408, 11.789 ], [ 80.404, 11.801 ], [ 80.391, 11.804 ], [ 80.382, 11.794 ], [ 80.369, 11.797 ], [ 80.365, 11.81 ], [ 80.352, 11.813 ], [ 80.348, 11.825 ], [ 80.335, 11.828 ], [ 80.326, 11.818 ], [ 80.314, 11.821 ], [ 80.31, 11.834 ], [ 80.297, 11.837 ], [ 80.293, 11.849 ], [ 80.28, 11.852 ], [ 80.276, 11.865 ], [ 80.263, 11.868 ], [ 80.254, 11.858 ], [ 80.241, 11.86 ], [ 80.237, 11.873 ], [ 80.224, 11.876 ], [ 80.22, 11.889 ], [ 80.207, 11.891 ], [ 80.199, 11.881 ], [ 80.186, 11.884 ], [ 80.182, 11.897 ], [ 80.169, 11.9 ], [ 80.165, 11.912 ], [ 80.152, 11.915 ], [ 80.148, 11.928 ], [ 80.135, 11.931 ], [ 80.126, 11.921 ], [ 80.113, 11.923 ], [ 80.109, 11.936 ], [ 80.097, 11.939 ], [ 80.093, 11.952 ], [ 80.08, 11.954 ], [ 80.076, 11.967 ], [ 80.063, 11.97 ], [ 80.059, 11.983 ], [ 80.046, 11.985 ], [ 80.037, 11.975 ], [ 80.024, 11.978 ], [ 80.015, 11.968 ], [ 80.019, 11.955 ], [ 80.032, 11.953 ], [ 80.036, 11.94 ], [ 80.049, 11.937 ], [ 80.053, 11.925 ], [ 80.066, 11.922 ], [ 80.075, 11.932 ], [ 80.088, 11.929 ], [ 80.092, 11.916 ], [ 80.105, 11.913 ], [ 80.109, 11.901 ], [ 80.1, 11.891 ], [ 80.087, 11.894 ], [ 80.083, 11.906 ], [ 80.07, 11.909 ], [ 80.061, 11.899 ], [ 80.048, 11.902 ], [ 80.044, 11.915 ], [ 80.031, 11.917 ], [ 80.022, 11.907 ], [ 80.01, 11.91 ], [ 80.001, 11.9 ], [ 80.005, 11.887 ], [ 79.996, 11.878 ], [ 80.0, 11.865 ], [ 79.991, 11.855 ], [ 79.995, 11.842 ], [ 79.986, 11.832 ], [ 79.99, 11.819 ], [ 79.981, 11.809 ], [ 79.985, 11.797 ], [ 79.976, 11.787 ], [ 79.98, 11.774 ], [ 79.993, 11.771 ], [ 79.997, 11.759 ], [ 80.01, 11.756 ], [ 80.019, 11.766 ], [ 80.032, 11.763 ], [ 80.036, 11.75 ], [ 80.049, 11.748 ], [ 80.058, 11.757 ], [ 80.07, 11.755 ], [ 80.074, 11.742 ], [ 80.087, 11.739 ], [ 80.096, 11.749 ], [ 80.109, 11.746 ], [ 80.113, 11.734 ], [ 80.126, 11.731 ], [ 80.135, 11.741 ], [ 80.148, 11.738 ], [ 80.152, 11.725 ], [ 80.164, 11.723 ], [ 80.173, 11.732 ], [ 80.186, 11.73 ], [ 80.19, 11.717 ], [ 80.203, 11.714 ], [ 80.212, 11.724 ], [ 80.225, 11.721 ], [ 80.229, 11.709 ], [ 80.242, 11.706 ], [ 80.25, 11.716 ], [ 80.263, 11.713 ], [ 80.267, 11.7 ], [ 80.28, 11.697 ], [ 80.289, 11.707 ], [ 80.302, 11.705 ], [ 80.306, 11.692 ], [ 80.319, 11.689 ], [ 80.328, 11.699 ], [ 80.341, 11.696 ], [ 80.345, 11.684 ], [ 80.357, 11.681 ], [ 80.366, 11.691 ], [ 80.379, 11.688 ], [ 80.383, 11.675 ], [ 80.396, 11.672 ], [ 80.405, 11.682 ], [ 80.418, 11.68 ], [ 80.422, 11.667 ], [ 80.435, 11.664 ], [ 80.439, 11.651 ], [ 80.452, 11.648 ], [ 80.461, 11.658 ], [ 80.473, 11.656 ], [ 80.477, 11.643 ], [ 80.49, 11.64 ], [ 80.499, 11.65 ], [ 80.512, 11.647 ], [ 80.516, 11.634 ], [ 80.529, 11.632 ], [ 80.538, 11.642 ], [ 80.551, 11.639 ], [ 80.56, 11.649 ] ], [ [ 80.125, 11.885 ], [ 80.121, 11.898 ], [ 80.13, 11.908 ], [ 80.143, 11.905 ], [ 80.147, 11.892 ], [ 80.138, 11.883 ], [ 80.125, 11.885 ] ] ] ] } }
]
}
