{
"type": "FeatureCollection",
"name": "Punjab",
"crs": { "type": "name", "properties": { "name": "urn:ogc:def:crs:OGC:1.3:CRS84" } },
"features": [
{ "type": "Feature", "properties": { "POLYGON.ID": 12.0, "subregion": "India--Punjab_CL25603", "FILTER": "Punjab", "POLYGON": "India--Punjab_CL25603", "COUNTY": "spl_region", "STATE": "Punjab", "OWNER": null }, "geometry": { "type": "MultiPolygon", "coordinates": [ [ [ [ 75.271, 29.55 ], [ 75.279, 29.561 ], [ 75.295, 29.56 ], [ 75.304, 29.57 ], [ 75.319, 29.569 ], [ 75.328, 29.58 ], [ 75.321, 29.591 ], [ 75.306, 29.592 ], [ 75.3, 29.604 ], [ 75.309, 29.614 ], [ 75.302, 29.626 ], [ 75.311, 29.637 ], [ 75.327, 29.635 ], [ 75.336, 29.646 ], [ 75.329, 29.658 ], [ 75.338, 29.668 ], [ 75.353, 29.667 ], [ 75.362, 29.677 ], [ 75.356, 29.689 ], [ 75.365, 29.7 ], [ 75.38, 29.698 ], [ 75.389, 29.709 ], [ 75.383, 29.721 ], [ 75.392, 29.731 ], [ 75.407, 29.73 ], [ 75.416, 29.74 ], [ 75.41, 29.752 ], [ 75.419, 29.763 ], [ 75.412, 29.774 ], [ 75.421, 29.785 ], [ 75.437, 29.784 ], [ 75.446, 29.794 ], [ 75.461, 29.793 ], [ 75.47, 29.803 ], [ 75.485, 29.802 ], [ 75.491, 29.791 ], [ 75.507, 29.79 ], [ 75.513, 29.778 ], [ 75.528, 29.777 ], [ 75.535, 29.765 ], [ 75.55, 29.764 ], [ 75.559, 29.775 ], [ 75.574, 29.774 ], [ 75.58, 29.762 ], [ 75.571, 29.752 ], [ 75.578, 29.74 ], [ 75.593, 29.739 ], [ 75.602, 29.749 ], [ 75.617, 29.748 ], [ 75.626, 29.759 ], [ 75.642, 29.758 ], [ 75.651, 29.768 ], [ 75.666, 29.767 ], [ 75.675, 29.777 ], [ 75.69, 29.776 ], [ 75.696, 29.765 ], [ 75.712, 29.764 ], [ 75.721, 29.774 ], [ 75.714, 29.786 ], [ 75.723, 29.796 ], [ 75.717, 29.808 ], [ 75.726, 29.818 ], [ 75.741, 29.817 ], [ 75.748, 29.805 ], [ 75.763, 29.804 ], [ 75.772, 29.815 ], [ 75.787, 29.814 ], [ 75.794, 29.802 ], [ 75.809, 29.801 ], [ 75.818, 29.811 ], [ 75.833, 29.81 ], [ 75.839, 29.799 ], [ 75.83, 29.788 ], [ 75.837, 29.777 ], [ 75.852, 29.775 ], [ 75.858, 29.764 ], [ 75.873, 29.763 ], [ 75.88, 29.751 ], [ 75.895, 29.75 ], [ 75.901, 29.738 ], [ 75.916, 29.737 ], [ 75.923, 29.726 ], [ 75.938, 29.724 ], [ 75.947, 29.735 ], [ 75.962, 29.734 ], [ 75.968, 29.722 ], [ 75.984, 29.721 ], [ 75.993, 29.731 ], [ 76.008, 29.73 ], [ 76.017, 29.741 ], [ 76.032, 29.739 ], [ 76.041, 29.75 ], [ 76.056, 29.749 ], [ 76.065, 29.759 ], [ 76.059, 29.771 ], [ 76.068, 29.781 ], [ 76.084, 29.78 ], [ 76.093, 29.791 ], [ 76.086, 29.802 ], [ 76.095, 29.813 ], [ 76.111, 29.811 ], [ 76.117, 29.8 ], [ 76.132, 29.799 ], [ 76.141, 29.809 ], [ 76.157, 29.808 ], [ 76.166, 29.818 ], [ 76.181, 29.817 ], [ 76.19, 29.828 ], [ 76.184, 29.839 ], [ 76.193, 29.85 ], [ 76.208, 29.849 ], [ 76.214, 29.837 ], [ 76.23, 29.836 ], [ 76.239, 29.846 ], [ 76.232, 29.858 ], [ 76.242, 29.868 ], [ 76.235, 29.88 ], [ 76.22, 29.881 ], [ 76.214, 29.893 ], [ 76.199, 29.894 ], [ 76.192, 29.906 ], [ 76.177, 29.907 ], [ 76.171, 29.918 ], [ 76.18, 29.929 ], [ 76.174, 29.941 ], [ 76.183, 29.951 ], [ 76.198, 29.95 ], [ 76.207, 29.96 ], [ 76.201, 29.972 ], [ 76.21, 29.982 ], [ 76.204, 29.994 ], [ 76.213, 30.005 ], [ 76.207, 30.016 ], [ 76.216, 30.027 ], [ 76.21, 30.038 ], [ 76.219, 30.049 ], [ 76.234, 30.048 ], [ 76.243, 30.058 ], [ 76.237, 30.07 ], [ 76.246, 30.08 ], [ 76.24, 30.092 ], [ 76.249, 30.102 ], [ 76.243, 30.114 ], [ 76.228, 30.115 ], [ 76.222, 30.127 ], [ 76.206, 30.128 ], [ 76.2, 30.14 ], [ 76.209, 30.15 ], [ 76.224, 30.149 ], [ 76.231, 30.137 ], [ 76.246, 30.136 ], [ 76.252, 30.124 ], [ 76.268, 30.123 ], [ 76.274, 30.112 ], [ 76.289, 30.11 ], [ 76.295, 30.099 ], [ 76.311, 30.098 ], [ 76.32, 30.108 ], [ 76.335, 30.107 ], [ 76.344, 30.117 ], [ 76.338, 30.129 ], [ 76.347, 30.139 ], [ 76.362, 30.138 ], [ 76.369, 30.127 ], [ 76.384, 30.125 ], [ 76.393, 30.136 ], [ 76.387, 30.147 ], [ 76.396, 30.158 ], [ 76.39, 30.17 ], [ 76.399, 30.18 ], [ 76.414, 30.179 ], [ 76.424, 30.189 ], [ 76.439, 30.188 ], [ 76.445, 30.176 ], [ 76.436, 30.166 ], [ 76.442, 30.154 ], [ 76.433, 30.144 ], [ 76.439, 30.132 ], [ 76.454, 30.131 ], [ 76.461, 30.119 ], [ 76.451, 30.109 ], [ 76.458, 30.097 ], [ 76.473, 30.096 ], [ 76.482, 30.106 ], [ 76.497, 30.105 ], [ 76.504, 30.093 ], [ 76.519, 30.092 ], [ 76.525, 30.08 ], [ 76.54, 30.079 ], [ 76.549, 30.09 ], [ 76.565, 30.088 ], [ 76.574, 30.099 ], [ 76.568, 30.111 ], [ 76.577, 30.121 ], [ 76.592, 30.12 ], [ 76.601, 30.13 ], [ 76.617, 30.129 ], [ 76.626, 30.139 ], [ 76.641, 30.138 ], [ 76.65, 30.149 ], [ 76.644, 30.16 ], [ 76.629, 30.162 ], [ 76.623, 30.173 ], [ 76.608, 30.175 ], [ 76.601, 30.186 ], [ 76.611, 30.197 ], [ 76.604, 30.208 ], [ 76.614, 30.219 ], [ 76.607, 30.231 ], [ 76.617, 30.241 ], [ 76.611, 30.253 ], [ 76.595, 30.254 ], [ 76.586, 30.243 ], [ 76.571, 30.245 ], [ 76.565, 30.256 ], [ 76.574, 30.267 ], [ 76.589, 30.266 ], [ 76.598, 30.276 ], [ 76.614, 30.275 ], [ 76.623, 30.285 ], [ 76.638, 30.284 ], [ 76.647, 30.295 ], [ 76.663, 30.293 ], [ 76.672, 30.304 ], [ 76.666, 30.315 ], [ 76.675, 30.326 ], [ 76.69, 30.325 ], [ 76.7, 30.335 ], [ 76.715, 30.334 ], [ 76.724, 30.344 ], [ 76.74, 30.343 ], [ 76.749, 30.354 ], [ 76.743, 30.365 ], [ 76.727, 30.367 ], [ 76.721, 30.378 ], [ 76.73, 30.389 ], [ 76.724, 30.4 ], [ 76.733, 30.411 ], [ 76.727, 30.423 ], [ 76.737, 30.433 ], [ 76.752, 30.432 ], [ 76.761, 30.442 ], [ 76.777, 30.441 ], [ 76.783, 30.429 ], [ 76.798, 30.428 ], [ 76.804, 30.416 ], [ 76.82, 30.415 ], [ 76.829, 30.425 ], [ 76.844, 30.424 ], [ 76.85, 30.412 ], [ 76.866, 30.411 ], [ 76.872, 30.399 ], [ 76.887, 30.398 ], [ 76.893, 30.386 ], [ 76.884, 30.376 ], [ 76.89, 30.364 ], [ 76.905, 30.363 ], [ 76.915, 30.373 ], [ 76.93, 30.372 ], [ 76.939, 30.383 ], [ 76.933, 30.394 ], [ 76.918, 30.396 ], [ 76.912, 30.407 ], [ 76.921, 30.418 ], [ 76.915, 30.43 ], [ 76.9, 30.431 ], [ 76.893, 30.443 ], [ 76.903, 30.453 ], [ 76.897, 30.465 ], [ 76.906, 30.475 ], [ 76.9, 30.487 ], [ 76.909, 30.497 ], [ 76.903, 30.509 ], [ 76.912, 30.52 ], [ 76.906, 30.531 ], [ 76.915, 30.542 ], [ 76.909, 30.554 ], [ 76.919, 30.564 ], [ 76.912, 30.576 ], [ 76.922, 30.586 ], [ 76.916, 30.598 ], [ 76.925, 30.608 ], [ 76.919, 30.62 ], [ 76.903, 30.621 ], [ 76.897, 30.633 ], [ 76.882, 30.635 ], [ 76.876, 30.646 ], [ 76.86, 30.648 ], [ 76.854, 30.659 ], [ 76.839, 30.661 ], [ 76.833, 30.672 ], [ 76.817, 30.674 ], [ 76.808, 30.663 ], [ 76.792, 30.664 ], [ 76.786, 30.676 ], [ 76.771, 30.678 ], [ 76.765, 30.689 ], [ 76.749, 30.691 ], [ 76.743, 30.702 ], [ 76.728, 30.704 ], [ 76.721, 30.715 ], [ 76.731, 30.726 ], [ 76.725, 30.738 ], [ 76.709, 30.739 ], [ 76.703, 30.751 ], [ 76.712, 30.761 ], [ 76.728, 30.76 ], [ 76.737, 30.77 ], [ 76.752, 30.769 ], [ 76.762, 30.78 ], [ 76.756, 30.791 ], [ 76.765, 30.802 ], [ 76.759, 30.814 ], [ 76.768, 30.824 ], [ 76.762, 30.836 ], [ 76.746, 30.837 ], [ 76.74, 30.849 ], [ 76.725, 30.85 ], [ 76.719, 30.862 ], [ 76.703, 30.863 ], [ 76.697, 30.875 ], [ 76.706, 30.886 ], [ 76.7, 30.897 ], [ 76.684, 30.899 ], [ 76.678, 30.91 ], [ 76.688, 30.921 ], [ 76.681, 30.933 ], [ 76.666, 30.934 ], [ 76.66, 30.946 ], [ 76.644, 30.947 ], [ 76.638, 30.959 ], [ 76.623, 30.96 ], [ 76.616, 30.972 ], [ 76.601, 30.973 ], [ 76.591, 30.963 ], [ 76.576, 30.964 ], [ 76.567, 30.953 ], [ 76.551, 30.955 ], [ 76.545, 30.966 ], [ 76.529, 30.968 ], [ 76.523, 30.979 ], [ 76.508, 30.981 ], [ 76.498, 30.97 ], [ 76.483, 30.971 ], [ 76.477, 30.983 ], [ 76.461, 30.984 ], [ 76.455, 30.996 ], [ 76.439, 30.997 ], [ 76.433, 31.009 ], [ 76.442, 31.02 ], [ 76.436, 31.032 ], [ 76.421, 31.033 ], [ 76.414, 31.045 ], [ 76.399, 31.046 ], [ 76.393, 31.058 ], [ 76.402, 31.068 ], [ 76.396, 31.08 ], [ 76.405, 31.091 ], [ 76.399, 31.102 ], [ 76.383, 31.104 ], [ 76.377, 31.115 ], [ 76.361, 31.117 ], [ 76.355, 31.128 ], [ 76.364, 31.139 ], [ 76.358, 31.151 ], [ 76.342, 31.152 ], [ 76.336, 31.164 ], [ 76.345, 31.174 ], [ 76.339, 31.186 ], [ 76.324, 31.187 ], [ 76.317, 31.199 ], [ 76.302, 31.2 ], [ 76.295, 31.212 ], [ 76.28, 31.213 ], [ 76.274, 31.225 ], [ 76.258, 31.227 ], [ 76.252, 31.238 ], [ 76.236, 31.24 ], [ 76.227, 31.229 ], [ 76.211, 31.23 ], [ 76.205, 31.242 ], [ 76.189, 31.243 ], [ 76.183, 31.255 ], [ 76.192, 31.266 ], [ 76.186, 31.277 ], [ 76.17, 31.279 ], [ 76.164, 31.29 ], [ 76.173, 31.301 ], [ 76.167, 31.313 ], [ 76.176, 31.323 ], [ 76.17, 31.335 ], [ 76.154, 31.336 ], [ 76.148, 31.348 ], [ 76.157, 31.359 ], [ 76.151, 31.371 ], [ 76.135, 31.372 ], [ 76.129, 31.384 ], [ 76.113, 31.385 ], [ 76.107, 31.397 ], [ 76.116, 31.407 ], [ 76.11, 31.419 ], [ 76.094, 31.42 ], [ 76.088, 31.432 ], [ 76.097, 31.443 ], [ 76.091, 31.455 ], [ 76.075, 31.456 ], [ 76.069, 31.468 ], [ 76.078, 31.478 ], [ 76.072, 31.49 ], [ 76.056, 31.491 ], [ 76.05, 31.503 ], [ 76.034, 31.504 ], [ 76.028, 31.516 ], [ 76.012, 31.517 ], [ 76.006, 31.529 ], [ 76.015, 31.54 ], [ 76.009, 31.552 ], [ 75.993, 31.553 ], [ 75.986, 31.565 ], [ 75.971, 31.566 ], [ 75.964, 31.578 ], [ 75.974, 31.588 ], [ 75.967, 31.6 ], [ 75.952, 31.601 ], [ 75.945, 31.613 ], [ 75.93, 31.615 ], [ 75.923, 31.626 ], [ 75.932, 31.637 ], [ 75.926, 31.649 ], [ 75.91, 31.65 ], [ 75.904, 31.662 ], [ 75.913, 31.673 ], [ 75.907, 31.684 ], [ 75.891, 31.686 ], [ 75.885, 31.697 ], [ 75.894, 31.708 ], [ 75.888, 31.72 ], [ 75.872, 31.721 ], [ 75.865, 31.733 ], [ 75.85, 31.734 ], [ 75.843, 31.746 ], [ 75.852, 31.757 ], [ 75.846, 31.768 ], [ 75.855, 31.779 ], [ 75.849, 31.791 ], [ 75.833, 31.792 ], [ 75.827, 31.804 ], [ 75.811, 31.805 ], [ 75.805, 31.817 ], [ 75.789, 31.818 ], [ 75.782, 31.83 ], [ 75.792, 31.841 ], [ 75.785, 31.853 ], [ 75.769, 31.854 ], [ 75.763, 31.866 ], [ 75.772, 31.876 ], [ 75.766, 31.888 ], [ 75.75, 31.889 ], [ 75.744, 31.901 ], [ 75.753, 31.912 ], [ 75.746, 31.924 ], [ 75.731, 31.925 ], [ 75.724, 31.937 ], [ 75.733, 31.948 ], [ 75.749, 31.946 ], [ 75.756, 31.935 ], [ 75.772, 31.933 ], [ 75.781, 31.944 ], [ 75.797, 31.943 ], [ 75.803, 31.931 ], [ 75.819, 31.93 ], [ 75.828, 31.94 ], [ 75.844, 31.939 ], [ 75.853, 31.95 ], [ 75.869, 31.949 ], [ 75.878, 31.959 ], [ 75.872, 31.971 ], [ 75.856, 31.972 ], [ 75.85, 31.984 ], [ 75.834, 31.986 ], [ 75.825, 31.975 ], [ 75.809, 31.976 ], [ 75.802, 31.988 ], [ 75.787, 31.989 ], [ 75.78, 32.001 ], [ 75.764, 32.002 ], [ 75.758, 32.014 ], [ 75.767, 32.025 ], [ 75.761, 32.037 ], [ 75.745, 32.038 ], [ 75.736, 32.027 ], [ 75.72, 32.028 ], [ 75.713, 32.04 ], [ 75.697, 32.041 ], [ 75.691, 32.053 ], [ 75.675, 32.054 ], [ 75.669, 32.066 ], [ 75.653, 32.067 ], [ 75.646, 32.079 ], [ 75.631, 32.08 ], [ 75.621, 32.07 ], [ 75.605, 32.071 ], [ 75.599, 32.083 ], [ 75.608, 32.094 ], [ 75.624, 32.092 ], [ 75.633, 32.103 ], [ 75.627, 32.115 ], [ 75.636, 32.126 ], [ 75.652, 32.124 ], [ 75.661, 32.135 ], [ 75.655, 32.147 ], [ 75.664, 32.158 ], [ 75.658, 32.17 ], [ 75.667, 32.18 ], [ 75.66, 32.192 ], [ 75.645, 32.193 ], [ 75.638, 32.205 ], [ 75.647, 32.216 ], [ 75.641, 32.228 ], [ 75.625, 32.229 ], [ 75.618, 32.241 ], [ 75.628, 32.252 ], [ 75.644, 32.251 ], [ 75.653, 32.261 ], [ 75.669, 32.26 ], [ 75.678, 32.271 ], [ 75.694, 32.27 ], [ 75.703, 32.28 ], [ 75.719, 32.279 ], [ 75.726, 32.267 ], [ 75.742, 32.266 ], [ 75.751, 32.277 ], [ 75.767, 32.276 ], [ 75.776, 32.286 ], [ 75.77, 32.298 ], [ 75.754, 32.299 ], [ 75.747, 32.311 ], [ 75.732, 32.312 ], [ 75.725, 32.324 ], [ 75.709, 32.326 ], [ 75.703, 32.337 ], [ 75.687, 32.339 ], [ 75.68, 32.351 ], [ 75.69, 32.361 ], [ 75.683, 32.373 ], [ 75.667, 32.374 ], [ 75.661, 32.386 ], [ 75.645, 32.387 ], [ 75.635, 32.377 ], [ 75.619, 32.378 ], [ 75.61, 32.367 ], [ 75.594, 32.368 ], [ 75.585, 32.358 ], [ 75.569, 32.359 ], [ 75.56, 32.348 ], [ 75.544, 32.349 ], [ 75.534, 32.339 ], [ 75.541, 32.327 ], [ 75.557, 32.325 ], [ 75.563, 32.314 ], [ 75.554, 32.303 ], [ 75.538, 32.304 ], [ 75.529, 32.293 ], [ 75.535, 32.281 ], [ 75.526, 32.271 ], [ 75.51, 32.272 ], [ 75.504, 32.284 ], [ 75.513, 32.294 ], [ 75.506, 32.306 ], [ 75.491, 32.307 ], [ 75.484, 32.319 ], [ 75.493, 32.33 ], [ 75.487, 32.342 ], [ 75.471, 32.343 ], [ 75.462, 32.332 ], [ 75.446, 32.334 ], [ 75.436, 32.323 ], [ 75.42, 32.324 ], [ 75.411, 32.313 ], [ 75.395, 32.314 ], [ 75.389, 32.326 ], [ 75.373, 32.327 ], [ 75.366, 32.339 ], [ 75.35, 32.34 ], [ 75.341, 32.33 ], [ 75.325, 32.331 ], [ 75.316, 32.32 ], [ 75.322, 32.308 ], [ 75.313, 32.297 ], [ 75.32, 32.286 ], [ 75.336, 32.284 ], [ 75.342, 32.273 ], [ 75.358, 32.271 ], [ 75.365, 32.26 ], [ 75.355, 32.249 ], [ 75.362, 32.237 ], [ 75.353, 32.226 ], [ 75.337, 32.227 ], [ 75.327, 32.217 ], [ 75.312, 32.218 ], [ 75.302, 32.207 ], [ 75.309, 32.195 ], [ 75.3, 32.184 ], [ 75.306, 32.172 ], [ 75.297, 32.162 ], [ 75.281, 32.163 ], [ 75.272, 32.152 ], [ 75.278, 32.14 ], [ 75.269, 32.13 ], [ 75.253, 32.131 ], [ 75.244, 32.12 ], [ 75.228, 32.121 ], [ 75.222, 32.133 ], [ 75.206, 32.134 ], [ 75.196, 32.123 ], [ 75.203, 32.111 ], [ 75.194, 32.101 ], [ 75.178, 32.102 ], [ 75.169, 32.091 ], [ 75.153, 32.092 ], [ 75.144, 32.081 ], [ 75.128, 32.083 ], [ 75.121, 32.094 ], [ 75.105, 32.096 ], [ 75.096, 32.085 ], [ 75.08, 32.086 ], [ 75.071, 32.075 ], [ 75.055, 32.076 ], [ 75.046, 32.065 ], [ 75.03, 32.067 ], [ 75.021, 32.056 ], [ 75.005, 32.057 ], [ 74.996, 32.046 ], [ 74.98, 32.047 ], [ 74.973, 32.059 ], [ 74.958, 32.06 ], [ 74.951, 32.072 ], [ 74.935, 32.073 ], [ 74.928, 32.085 ], [ 74.913, 32.086 ], [ 74.903, 32.075 ], [ 74.888, 32.076 ], [ 74.878, 32.066 ], [ 74.862, 32.067 ], [ 74.853, 32.056 ], [ 74.86, 32.044 ], [ 74.851, 32.033 ], [ 74.835, 32.034 ], [ 74.826, 32.024 ], [ 74.832, 32.012 ], [ 74.823, 32.001 ], [ 74.83, 31.989 ], [ 74.821, 31.978 ], [ 74.805, 31.98 ], [ 74.796, 31.969 ], [ 74.78, 31.97 ], [ 74.771, 31.959 ], [ 74.755, 31.96 ], [ 74.746, 31.949 ], [ 74.73, 31.95 ], [ 74.723, 31.962 ], [ 74.707, 31.963 ], [ 74.698, 31.953 ], [ 74.705, 31.941 ], [ 74.696, 31.93 ], [ 74.68, 31.931 ], [ 74.673, 31.943 ], [ 74.657, 31.944 ], [ 74.648, 31.933 ], [ 74.655, 31.921 ], [ 74.646, 31.911 ], [ 74.63, 31.912 ], [ 74.621, 31.901 ], [ 74.605, 31.902 ], [ 74.596, 31.891 ], [ 74.603, 31.879 ], [ 74.593, 31.868 ], [ 74.578, 31.87 ], [ 74.569, 31.859 ], [ 74.575, 31.847 ], [ 74.566, 31.836 ], [ 74.55, 31.837 ], [ 74.541, 31.826 ], [ 74.548, 31.815 ], [ 74.539, 31.804 ], [ 74.545, 31.792 ], [ 74.536, 31.781 ], [ 74.543, 31.77 ], [ 74.534, 31.759 ], [ 74.518, 31.76 ], [ 74.509, 31.749 ], [ 74.493, 31.75 ], [ 74.484, 31.739 ], [ 74.491, 31.728 ], [ 74.482, 31.717 ], [ 74.488, 31.705 ], [ 74.479, 31.694 ], [ 74.486, 31.682 ], [ 74.502, 31.681 ], [ 74.508, 31.67 ], [ 74.524, 31.669 ], [ 74.531, 31.657 ], [ 74.522, 31.646 ], [ 74.528, 31.634 ], [ 74.544, 31.633 ], [ 74.551, 31.621 ], [ 74.542, 31.611 ], [ 74.548, 31.599 ], [ 74.564, 31.598 ], [ 74.571, 31.586 ], [ 74.562, 31.575 ], [ 74.568, 31.564 ], [ 74.584, 31.563 ], [ 74.591, 31.551 ], [ 74.607, 31.55 ], [ 74.613, 31.538 ], [ 74.604, 31.527 ], [ 74.588, 31.528 ], [ 74.579, 31.518 ], [ 74.564, 31.519 ], [ 74.555, 31.508 ], [ 74.561, 31.496 ], [ 74.577, 31.495 ], [ 74.584, 31.483 ], [ 74.599, 31.482 ], [ 74.606, 31.47 ], [ 74.622, 31.469 ], [ 74.628, 31.458 ], [ 74.619, 31.447 ], [ 74.626, 31.435 ], [ 74.617, 31.424 ], [ 74.601, 31.426 ], [ 74.592, 31.415 ], [ 74.576, 31.416 ], [ 74.567, 31.405 ], [ 74.574, 31.393 ], [ 74.565, 31.383 ], [ 74.549, 31.384 ], [ 74.54, 31.373 ], [ 74.547, 31.361 ], [ 74.538, 31.35 ], [ 74.522, 31.351 ], [ 74.513, 31.341 ], [ 74.52, 31.329 ], [ 74.511, 31.318 ], [ 74.517, 31.307 ], [ 74.508, 31.296 ], [ 74.515, 31.284 ], [ 74.506, 31.273 ], [ 74.512, 31.262 ], [ 74.503, 31.251 ], [ 74.51, 31.239 ], [ 74.501, 31.228 ], [ 74.508, 31.217 ], [ 74.499, 31.206 ], [ 74.505, 31.194 ], [ 74.496, 31.184 ], [ 74.503, 31.172 ], [ 74.494, 31.161 ], [ 74.5, 31.149 ], [ 74.491, 31.139 ], [ 74.498, 31.127 ], [ 74.514, 31.126 ], [ 74.52, 31.114 ], [ 74.536, 31.113 ], [ 74.543, 31.101 ], [ 74.534, 31.091 ], [ 74.54, 31.079 ], [ 74.556, 31.078 ], [ 74.562, 31.066 ], [ 74.553, 31.056 ], [ 74.538, 31.057 ], [ 74.529, 31.046 ], [ 74.535, 31.034 ], [ 74.526, 31.024 ], [ 74.533, 31.012 ], [ 74.524, 31.001 ], [ 74.508, 31.002 ], [ 74.499, 30.991 ], [ 74.484, 30.992 ], [ 74.475, 30.982 ], [ 74.459, 30.983 ], [ 74.45, 30.972 ], [ 74.435, 30.973 ], [ 74.426, 30.962 ], [ 74.41, 30.963 ], [ 74.401, 30.953 ], [ 74.408, 30.941 ], [ 74.399, 30.93 ], [ 74.383, 30.931 ], [ 74.374, 30.921 ], [ 74.381, 30.909 ], [ 74.372, 30.898 ], [ 74.356, 30.899 ], [ 74.347, 30.889 ], [ 74.354, 30.877 ], [ 74.345, 30.866 ], [ 74.329, 30.867 ], [ 74.32, 30.856 ], [ 74.305, 30.857 ], [ 74.296, 30.847 ], [ 74.303, 30.835 ], [ 74.294, 30.824 ], [ 74.3, 30.813 ], [ 74.291, 30.802 ], [ 74.276, 30.803 ], [ 74.267, 30.792 ], [ 74.251, 30.793 ], [ 74.242, 30.783 ], [ 74.249, 30.771 ], [ 74.24, 30.76 ], [ 74.247, 30.749 ], [ 74.238, 30.738 ], [ 74.222, 30.739 ], [ 74.213, 30.728 ], [ 74.22, 30.716 ], [ 74.211, 30.706 ], [ 74.195, 30.707 ], [ 74.187, 30.696 ], [ 74.193, 30.684 ], [ 74.184, 30.674 ], [ 74.169, 30.675 ], [ 74.16, 30.664 ], [ 74.144, 30.665 ], [ 74.135, 30.654 ], [ 74.12, 30.655 ], [ 74.111, 30.645 ], [ 74.118, 30.633 ], [ 74.109, 30.622 ], [ 74.093, 30.623 ], [ 74.084, 30.612 ], [ 74.091, 30.601 ], [ 74.082, 30.59 ], [ 74.089, 30.579 ], [ 74.08, 30.568 ], [ 74.064, 30.569 ], [ 74.056, 30.558 ], [ 74.04, 30.559 ], [ 74.031, 30.548 ], [ 74.016, 30.549 ], [ 74.007, 30.539 ], [ 73.991, 30.54 ], [ 73.982, 30.529 ], [ 73.989, 30.517 ], [ 73.98, 30.507 ], [ 73.965, 30.508 ], [ 73.956, 30.497 ], [ 73.94, 30.498 ], [ 73.932, 30.487 ], [ 73.916, 30.488 ], [ 73.907, 30.477 ], [ 73.914, 30.466 ], [ 73.905, 30.455 ], [ 73.912, 30.443 ], [ 73.903, 30.433 ], [ 73.91, 30.421 ], [ 73.901, 30.41 ], [ 73.907, 30.399 ], [ 73.899, 30.388 ], [ 73.883, 30.389 ], [ 73.874, 30.378 ], [ 73.881, 30.367 ], [ 73.872, 30.356 ], [ 73.879, 30.345 ], [ 73.894, 30.344 ], [ 73.901, 30.332 ], [ 73.916, 30.331 ], [ 73.923, 30.319 ], [ 73.914, 30.309 ], [ 73.921, 30.297 ], [ 73.936, 30.296 ], [ 73.943, 30.285 ], [ 73.934, 30.274 ], [ 73.941, 30.262 ], [ 73.956, 30.261 ], [ 73.963, 30.25 ], [ 73.954, 30.239 ], [ 73.961, 30.228 ], [ 73.952, 30.217 ], [ 73.959, 30.205 ], [ 73.974, 30.204 ], [ 73.981, 30.193 ], [ 73.972, 30.182 ], [ 73.978, 30.171 ], [ 73.97, 30.16 ], [ 73.976, 30.148 ], [ 73.968, 30.138 ], [ 73.974, 30.126 ], [ 73.965, 30.115 ], [ 73.95, 30.116 ], [ 73.941, 30.106 ], [ 73.948, 30.094 ], [ 73.939, 30.084 ], [ 73.946, 30.072 ], [ 73.937, 30.061 ], [ 73.921, 30.062 ], [ 73.913, 30.052 ], [ 73.897, 30.053 ], [ 73.888, 30.042 ], [ 73.895, 30.03 ], [ 73.886, 30.02 ], [ 73.893, 30.008 ], [ 73.884, 29.997 ], [ 73.891, 29.986 ], [ 73.906, 29.985 ], [ 73.913, 29.973 ], [ 73.928, 29.972 ], [ 73.937, 29.983 ], [ 73.952, 29.982 ], [ 73.959, 29.971 ], [ 73.974, 29.97 ], [ 73.983, 29.98 ], [ 73.998, 29.979 ], [ 74.005, 29.968 ], [ 74.02, 29.967 ], [ 74.029, 29.978 ], [ 74.045, 29.977 ], [ 74.051, 29.965 ], [ 74.067, 29.964 ], [ 74.075, 29.975 ], [ 74.091, 29.974 ], [ 74.097, 29.962 ], [ 74.113, 29.961 ], [ 74.121, 29.972 ], [ 74.137, 29.971 ], [ 74.143, 29.959 ], [ 74.159, 29.958 ], [ 74.168, 29.969 ], [ 74.183, 29.968 ], [ 74.19, 29.956 ], [ 74.205, 29.956 ], [ 74.214, 29.966 ], [ 74.229, 29.965 ], [ 74.236, 29.954 ], [ 74.251, 29.953 ], [ 74.26, 29.963 ], [ 74.275, 29.962 ], [ 74.282, 29.951 ], [ 74.297, 29.95 ], [ 74.306, 29.96 ], [ 74.321, 29.959 ], [ 74.328, 29.948 ], [ 74.343, 29.947 ], [ 74.352, 29.957 ], [ 74.367, 29.956 ], [ 74.374, 29.945 ], [ 74.389, 29.944 ], [ 74.398, 29.954 ], [ 74.413, 29.953 ], [ 74.42, 29.942 ], [ 74.435, 29.941 ], [ 74.444, 29.952 ], [ 74.46, 29.951 ], [ 74.466, 29.939 ], [ 74.481, 29.938 ], [ 74.49, 29.949 ], [ 74.506, 29.948 ], [ 74.512, 29.936 ], [ 74.527, 29.935 ], [ 74.536, 29.946 ], [ 74.552, 29.945 ], [ 74.558, 29.933 ], [ 74.574, 29.932 ], [ 74.58, 29.92 ], [ 74.595, 29.919 ], [ 74.602, 29.908 ], [ 74.617, 29.907 ], [ 74.624, 29.895 ], [ 74.639, 29.894 ], [ 74.648, 29.905 ], [ 74.641, 29.916 ], [ 74.65, 29.927 ], [ 74.666, 29.926 ], [ 74.675, 29.937 ], [ 74.668, 29.948 ], [ 74.677, 29.959 ], [ 74.692, 29.958 ], [ 74.701, 29.968 ], [ 74.716, 29.967 ], [ 74.723, 29.956 ], [ 74.738, 29.955 ], [ 74.747, 29.965 ], [ 74.763, 29.964 ], [ 74.771, 29.975 ], [ 74.787, 29.974 ], [ 74.796, 29.984 ], [ 74.811, 29.983 ], [ 74.818, 29.972 ], [ 74.833, 29.971 ], [ 74.839, 29.959 ], [ 74.855, 29.958 ], [ 74.864, 29.969 ], [ 74.879, 29.968 ], [ 74.885, 29.956 ], [ 74.901, 29.955 ], [ 74.907, 29.943 ], [ 74.922, 29.942 ], [ 74.929, 29.931 ], [ 74.944, 29.93 ], [ 74.951, 29.918 ], [ 74.942, 29.907 ], [ 74.948, 29.896 ], [ 74.963, 29.895 ], [ 74.97, 29.883 ], [ 74.985, 29.882 ], [ 74.992, 29.871 ], [ 75.007, 29.869 ], [ 75.016, 29.88 ], [ 75.031, 29.879 ], [ 75.04, 29.89 ], [ 75.055, 29.888 ], [ 75.062, 29.877 ], [ 75.077, 29.876 ], [ 75.086, 29.886 ], [ 75.08, 29.898 ], [ 75.089, 29.909 ], [ 75.104, 29.907 ], [ 75.11, 29.896 ], [ 75.101, 29.885 ], [ 75.108, 29.874 ], [ 75.099, 29.863 ], [ 75.105, 29.852 ], [ 75.096, 29.841 ], [ 75.103, 29.829 ], [ 75.094, 29.819 ], [ 75.1, 29.807 ], [ 75.115, 29.806 ], [ 75.122, 29.795 ], [ 75.137, 29.794 ], [ 75.144, 29.782 ], [ 75.159, 29.781 ], [ 75.168, 29.791 ], [ 75.161, 29.803 ], [ 75.17, 29.814 ], [ 75.164, 29.825 ], [ 75.173, 29.836 ], [ 75.188, 29.835 ], [ 75.197, 29.845 ], [ 75.212, 29.844 ], [ 75.219, 29.832 ], [ 75.21, 29.822 ], [ 75.216, 29.81 ], [ 75.207, 29.8 ], [ 75.214, 29.788 ], [ 75.229, 29.787 ], [ 75.235, 29.776 ], [ 75.226, 29.765 ], [ 75.233, 29.753 ], [ 75.224, 29.743 ], [ 75.209, 29.744 ], [ 75.2, 29.734 ], [ 75.206, 29.722 ], [ 75.197, 29.711 ], [ 75.203, 29.7 ], [ 75.194, 29.689 ], [ 75.201, 29.678 ], [ 75.192, 29.667 ], [ 75.177, 29.668 ], [ 75.168, 29.658 ], [ 75.174, 29.646 ], [ 75.189, 29.645 ], [ 75.196, 29.634 ], [ 75.187, 29.623 ], [ 75.193, 29.611 ], [ 75.208, 29.61 ], [ 75.217, 29.621 ], [ 75.233, 29.62 ], [ 75.239, 29.608 ], [ 75.23, 29.598 ], [ 75.236, 29.586 ], [ 75.227, 29.576 ], [ 75.234, 29.564 ], [ 75.249, 29.563 ], [ 75.255, 29.552 ], [ 75.271, 29.55 ] ], [ [ 74.941, 31.143 ], [ 74.925, 31.144 ], [ 74.918, 31.155 ], [ 74.927, 31.166 ], [ 74.943, 31.165 ], [ 74.952, 31.176 ], [ 74.968, 31.175 ], [ 74.977, 31.185 ], [ 74.97, 31.197 ], [ 74.979, 31.208 ], [ 74.995, 31.207 ], [ 75.004, 31.217 ], [ 75.02, 31.216 ], [ 75.029, 31.227 ], [ 75.045, 31.226 ], [ 75.051, 31.214 ], [ 75.067, 31.213 ], [ 75.073, 31.201 ], [ 75.064, 31.191 ], [ 75.071, 31.179 ], [ 75.062, 31.168 ], [ 75.068, 31.156 ], [ 75.059, 31.146 ], [ 75.043, 31.147 ], [ 75.034, 31.136 ], [ 75.041, 31.124 ], [ 75.032, 31.114 ], [ 75.016, 31.115 ], [ 75.007, 31.104 ], [ 74.991, 31.105 ], [ 74.985, 31.117 ], [ 74.969, 31.118 ], [ 74.963, 31.13 ], [ 74.947, 31.131 ], [ 74.941, 31.143 ] ] ], [ [ [ 76.389, 31.205 ], [ 76.395, 31.193 ], [ 76.411, 31.192 ], [ 76.417, 31.18 ], [ 76.408, 31.169 ], [ 76.414, 31.158 ], [ 76.43, 31.156 ], [ 76.436, 31.145 ], [ 76.451, 31.143 ], [ 76.458, 31.132 ], [ 76.473, 31.13 ], [ 76.479, 31.118 ], [ 76.495, 31.117 ], [ 76.501, 31.105 ], [ 76.492, 31.095 ], [ 76.498, 31.083 ], [ 76.514, 31.082 ], [ 76.52, 31.07 ], [ 76.535, 31.069 ], [ 76.542, 31.057 ], [ 76.532, 31.046 ], [ 76.539, 31.035 ], [ 76.529, 31.024 ], [ 76.536, 31.012 ], [ 76.526, 31.002 ], [ 76.533, 30.99 ], [ 76.548, 30.989 ], [ 76.557, 30.999 ], [ 76.573, 30.998 ], [ 76.582, 31.009 ], [ 76.598, 31.007 ], [ 76.607, 31.018 ], [ 76.622, 31.017 ], [ 76.632, 31.027 ], [ 76.626, 31.039 ], [ 76.61, 31.04 ], [ 76.604, 31.052 ], [ 76.613, 31.062 ], [ 76.607, 31.074 ], [ 76.616, 31.085 ], [ 76.632, 31.084 ], [ 76.641, 31.094 ], [ 76.635, 31.106 ], [ 76.619, 31.107 ], [ 76.613, 31.119 ], [ 76.598, 31.12 ], [ 76.591, 31.132 ], [ 76.601, 31.143 ], [ 76.594, 31.154 ], [ 76.579, 31.156 ], [ 76.573, 31.167 ], [ 76.557, 31.169 ], [ 76.551, 31.18 ], [ 76.56, 31.191 ], [ 76.554, 31.203 ], [ 76.538, 31.204 ], [ 76.532, 31.216 ], [ 76.517, 31.217 ], [ 76.51, 31.229 ], [ 76.52, 31.24 ], [ 76.513, 31.251 ], [ 76.498, 31.253 ], [ 76.491, 31.264 ], [ 76.476, 31.266 ], [ 76.47, 31.278 ], [ 76.454, 31.279 ], [ 76.448, 31.291 ], [ 76.457, 31.301 ], [ 76.451, 31.313 ], [ 76.435, 31.314 ], [ 76.429, 31.326 ], [ 76.413, 31.327 ], [ 76.407, 31.339 ], [ 76.416, 31.35 ], [ 76.41, 31.362 ], [ 76.394, 31.363 ], [ 76.388, 31.375 ], [ 76.398, 31.385 ], [ 76.391, 31.397 ], [ 76.401, 31.408 ], [ 76.394, 31.419 ], [ 76.379, 31.421 ], [ 76.369, 31.41 ], [ 76.354, 31.411 ], [ 76.344, 31.401 ], [ 76.329, 31.402 ], [ 76.319, 31.391 ], [ 76.326, 31.38 ], [ 76.341, 31.378 ], [ 76.348, 31.367 ], [ 76.338, 31.356 ], [ 76.345, 31.344 ], [ 76.335, 31.334 ], [ 76.32, 31.335 ], [ 76.31, 31.324 ], [ 76.317, 31.312 ], [ 76.307, 31.302 ], [ 76.314, 31.29 ], [ 76.329, 31.289 ], [ 76.336, 31.277 ], [ 76.351, 31.276 ], [ 76.357, 31.264 ], [ 76.348, 31.253 ], [ 76.354, 31.242 ], [ 76.37, 31.24 ], [ 76.376, 31.228 ], [ 76.367, 31.218 ], [ 76.373, 31.206 ], [ 76.389, 31.205 ] ] ], [ [ [ 76.657, 30.193 ], [ 76.65, 30.205 ], [ 76.635, 30.206 ], [ 76.626, 30.195 ], [ 76.632, 30.184 ], [ 76.647, 30.183 ], [ 76.657, 30.193 ] ] ] ] } },
{ "type": "Feature", "properties": { "POLYGON.ID": 501.0, "subregion": "India--Punjab--Pathankot--Shivaliks", "FILTER": "Punjab", "POLYGON": "India--Punjab--Pathankot--Shivaliks", "COUNTY": "Pathankot", "STATE": "Punjab", "OWNER": null }, "geometry": { "type": "MultiPolygon", "coordinates": [ [ [ [ 75.765, 32.447 ], [ 75.749, 32.448 ], [ 75.739, 32.438 ], [ 75.746, 32.426 ], [ 75.736, 32.415 ], [ 75.721, 32.416 ], [ 75.711, 32.405 ], [ 75.695, 32.407 ], [ 75.686, 32.396 ], [ 75.67, 32.397 ], [ 75.661, 32.386 ], [ 75.667, 32.374 ], [ 75.683, 32.373 ], [ 75.69, 32.361 ], [ 75.68, 32.351 ], [ 75.687, 32.339 ], [ 75.703, 32.337 ], [ 75.709, 32.326 ], [ 75.725, 32.324 ], [ 75.732, 32.312 ], [ 75.747, 32.311 ], [ 75.754, 32.299 ], [ 75.77, 32.298 ], [ 75.779, 32.309 ], [ 75.795, 32.308 ], [ 75.804, 32.318 ], [ 75.798, 32.33 ], [ 75.807, 32.341 ], [ 75.823, 32.34 ], [ 75.833, 32.351 ], [ 75.848, 32.349 ], [ 75.858, 32.36 ], [ 75.851, 32.372 ], [ 75.861, 32.383 ], [ 75.877, 32.381 ], [ 75.886, 32.392 ], [ 75.902, 32.391 ], [ 75.911, 32.402 ], [ 75.927, 32.4 ], [ 75.937, 32.411 ], [ 75.93, 32.423 ], [ 75.914, 32.424 ], [ 75.908, 32.436 ], [ 75.892, 32.437 ], [ 75.885, 32.449 ], [ 75.895, 32.46 ], [ 75.888, 32.472 ], [ 75.872, 32.473 ], [ 75.866, 32.485 ], [ 75.85, 32.486 ], [ 75.843, 32.498 ], [ 75.827, 32.5 ], [ 75.818, 32.489 ], [ 75.825, 32.477 ], [ 75.815, 32.466 ], [ 75.799, 32.467 ], [ 75.79, 32.457 ], [ 75.774, 32.458 ], [ 75.765, 32.447 ] ] ] ] } },
{ "type": "Feature", "properties": { "POLYGON.ID": 502.0, "subregion": "India--Punjab--Hoshiarpur--Shivaliks", "FILTER": "Punjab", "POLYGON": "India--Punjab--Hoshiarpur--Shivaliks", "COUNTY": "Hoshiarpur", "STATE": "Punjab", "OWNER": null }, "geometry": { "type": "MultiPolygon", "coordinates": [ [ [ [ 75.967, 31.6 ], [ 75.974, 31.588 ], [ 75.964, 31.578 ], [ 75.971, 31.566 ], [ 75.986, 31.565 ], [ 75.993, 31.553 ], [ 76.009, 31.552 ], [ 76.015, 31.54 ], [ 76.006, 31.529 ], [ 76.012, 31.517 ], [ 76.028, 31.516 ], [ 76.034, 31.504 ], [ 76.05, 31.503 ], [ 76.056, 31.491 ], [ 76.072, 31.49 ], [ 76.078, 31.478 ], [ 76.069, 31.468 ], [ 76.075, 31.456 ], [ 76.091, 31.455 ], [ 76.097, 31.443 ], [ 76.088, 31.432 ], [ 76.094, 31.42 ], [ 76.11, 31.419 ], [ 76.116, 31.407 ], [ 76.107, 31.397 ], [ 76.113, 31.385 ], [ 76.129, 31.384 ], [ 76.135, 31.372 ], [ 76.151, 31.371 ], [ 76.16, 31.381 ], [ 76.176, 31.38 ], [ 76.185, 31.391 ], [ 76.179, 31.403 ], [ 76.163, 31.404 ], [ 76.157, 31.416 ], [ 76.166, 31.426 ], [ 76.16, 31.438 ], [ 76.169, 31.449 ], [ 76.163, 31.46 ], [ 76.147, 31.462 ], [ 76.141, 31.473 ], [ 76.125, 31.475 ], [ 76.119, 31.487 ], [ 76.128, 31.497 ], [ 76.122, 31.509 ], [ 76.106, 31.51 ], [ 76.1, 31.522 ], [ 76.109, 31.533 ], [ 76.103, 31.544 ], [ 76.087, 31.546 ], [ 76.081, 31.558 ], [ 76.065, 31.559 ], [ 76.058, 31.571 ], [ 76.068, 31.581 ], [ 76.061, 31.593 ], [ 76.046, 31.594 ], [ 76.039, 31.606 ], [ 76.024, 31.607 ], [ 76.017, 31.619 ], [ 76.027, 31.63 ], [ 76.02, 31.642 ], [ 76.004, 31.643 ], [ 75.998, 31.655 ], [ 76.007, 31.665 ], [ 76.001, 31.677 ], [ 76.01, 31.688 ], [ 76.004, 31.7 ], [ 75.988, 31.701 ], [ 75.982, 31.713 ], [ 75.991, 31.723 ], [ 75.985, 31.735 ], [ 75.969, 31.736 ], [ 75.963, 31.748 ], [ 75.972, 31.759 ], [ 75.966, 31.771 ], [ 75.95, 31.772 ], [ 75.943, 31.784 ], [ 75.953, 31.794 ], [ 75.946, 31.806 ], [ 75.956, 31.817 ], [ 75.949, 31.829 ], [ 75.958, 31.84 ], [ 75.952, 31.851 ], [ 75.961, 31.862 ], [ 75.955, 31.874 ], [ 75.939, 31.875 ], [ 75.933, 31.887 ], [ 75.942, 31.898 ], [ 75.936, 31.909 ], [ 75.945, 31.92 ], [ 75.939, 31.932 ], [ 75.923, 31.933 ], [ 75.916, 31.945 ], [ 75.901, 31.946 ], [ 75.894, 31.958 ], [ 75.878, 31.959 ], [ 75.869, 31.949 ], [ 75.853, 31.95 ], [ 75.844, 31.939 ], [ 75.828, 31.94 ], [ 75.819, 31.93 ], [ 75.803, 31.931 ], [ 75.797, 31.943 ], [ 75.781, 31.944 ], [ 75.772, 31.933 ], [ 75.756, 31.935 ], [ 75.749, 31.946 ], [ 75.733, 31.948 ], [ 75.724, 31.937 ], [ 75.731, 31.925 ], [ 75.746, 31.924 ], [ 75.753, 31.912 ], [ 75.744, 31.901 ], [ 75.75, 31.889 ], [ 75.766, 31.888 ], [ 75.772, 31.876 ], [ 75.763, 31.866 ], [ 75.769, 31.854 ], [ 75.785, 31.853 ], [ 75.792, 31.841 ], [ 75.782, 31.83 ], [ 75.789, 31.818 ], [ 75.805, 31.817 ], [ 75.811, 31.805 ], [ 75.827, 31.804 ], [ 75.833, 31.792 ], [ 75.849, 31.791 ], [ 75.855, 31.779 ], [ 75.846, 31.768 ], [ 75.852, 31.757 ], [ 75.843, 31.746 ], [ 75.85, 31.734 ], [ 75.865, 31.733 ], [ 75.872, 31.721 ], [ 75.888, 31.72 ], [ 75.894, 31.708 ], [ 75.885, 31.697 ], [ 75.891, 31.686 ], [ 75.907, 31.684 ], [ 75.913, 31.673 ], [ 75.904, 31.662 ], [ 75.91, 31.65 ], [ 75.926, 31.649 ], [ 75.932, 31.637 ], [ 75.923, 31.626 ], [ 75.93, 31.615 ], [ 75.945, 31.613 ], [ 75.952, 31.601 ], [ 75.967, 31.6 ] ] ], [ [ [ 76.323, 31.244 ], [ 76.333, 31.255 ], [ 76.326, 31.266 ], [ 76.336, 31.277 ], [ 76.329, 31.289 ], [ 76.314, 31.29 ], [ 76.307, 31.302 ], [ 76.292, 31.303 ], [ 76.285, 31.315 ], [ 76.27, 31.316 ], [ 76.261, 31.306 ], [ 76.245, 31.307 ], [ 76.236, 31.296 ], [ 76.22, 31.297 ], [ 76.214, 31.309 ], [ 76.198, 31.31 ], [ 76.189, 31.3 ], [ 76.173, 31.301 ], [ 76.164, 31.29 ], [ 76.17, 31.279 ], [ 76.186, 31.277 ], [ 76.192, 31.266 ], [ 76.183, 31.255 ], [ 76.189, 31.243 ], [ 76.205, 31.242 ], [ 76.211, 31.23 ], [ 76.227, 31.229 ], [ 76.236, 31.24 ], [ 76.252, 31.238 ], [ 76.258, 31.227 ], [ 76.274, 31.225 ], [ 76.28, 31.213 ], [ 76.295, 31.212 ], [ 76.302, 31.2 ], [ 76.317, 31.199 ], [ 76.327, 31.21 ], [ 76.342, 31.209 ], [ 76.351, 31.219 ], [ 76.345, 31.231 ], [ 76.33, 31.232 ], [ 76.323, 31.244 ] ] ] ] } },
{ "type": "Feature", "properties": { "POLYGON.ID": 503.0, "subregion": "India--Punjab--Shaheed Bhagat Singh Nagar--Shivaliks", "FILTER": "Punjab", "POLYGON": "India--Punjab--Shaheed Bhagat Singh Nagar--Shivaliks", "COUNTY": "Shaheed Bhagat Singh Nagar", "STATE": "Punjab", "OWNER": null }, "geometry": { "type": "MultiPolygon", "coordinates": [ [ [ [ 76.442, 31.076 ], [ 76.452, 31.087 ], [ 76.445, 31.099 ], [ 76.43, 31.1 ], [ 76.423, 31.112 ], [ 76.433, 31.122 ], [ 76.426, 31.134 ], [ 76.411, 31.135 ], [ 76.405, 31.147 ], [ 76.389, 31.148 ], [ 76.383, 31.16 ], [ 76.392, 31.171 ], [ 76.386, 31.182 ], [ 76.37, 31.184 ], [ 76.364, 31.196 ], [ 76.348, 31.197 ], [ 76.342, 31.209 ], [ 76.327, 31.21 ], [ 76.317, 31.199 ], [ 76.324, 31.187 ], [ 76.339, 31.186 ], [ 76.345, 31.174 ], [ 76.336, 31.164 ], [ 76.342, 31.152 ], [ 76.358, 31.151 ], [ 76.364, 31.139 ], [ 76.355, 31.128 ], [ 76.361, 31.117 ], [ 76.377, 31.115 ], [ 76.383, 31.104 ], [ 76.399, 31.102 ], [ 76.405, 31.091 ], [ 76.396, 31.08 ], [ 76.402, 31.068 ], [ 76.393, 31.058 ], [ 76.399, 31.046 ], [ 76.414, 31.045 ], [ 76.421, 31.033 ], [ 76.436, 31.032 ], [ 76.442, 31.02 ], [ 76.433, 31.009 ], [ 76.439, 30.997 ], [ 76.455, 30.996 ], [ 76.461, 30.984 ], [ 76.477, 30.983 ], [ 76.483, 30.971 ], [ 76.498, 30.97 ], [ 76.508, 30.981 ], [ 76.501, 30.992 ], [ 76.511, 31.003 ], [ 76.505, 31.015 ], [ 76.489, 31.016 ], [ 76.483, 31.028 ], [ 76.467, 31.029 ], [ 76.461, 31.041 ], [ 76.47, 31.051 ], [ 76.464, 31.063 ], [ 76.448, 31.064 ], [ 76.442, 31.076 ] ] ] ] } },
{ "type": "Feature", "properties": { "POLYGON.ID": 504.0, "subregion": "India--Punjab--Rupnagar--Shivaliks", "FILTER": "Punjab", "POLYGON": "India--Punjab--Rupnagar--Shivaliks", "COUNTY": "Rupnagar", "STATE": "Punjab", "OWNER": null }, "geometry": { "type": "MultiPolygon", "coordinates": [ [ [ [ 76.479, 31.118 ], [ 76.473, 31.13 ], [ 76.458, 31.132 ], [ 76.451, 31.143 ], [ 76.436, 31.145 ], [ 76.43, 31.156 ], [ 76.414, 31.158 ], [ 76.408, 31.169 ], [ 76.417, 31.18 ], [ 76.411, 31.192 ], [ 76.395, 31.193 ], [ 76.389, 31.205 ], [ 76.373, 31.206 ], [ 76.367, 31.218 ], [ 76.376, 31.228 ], [ 76.37, 31.24 ], [ 76.354, 31.242 ], [ 76.348, 31.253 ], [ 76.357, 31.264 ], [ 76.351, 31.276 ], [ 76.336, 31.277 ], [ 76.326, 31.266 ], [ 76.333, 31.255 ], [ 76.323, 31.244 ], [ 76.33, 31.232 ], [ 76.345, 31.231 ], [ 76.351, 31.219 ], [ 76.342, 31.209 ], [ 76.348, 31.197 ], [ 76.364, 31.196 ], [ 76.37, 31.184 ], [ 76.386, 31.182 ], [ 76.392, 31.171 ], [ 76.383, 31.16 ], [ 76.389, 31.148 ], [ 76.405, 31.147 ], [ 76.411, 31.135 ], [ 76.426, 31.134 ], [ 76.433, 31.122 ], [ 76.423, 31.112 ], [ 76.43, 31.1 ], [ 76.445, 31.099 ], [ 76.452, 31.087 ], [ 76.442, 31.076 ], [ 76.448, 31.064 ], [ 76.464, 31.063 ], [ 76.47, 31.051 ], [ 76.461, 31.041 ], [ 76.467, 31.029 ], [ 76.483, 31.028 ], [ 76.489, 31.016 ], [ 76.505, 31.015 ], [ 76.511, 31.003 ], [ 76.501, 30.992 ], [ 76.508, 30.981 ], [ 76.523, 30.979 ], [ 76.529, 30.968 ], [ 76.545, 30.966 ], [ 76.551, 30.955 ], [ 76.567, 30.953 ], [ 76.576, 30.964 ], [ 76.591, 30.963 ], [ 76.601, 30.973 ], [ 76.616, 30.972 ], [ 76.623, 30.96 ], [ 76.638, 30.959 ], [ 76.644, 30.947 ], [ 76.66, 30.946 ], [ 76.666, 30.934 ], [ 76.681, 30.933 ], [ 76.688, 30.921 ], [ 76.703, 30.92 ], [ 76.712, 30.93 ], [ 76.728, 30.929 ], [ 76.737, 30.939 ], [ 76.731, 30.951 ], [ 76.716, 30.952 ], [ 76.709, 30.964 ], [ 76.694, 30.966 ], [ 76.688, 30.977 ], [ 76.672, 30.979 ], [ 76.666, 30.99 ], [ 76.65, 30.992 ], [ 76.644, 31.003 ], [ 76.629, 31.005 ], [ 76.622, 31.017 ], [ 76.607, 31.018 ], [ 76.598, 31.007 ], [ 76.582, 31.009 ], [ 76.573, 30.998 ], [ 76.557, 30.999 ], [ 76.548, 30.989 ], [ 76.533, 30.99 ], [ 76.526, 31.002 ], [ 76.536, 31.012 ], [ 76.529, 31.024 ], [ 76.539, 31.035 ], [ 76.532, 31.046 ], [ 76.542, 31.057 ], [ 76.535, 31.069 ], [ 76.52, 31.07 ], [ 76.514, 31.082 ], [ 76.498, 31.083 ], [ 76.492, 31.095 ], [ 76.501, 31.105 ], [ 76.495, 31.117 ], [ 76.479, 31.118 ] ] ], [ [ [ 76.601, 31.199 ], [ 76.585, 31.2 ], [ 76.579, 31.212 ], [ 76.588, 31.223 ], [ 76.582, 31.235 ], [ 76.591, 31.245 ], [ 76.607, 31.244 ], [ 76.616, 31.254 ], [ 76.61, 31.266 ], [ 76.594, 31.267 ], [ 76.585, 31.257 ], [ 76.569, 31.258 ], [ 76.56, 31.248 ], [ 76.544, 31.249 ], [ 76.538, 31.261 ], [ 76.523, 31.262 ], [ 76.516, 31.274 ], [ 76.501, 31.275 ], [ 76.495, 31.287 ], [ 76.479, 31.288 ], [ 76.47, 31.278 ], [ 76.476, 31.266 ], [ 76.491, 31.264 ], [ 76.498, 31.253 ], [ 76.513, 31.251 ], [ 76.52, 31.24 ], [ 76.51, 31.229 ], [ 76.517, 31.217 ], [ 76.532, 31.216 ], [ 76.538, 31.204 ], [ 76.554, 31.203 ], [ 76.56, 31.191 ], [ 76.551, 31.18 ], [ 76.557, 31.169 ], [ 76.573, 31.167 ], [ 76.579, 31.156 ], [ 76.594, 31.154 ], [ 76.604, 31.165 ], [ 76.598, 31.177 ], [ 76.607, 31.187 ], [ 76.622, 31.186 ], [ 76.632, 31.197 ], [ 76.647, 31.195 ], [ 76.657, 31.206 ], [ 76.65, 31.218 ], [ 76.635, 31.219 ], [ 76.626, 31.208 ], [ 76.61, 31.21 ], [ 76.601, 31.199 ] ] ] ] } },
{ "type": "Feature", "properties": { "POLYGON.ID": 505.0, "subregion": "India--Punjab--Sahibzada Ajit Singh Nagar--Shivaliks", "FILTER": "Punjab", "POLYGON": "India--Punjab--Sahibzada Ajit Singh Nagar--Shivaliks", "COUNTY": "Sahibzada Ajit Singh Nagar", "STATE": "Punjab", "OWNER": null }, "geometry": { "type": "MultiPolygon", "coordinates": [ [ [ [ 76.728, 30.929 ], [ 76.712, 30.93 ], [ 76.703, 30.92 ], [ 76.688, 30.921 ], [ 76.678, 30.91 ], [ 76.684, 30.899 ], [ 76.7, 30.897 ], [ 76.706, 30.886 ], [ 76.697, 30.875 ], [ 76.703, 30.863 ], [ 76.719, 30.862 ], [ 76.725, 30.85 ], [ 76.74, 30.849 ], [ 76.746, 30.837 ], [ 76.762, 30.836 ], [ 76.768, 30.824 ], [ 76.759, 30.814 ], [ 76.765, 30.802 ], [ 76.78, 30.801 ], [ 76.787, 30.789 ], [ 76.802, 30.788 ], [ 76.808, 30.776 ], [ 76.799, 30.765 ], [ 76.805, 30.753 ], [ 76.82, 30.752 ], [ 76.83, 30.763 ], [ 76.845, 30.761 ], [ 76.854, 30.772 ], [ 76.848, 30.784 ], [ 76.858, 30.794 ], [ 76.851, 30.806 ], [ 76.861, 30.816 ], [ 76.855, 30.828 ], [ 76.839, 30.829 ], [ 76.833, 30.841 ], [ 76.818, 30.843 ], [ 76.811, 30.854 ], [ 76.796, 30.856 ], [ 76.79, 30.867 ], [ 76.774, 30.869 ], [ 76.768, 30.88 ], [ 76.777, 30.891 ], [ 76.771, 30.903 ], [ 76.781, 30.913 ], [ 76.774, 30.925 ], [ 76.759, 30.926 ], [ 76.753, 30.938 ], [ 76.737, 30.939 ], [ 76.728, 30.929 ] ] ] ] } },
{ "type": "Feature", "properties": { "POLYGON.ID": 576.0, "subregion": "India--Punjab--Harike", "FILTER": "Punjab", "POLYGON": "India--Punjab--Harike", "COUNTY": "spl_region", "STATE": "Punjab", "OWNER": null }, "geometry": { "type": "MultiPolygon", "coordinates": [ [ [ [ 74.963, 31.13 ], [ 74.969, 31.118 ], [ 74.985, 31.117 ], [ 74.991, 31.105 ], [ 75.007, 31.104 ], [ 75.016, 31.115 ], [ 75.032, 31.114 ], [ 75.041, 31.124 ], [ 75.034, 31.136 ], [ 75.043, 31.147 ], [ 75.059, 31.146 ], [ 75.068, 31.156 ], [ 75.062, 31.168 ], [ 75.071, 31.179 ], [ 75.064, 31.191 ], [ 75.073, 31.201 ], [ 75.067, 31.213 ], [ 75.051, 31.214 ], [ 75.045, 31.226 ], [ 75.029, 31.227 ], [ 75.02, 31.216 ], [ 75.004, 31.217 ], [ 74.995, 31.207 ], [ 74.979, 31.208 ], [ 74.97, 31.197 ], [ 74.977, 31.185 ], [ 74.968, 31.175 ], [ 74.952, 31.176 ], [ 74.943, 31.165 ], [ 74.927, 31.166 ], [ 74.918, 31.155 ], [ 74.925, 31.144 ], [ 74.941, 31.143 ], [ 74.947, 31.131 ], [ 74.963, 31.13 ] ] ] ] } }
]
}
