{
"type": "FeatureCollection",
"name": "Sikkim",
"crs": { "type": "name", "properties": { "name": "urn:ogc:def:crs:OGC:1.3:CRS84" } },
"features": [
{ "type": "Feature", "properties": { "POLYGON.ID": 61.0, "subregion": "India--Sikkim--North--high Himalaya--West", "POLYGON": "India--Sikkim--North--high Himalaya--West", "SHOW": "1", "FILTER": "Not-Assigned", "FILTER.ID": null, "OLD.POLYGON": null, "STATE": "Sikkim", "COUNTY": "spl_region", "OWNER": null }, "geometry": { "type": "MultiPolygon", "coordinates": [ [ [ [ 88.312, 27.633 ], [ 88.316, 27.621 ], [ 88.306, 27.612 ], [ 88.291, 27.615 ], [ 88.281, 27.605 ], [ 88.285, 27.593 ], [ 88.275, 27.584 ], [ 88.279, 27.572 ], [ 88.293, 27.569 ], [ 88.297, 27.558 ], [ 88.312, 27.555 ], [ 88.316, 27.543 ], [ 88.33, 27.541 ], [ 88.34, 27.55 ], [ 88.355, 27.548 ], [ 88.359, 27.536 ], [ 88.373, 27.533 ], [ 88.377, 27.521 ], [ 88.367, 27.512 ], [ 88.371, 27.5 ], [ 88.385, 27.498 ], [ 88.389, 27.486 ], [ 88.404, 27.483 ], [ 88.408, 27.471 ], [ 88.397, 27.462 ], [ 88.402, 27.45 ], [ 88.416, 27.447 ], [ 88.42, 27.435 ], [ 88.41, 27.426 ], [ 88.414, 27.414 ], [ 88.428, 27.412 ], [ 88.432, 27.4 ], [ 88.446, 27.397 ], [ 88.457, 27.407 ], [ 88.471, 27.404 ], [ 88.481, 27.414 ], [ 88.477, 27.425 ], [ 88.487, 27.435 ], [ 88.483, 27.447 ], [ 88.493, 27.456 ], [ 88.489, 27.468 ], [ 88.499, 27.478 ], [ 88.495, 27.489 ], [ 88.481, 27.492 ], [ 88.477, 27.504 ], [ 88.487, 27.513 ], [ 88.483, 27.525 ], [ 88.469, 27.528 ], [ 88.465, 27.54 ], [ 88.45, 27.542 ], [ 88.446, 27.554 ], [ 88.432, 27.556 ], [ 88.428, 27.568 ], [ 88.438, 27.578 ], [ 88.452, 27.575 ], [ 88.457, 27.563 ], [ 88.471, 27.561 ], [ 88.481, 27.57 ], [ 88.477, 27.582 ], [ 88.487, 27.592 ], [ 88.483, 27.604 ], [ 88.493, 27.613 ], [ 88.489, 27.625 ], [ 88.499, 27.634 ], [ 88.495, 27.646 ], [ 88.481, 27.649 ], [ 88.477, 27.661 ], [ 88.463, 27.663 ], [ 88.452, 27.654 ], [ 88.456, 27.642 ], [ 88.446, 27.632 ], [ 88.45, 27.62 ], [ 88.44, 27.611 ], [ 88.426, 27.613 ], [ 88.416, 27.604 ], [ 88.401, 27.607 ], [ 88.391, 27.597 ], [ 88.377, 27.6 ], [ 88.373, 27.612 ], [ 88.359, 27.614 ], [ 88.354, 27.626 ], [ 88.34, 27.628 ], [ 88.336, 27.64 ], [ 88.322, 27.643 ], [ 88.312, 27.633 ] ] ] ] } },
{ "type": "Feature", "properties": { "POLYGON.ID": 62.0, "subregion": "India--Sikkim--South--mid Himalaya", "POLYGON": "India--Sikkim--South--mid Himalaya", "SHOW": "1", "FILTER": "Not-Assigned", "FILTER.ID": null, "OLD.POLYGON": null, "STATE": "Sikkim", "COUNTY": "spl_region", "OWNER": null }, "geometry": { "type": "MultiPolygon", "coordinates": [ [ [ [ 88.414, 27.336 ], [ 88.404, 27.326 ], [ 88.408, 27.314 ], [ 88.398, 27.305 ], [ 88.383, 27.307 ], [ 88.379, 27.319 ], [ 88.365, 27.322 ], [ 88.361, 27.334 ], [ 88.347, 27.336 ], [ 88.343, 27.348 ], [ 88.328, 27.351 ], [ 88.318, 27.341 ], [ 88.304, 27.344 ], [ 88.294, 27.334 ], [ 88.298, 27.322 ], [ 88.312, 27.32 ], [ 88.316, 27.308 ], [ 88.306, 27.298 ], [ 88.292, 27.301 ], [ 88.282, 27.292 ], [ 88.286, 27.28 ], [ 88.275, 27.27 ], [ 88.28, 27.258 ], [ 88.294, 27.256 ], [ 88.298, 27.244 ], [ 88.312, 27.241 ], [ 88.316, 27.229 ], [ 88.306, 27.22 ], [ 88.31, 27.208 ], [ 88.324, 27.205 ], [ 88.329, 27.194 ], [ 88.343, 27.191 ], [ 88.347, 27.179 ], [ 88.361, 27.177 ], [ 88.371, 27.186 ], [ 88.386, 27.183 ], [ 88.396, 27.193 ], [ 88.41, 27.19 ], [ 88.42, 27.2 ], [ 88.434, 27.197 ], [ 88.445, 27.207 ], [ 88.441, 27.219 ], [ 88.451, 27.228 ], [ 88.465, 27.226 ], [ 88.475, 27.235 ], [ 88.471, 27.247 ], [ 88.457, 27.25 ], [ 88.453, 27.262 ], [ 88.438, 27.264 ], [ 88.434, 27.276 ], [ 88.445, 27.285 ], [ 88.44, 27.297 ], [ 88.451, 27.307 ], [ 88.447, 27.319 ], [ 88.457, 27.328 ], [ 88.471, 27.326 ], [ 88.481, 27.335 ], [ 88.477, 27.347 ], [ 88.487, 27.356 ], [ 88.483, 27.368 ], [ 88.469, 27.371 ], [ 88.459, 27.361 ], [ 88.444, 27.364 ], [ 88.434, 27.354 ], [ 88.438, 27.343 ], [ 88.428, 27.333 ], [ 88.414, 27.336 ] ] ] ] } },
{ "type": "Feature", "properties": { "POLYGON.ID": 63.0, "subregion": "India--Sikkim--West--high Himalaya--North", "POLYGON": "India--Sikkim--West--high Himalaya--North", "SHOW": "1", "FILTER": "Not-Assigned", "FILTER.ID": null, "OLD.POLYGON": null, "STATE": "Sikkim", "COUNTY": "spl_region", "OWNER": null }, "geometry": { "type": "MultiPolygon", "coordinates": [ [ [ [ 88.196, 27.306 ], [ 88.182, 27.309 ], [ 88.178, 27.321 ], [ 88.188, 27.33 ], [ 88.184, 27.342 ], [ 88.194, 27.352 ], [ 88.208, 27.349 ], [ 88.218, 27.359 ], [ 88.233, 27.356 ], [ 88.243, 27.366 ], [ 88.257, 27.363 ], [ 88.261, 27.351 ], [ 88.275, 27.349 ], [ 88.286, 27.358 ], [ 88.3, 27.356 ], [ 88.304, 27.344 ], [ 88.318, 27.341 ], [ 88.328, 27.351 ], [ 88.324, 27.363 ], [ 88.334, 27.372 ], [ 88.349, 27.369 ], [ 88.359, 27.379 ], [ 88.355, 27.391 ], [ 88.365, 27.4 ], [ 88.361, 27.412 ], [ 88.347, 27.415 ], [ 88.336, 27.405 ], [ 88.322, 27.408 ], [ 88.318, 27.42 ], [ 88.304, 27.422 ], [ 88.294, 27.413 ], [ 88.279, 27.415 ], [ 88.275, 27.427 ], [ 88.261, 27.43 ], [ 88.257, 27.442 ], [ 88.243, 27.444 ], [ 88.239, 27.456 ], [ 88.224, 27.458 ], [ 88.22, 27.47 ], [ 88.206, 27.473 ], [ 88.202, 27.485 ], [ 88.188, 27.487 ], [ 88.177, 27.478 ], [ 88.163, 27.48 ], [ 88.153, 27.471 ], [ 88.157, 27.459 ], [ 88.147, 27.449 ], [ 88.151, 27.437 ], [ 88.141, 27.428 ], [ 88.145, 27.416 ], [ 88.135, 27.407 ], [ 88.139, 27.395 ], [ 88.153, 27.392 ], [ 88.157, 27.38 ], [ 88.147, 27.371 ], [ 88.133, 27.373 ], [ 88.123, 27.364 ], [ 88.108, 27.366 ], [ 88.098, 27.357 ], [ 88.084, 27.36 ], [ 88.08, 27.371 ], [ 88.066, 27.374 ], [ 88.055, 27.364 ], [ 88.041, 27.367 ], [ 88.031, 27.357 ], [ 88.035, 27.346 ], [ 88.025, 27.336 ], [ 88.029, 27.324 ], [ 88.019, 27.315 ], [ 88.023, 27.303 ], [ 88.013, 27.293 ], [ 88.017, 27.281 ], [ 88.031, 27.279 ], [ 88.035, 27.267 ], [ 88.05, 27.265 ], [ 88.06, 27.274 ], [ 88.074, 27.272 ], [ 88.084, 27.281 ], [ 88.08, 27.293 ], [ 88.09, 27.302 ], [ 88.104, 27.3 ], [ 88.109, 27.288 ], [ 88.123, 27.286 ], [ 88.133, 27.295 ], [ 88.147, 27.293 ], [ 88.151, 27.281 ], [ 88.166, 27.278 ], [ 88.176, 27.288 ], [ 88.19, 27.285 ], [ 88.2, 27.295 ], [ 88.196, 27.306 ] ] ] ] } },
{ "type": "Feature", "properties": { "POLYGON.ID": 343.0, "subregion": "India--Sikkim--North--sub trans Himalaya", "POLYGON": "India--Sikkim--North--sub trans Himalaya", "SHOW": "1", "FILTER": "Not-Assigned", "FILTER.ID": null, "OLD.POLYGON": null, "STATE": "Sikkim", "COUNTY": "spl_region", "OWNER": null }, "geometry": { "type": "MultiPolygon", "coordinates": [ [ [ [ 88.806, 27.994 ], [ 88.796, 27.984 ], [ 88.781, 27.987 ], [ 88.771, 27.977 ], [ 88.757, 27.98 ], [ 88.753, 27.992 ], [ 88.738, 27.994 ], [ 88.734, 28.006 ], [ 88.72, 28.009 ], [ 88.71, 27.999 ], [ 88.695, 28.002 ], [ 88.685, 27.992 ], [ 88.671, 27.995 ], [ 88.661, 27.986 ], [ 88.646, 27.988 ], [ 88.642, 28.0 ], [ 88.628, 28.002 ], [ 88.618, 27.993 ], [ 88.603, 27.996 ], [ 88.593, 27.986 ], [ 88.597, 27.974 ], [ 88.587, 27.965 ], [ 88.591, 27.953 ], [ 88.605, 27.951 ], [ 88.609, 27.939 ], [ 88.599, 27.929 ], [ 88.603, 27.918 ], [ 88.593, 27.908 ], [ 88.579, 27.911 ], [ 88.569, 27.901 ], [ 88.554, 27.904 ], [ 88.55, 27.916 ], [ 88.536, 27.918 ], [ 88.526, 27.909 ], [ 88.511, 27.911 ], [ 88.501, 27.902 ], [ 88.487, 27.904 ], [ 88.483, 27.916 ], [ 88.493, 27.926 ], [ 88.489, 27.937 ], [ 88.499, 27.947 ], [ 88.495, 27.959 ], [ 88.505, 27.968 ], [ 88.501, 27.98 ], [ 88.487, 27.982 ], [ 88.477, 27.973 ], [ 88.481, 27.961 ], [ 88.47, 27.952 ], [ 88.475, 27.94 ], [ 88.464, 27.931 ], [ 88.45, 27.933 ], [ 88.44, 27.924 ], [ 88.444, 27.912 ], [ 88.434, 27.902 ], [ 88.419, 27.905 ], [ 88.409, 27.895 ], [ 88.413, 27.884 ], [ 88.403, 27.874 ], [ 88.407, 27.862 ], [ 88.397, 27.853 ], [ 88.383, 27.855 ], [ 88.373, 27.846 ], [ 88.358, 27.849 ], [ 88.348, 27.839 ], [ 88.334, 27.842 ], [ 88.324, 27.832 ], [ 88.328, 27.82 ], [ 88.317, 27.811 ], [ 88.303, 27.813 ], [ 88.293, 27.804 ], [ 88.279, 27.806 ], [ 88.269, 27.797 ], [ 88.254, 27.8 ], [ 88.244, 27.79 ], [ 88.23, 27.793 ], [ 88.226, 27.804 ], [ 88.211, 27.807 ], [ 88.201, 27.798 ], [ 88.187, 27.8 ], [ 88.177, 27.791 ], [ 88.181, 27.779 ], [ 88.171, 27.769 ], [ 88.156, 27.772 ], [ 88.146, 27.762 ], [ 88.15, 27.75 ], [ 88.14, 27.741 ], [ 88.144, 27.729 ], [ 88.134, 27.72 ], [ 88.138, 27.708 ], [ 88.128, 27.699 ], [ 88.132, 27.687 ], [ 88.122, 27.677 ], [ 88.126, 27.665 ], [ 88.116, 27.656 ], [ 88.102, 27.658 ], [ 88.091, 27.649 ], [ 88.096, 27.637 ], [ 88.11, 27.635 ], [ 88.114, 27.623 ], [ 88.128, 27.62 ], [ 88.132, 27.608 ], [ 88.147, 27.606 ], [ 88.151, 27.594 ], [ 88.165, 27.592 ], [ 88.169, 27.58 ], [ 88.183, 27.577 ], [ 88.193, 27.587 ], [ 88.208, 27.584 ], [ 88.212, 27.572 ], [ 88.226, 27.57 ], [ 88.23, 27.558 ], [ 88.244, 27.556 ], [ 88.249, 27.544 ], [ 88.263, 27.541 ], [ 88.267, 27.529 ], [ 88.281, 27.527 ], [ 88.285, 27.515 ], [ 88.3, 27.512 ], [ 88.304, 27.501 ], [ 88.318, 27.498 ], [ 88.328, 27.507 ], [ 88.342, 27.505 ], [ 88.353, 27.514 ], [ 88.367, 27.512 ], [ 88.377, 27.521 ], [ 88.373, 27.533 ], [ 88.359, 27.536 ], [ 88.355, 27.548 ], [ 88.34, 27.55 ], [ 88.33, 27.541 ], [ 88.316, 27.543 ], [ 88.312, 27.555 ], [ 88.297, 27.558 ], [ 88.293, 27.569 ], [ 88.279, 27.572 ], [ 88.275, 27.584 ], [ 88.285, 27.593 ], [ 88.281, 27.605 ], [ 88.291, 27.615 ], [ 88.306, 27.612 ], [ 88.316, 27.621 ], [ 88.312, 27.633 ], [ 88.322, 27.643 ], [ 88.336, 27.64 ], [ 88.34, 27.628 ], [ 88.354, 27.626 ], [ 88.359, 27.614 ], [ 88.373, 27.612 ], [ 88.377, 27.6 ], [ 88.391, 27.597 ], [ 88.401, 27.607 ], [ 88.416, 27.604 ], [ 88.426, 27.613 ], [ 88.44, 27.611 ], [ 88.45, 27.62 ], [ 88.446, 27.632 ], [ 88.456, 27.642 ], [ 88.452, 27.654 ], [ 88.463, 27.663 ], [ 88.477, 27.661 ], [ 88.481, 27.649 ], [ 88.495, 27.646 ], [ 88.499, 27.634 ], [ 88.489, 27.625 ], [ 88.493, 27.613 ], [ 88.483, 27.604 ], [ 88.487, 27.592 ], [ 88.477, 27.582 ], [ 88.481, 27.57 ], [ 88.495, 27.568 ], [ 88.506, 27.577 ], [ 88.52, 27.575 ], [ 88.524, 27.563 ], [ 88.538, 27.56 ], [ 88.548, 27.57 ], [ 88.563, 27.567 ], [ 88.573, 27.577 ], [ 88.587, 27.574 ], [ 88.597, 27.584 ], [ 88.593, 27.595 ], [ 88.603, 27.605 ], [ 88.599, 27.617 ], [ 88.585, 27.619 ], [ 88.581, 27.631 ], [ 88.567, 27.634 ], [ 88.563, 27.646 ], [ 88.548, 27.648 ], [ 88.544, 27.66 ], [ 88.554, 27.669 ], [ 88.55, 27.681 ], [ 88.536, 27.684 ], [ 88.532, 27.696 ], [ 88.542, 27.705 ], [ 88.538, 27.717 ], [ 88.524, 27.719 ], [ 88.52, 27.731 ], [ 88.53, 27.741 ], [ 88.544, 27.738 ], [ 88.554, 27.748 ], [ 88.569, 27.745 ], [ 88.579, 27.754 ], [ 88.593, 27.752 ], [ 88.597, 27.74 ], [ 88.587, 27.731 ], [ 88.591, 27.719 ], [ 88.605, 27.716 ], [ 88.616, 27.726 ], [ 88.63, 27.723 ], [ 88.634, 27.711 ], [ 88.624, 27.702 ], [ 88.628, 27.69 ], [ 88.642, 27.687 ], [ 88.646, 27.676 ], [ 88.636, 27.666 ], [ 88.64, 27.654 ], [ 88.63, 27.645 ], [ 88.634, 27.633 ], [ 88.648, 27.63 ], [ 88.659, 27.64 ], [ 88.673, 27.637 ], [ 88.683, 27.647 ], [ 88.697, 27.644 ], [ 88.708, 27.654 ], [ 88.704, 27.666 ], [ 88.714, 27.675 ], [ 88.71, 27.687 ], [ 88.72, 27.696 ], [ 88.734, 27.694 ], [ 88.744, 27.703 ], [ 88.74, 27.715 ], [ 88.751, 27.724 ], [ 88.746, 27.736 ], [ 88.732, 27.739 ], [ 88.728, 27.751 ], [ 88.714, 27.753 ], [ 88.71, 27.765 ], [ 88.72, 27.774 ], [ 88.734, 27.772 ], [ 88.738, 27.76 ], [ 88.753, 27.758 ], [ 88.763, 27.767 ], [ 88.777, 27.764 ], [ 88.781, 27.752 ], [ 88.771, 27.743 ], [ 88.775, 27.731 ], [ 88.765, 27.722 ], [ 88.769, 27.71 ], [ 88.759, 27.701 ], [ 88.763, 27.689 ], [ 88.777, 27.686 ], [ 88.781, 27.674 ], [ 88.771, 27.665 ], [ 88.775, 27.653 ], [ 88.765, 27.644 ], [ 88.769, 27.632 ], [ 88.759, 27.622 ], [ 88.744, 27.625 ], [ 88.734, 27.615 ], [ 88.72, 27.618 ], [ 88.71, 27.609 ], [ 88.695, 27.611 ], [ 88.685, 27.602 ], [ 88.689, 27.59 ], [ 88.704, 27.587 ], [ 88.708, 27.575 ], [ 88.722, 27.573 ], [ 88.726, 27.561 ], [ 88.716, 27.551 ], [ 88.72, 27.54 ], [ 88.71, 27.53 ], [ 88.714, 27.518 ], [ 88.704, 27.509 ], [ 88.689, 27.511 ], [ 88.679, 27.502 ], [ 88.683, 27.49 ], [ 88.673, 27.481 ], [ 88.677, 27.469 ], [ 88.691, 27.466 ], [ 88.695, 27.454 ], [ 88.685, 27.445 ], [ 88.689, 27.433 ], [ 88.679, 27.424 ], [ 88.683, 27.412 ], [ 88.697, 27.409 ], [ 88.708, 27.418 ], [ 88.722, 27.416 ], [ 88.732, 27.425 ], [ 88.746, 27.423 ], [ 88.751, 27.411 ], [ 88.765, 27.408 ], [ 88.775, 27.418 ], [ 88.789, 27.415 ], [ 88.8, 27.425 ], [ 88.814, 27.422 ], [ 88.824, 27.431 ], [ 88.82, 27.443 ], [ 88.806, 27.446 ], [ 88.802, 27.458 ], [ 88.787, 27.46 ], [ 88.783, 27.472 ], [ 88.793, 27.482 ], [ 88.789, 27.494 ], [ 88.8, 27.503 ], [ 88.795, 27.515 ], [ 88.806, 27.524 ], [ 88.802, 27.536 ], [ 88.787, 27.539 ], [ 88.783, 27.551 ], [ 88.793, 27.56 ], [ 88.789, 27.572 ], [ 88.8, 27.581 ], [ 88.814, 27.579 ], [ 88.824, 27.588 ], [ 88.82, 27.6 ], [ 88.83, 27.61 ], [ 88.826, 27.622 ], [ 88.836, 27.631 ], [ 88.832, 27.643 ], [ 88.843, 27.652 ], [ 88.857, 27.65 ], [ 88.867, 27.659 ], [ 88.863, 27.671 ], [ 88.849, 27.674 ], [ 88.845, 27.685 ], [ 88.855, 27.695 ], [ 88.851, 27.707 ], [ 88.861, 27.716 ], [ 88.875, 27.714 ], [ 88.885, 27.723 ], [ 88.881, 27.735 ], [ 88.892, 27.744 ], [ 88.888, 27.756 ], [ 88.873, 27.759 ], [ 88.869, 27.771 ], [ 88.879, 27.78 ], [ 88.875, 27.792 ], [ 88.886, 27.801 ], [ 88.881, 27.813 ], [ 88.892, 27.822 ], [ 88.888, 27.834 ], [ 88.898, 27.844 ], [ 88.894, 27.856 ], [ 88.904, 27.865 ], [ 88.9, 27.877 ], [ 88.91, 27.886 ], [ 88.906, 27.898 ], [ 88.892, 27.901 ], [ 88.888, 27.912 ], [ 88.873, 27.915 ], [ 88.869, 27.927 ], [ 88.855, 27.929 ], [ 88.851, 27.941 ], [ 88.861, 27.951 ], [ 88.857, 27.962 ], [ 88.843, 27.965 ], [ 88.839, 27.977 ], [ 88.824, 27.979 ], [ 88.82, 27.991 ], [ 88.806, 27.994 ] ] ] ] } },
{ "type": "Feature", "properties": { "POLYGON.ID": 680.0, "subregion": "India--Sikkim--East--high Himalaya", "POLYGON": "India--Sikkim--East--high Himalaya", "SHOW": "1", "FILTER": "Not-Assigned", "FILTER.ID": null, "OLD.POLYGON": null, "STATE": "Sikkim", "COUNTY": "spl_region", "OWNER": null }, "geometry": { "type": "MultiPolygon", "coordinates": [ [ [ [ 88.673, 27.402 ], [ 88.659, 27.405 ], [ 88.648, 27.395 ], [ 88.634, 27.398 ], [ 88.624, 27.388 ], [ 88.628, 27.376 ], [ 88.642, 27.374 ], [ 88.646, 27.362 ], [ 88.661, 27.359 ], [ 88.665, 27.348 ], [ 88.655, 27.338 ], [ 88.659, 27.326 ], [ 88.648, 27.317 ], [ 88.653, 27.305 ], [ 88.667, 27.302 ], [ 88.671, 27.29 ], [ 88.685, 27.288 ], [ 88.689, 27.276 ], [ 88.704, 27.273 ], [ 88.708, 27.261 ], [ 88.722, 27.259 ], [ 88.726, 27.247 ], [ 88.74, 27.244 ], [ 88.744, 27.232 ], [ 88.759, 27.23 ], [ 88.763, 27.218 ], [ 88.753, 27.208 ], [ 88.757, 27.196 ], [ 88.771, 27.194 ], [ 88.775, 27.182 ], [ 88.789, 27.179 ], [ 88.799, 27.189 ], [ 88.795, 27.201 ], [ 88.806, 27.21 ], [ 88.82, 27.208 ], [ 88.83, 27.217 ], [ 88.826, 27.229 ], [ 88.812, 27.232 ], [ 88.808, 27.244 ], [ 88.818, 27.253 ], [ 88.832, 27.25 ], [ 88.842, 27.26 ], [ 88.857, 27.257 ], [ 88.867, 27.267 ], [ 88.863, 27.279 ], [ 88.848, 27.281 ], [ 88.844, 27.293 ], [ 88.83, 27.296 ], [ 88.826, 27.308 ], [ 88.812, 27.31 ], [ 88.808, 27.322 ], [ 88.818, 27.332 ], [ 88.814, 27.344 ], [ 88.799, 27.346 ], [ 88.789, 27.337 ], [ 88.775, 27.339 ], [ 88.771, 27.351 ], [ 88.757, 27.354 ], [ 88.753, 27.366 ], [ 88.738, 27.368 ], [ 88.728, 27.359 ], [ 88.714, 27.361 ], [ 88.71, 27.373 ], [ 88.695, 27.376 ], [ 88.691, 27.388 ], [ 88.677, 27.39 ], [ 88.673, 27.402 ] ] ] ] } },
{ "type": "Feature", "properties": { "POLYGON.ID": 679.0, "subregion": "India--Sikkim--East--high Himalaya--Fambong Lho", "POLYGON": "India--Sikkim--East--high Himalaya--Fambong Lho", "SHOW": "1", "FILTER": "Not-Assigned", "FILTER.ID": null, "OLD.POLYGON": null, "STATE": "Sikkim", "COUNTY": "spl_region", "OWNER": null }, "geometry": { "type": "MultiPolygon", "coordinates": [ [ [ [ 88.512, 27.285 ], [ 88.526, 27.282 ], [ 88.536, 27.292 ], [ 88.551, 27.289 ], [ 88.561, 27.299 ], [ 88.557, 27.311 ], [ 88.567, 27.32 ], [ 88.563, 27.332 ], [ 88.573, 27.341 ], [ 88.569, 27.353 ], [ 88.579, 27.363 ], [ 88.575, 27.375 ], [ 88.561, 27.377 ], [ 88.551, 27.368 ], [ 88.536, 27.37 ], [ 88.526, 27.361 ], [ 88.512, 27.363 ], [ 88.502, 27.354 ], [ 88.506, 27.342 ], [ 88.52, 27.339 ], [ 88.524, 27.328 ], [ 88.514, 27.318 ], [ 88.5, 27.321 ], [ 88.489, 27.311 ], [ 88.475, 27.314 ], [ 88.465, 27.304 ], [ 88.469, 27.292 ], [ 88.483, 27.29 ], [ 88.487, 27.278 ], [ 88.502, 27.275 ], [ 88.512, 27.285 ] ] ] ] } },
{ "type": "Feature", "properties": { "POLYGON.ID": 678.0, "subregion": "India--Sikkim--East--low Himalaya", "POLYGON": "India--Sikkim--East--low Himalaya", "SHOW": "1", "FILTER": "Not-Assigned", "FILTER.ID": null, "OLD.POLYGON": null, "STATE": "Sikkim", "COUNTY": "spl_region", "OWNER": null }, "geometry": { "type": "MultiPolygon", "coordinates": [ [ [ [ 88.487, 27.199 ], [ 88.502, 27.197 ], [ 88.506, 27.185 ], [ 88.52, 27.182 ], [ 88.524, 27.17 ], [ 88.538, 27.168 ], [ 88.549, 27.177 ], [ 88.563, 27.175 ], [ 88.573, 27.184 ], [ 88.587, 27.182 ], [ 88.598, 27.191 ], [ 88.612, 27.188 ], [ 88.616, 27.177 ], [ 88.63, 27.174 ], [ 88.634, 27.162 ], [ 88.648, 27.159 ], [ 88.659, 27.169 ], [ 88.673, 27.166 ], [ 88.683, 27.176 ], [ 88.697, 27.173 ], [ 88.708, 27.183 ], [ 88.704, 27.195 ], [ 88.714, 27.204 ], [ 88.71, 27.216 ], [ 88.695, 27.219 ], [ 88.691, 27.231 ], [ 88.677, 27.233 ], [ 88.673, 27.245 ], [ 88.659, 27.248 ], [ 88.648, 27.238 ], [ 88.634, 27.241 ], [ 88.63, 27.253 ], [ 88.616, 27.255 ], [ 88.606, 27.246 ], [ 88.591, 27.248 ], [ 88.581, 27.239 ], [ 88.567, 27.241 ], [ 88.557, 27.232 ], [ 88.542, 27.234 ], [ 88.532, 27.225 ], [ 88.518, 27.228 ], [ 88.508, 27.218 ], [ 88.494, 27.221 ], [ 88.483, 27.211 ], [ 88.487, 27.199 ] ] ] ] } },
{ "type": "Feature", "properties": { "POLYGON.ID": 677.0, "subregion": "India--Sikkim--East--mid Himalaya--Gangtok", "POLYGON": "India--Sikkim--East--mid Himalaya--Gangtok", "SHOW": "1", "FILTER": "Not-Assigned", "FILTER.ID": null, "OLD.POLYGON": null, "STATE": "Sikkim", "COUNTY": "spl_region", "OWNER": null }, "geometry": { "type": "MultiPolygon", "coordinates": [ [ [ [ 88.493, 27.378 ], [ 88.483, 27.368 ], [ 88.487, 27.356 ], [ 88.477, 27.347 ], [ 88.481, 27.335 ], [ 88.471, 27.326 ], [ 88.457, 27.328 ], [ 88.447, 27.319 ], [ 88.451, 27.307 ], [ 88.44, 27.297 ], [ 88.445, 27.285 ], [ 88.434, 27.276 ], [ 88.438, 27.264 ], [ 88.453, 27.262 ], [ 88.457, 27.25 ], [ 88.471, 27.247 ], [ 88.475, 27.235 ], [ 88.489, 27.233 ], [ 88.494, 27.221 ], [ 88.508, 27.218 ], [ 88.518, 27.228 ], [ 88.532, 27.225 ], [ 88.542, 27.234 ], [ 88.557, 27.232 ], [ 88.567, 27.241 ], [ 88.581, 27.239 ], [ 88.591, 27.248 ], [ 88.606, 27.246 ], [ 88.616, 27.255 ], [ 88.63, 27.253 ], [ 88.64, 27.262 ], [ 88.636, 27.274 ], [ 88.646, 27.283 ], [ 88.661, 27.281 ], [ 88.671, 27.29 ], [ 88.667, 27.302 ], [ 88.653, 27.305 ], [ 88.648, 27.317 ], [ 88.659, 27.326 ], [ 88.655, 27.338 ], [ 88.665, 27.348 ], [ 88.661, 27.359 ], [ 88.646, 27.362 ], [ 88.642, 27.374 ], [ 88.628, 27.376 ], [ 88.624, 27.388 ], [ 88.61, 27.391 ], [ 88.606, 27.403 ], [ 88.591, 27.405 ], [ 88.581, 27.396 ], [ 88.567, 27.398 ], [ 88.557, 27.389 ], [ 88.542, 27.392 ], [ 88.538, 27.403 ], [ 88.524, 27.406 ], [ 88.514, 27.397 ], [ 88.5, 27.399 ], [ 88.489, 27.39 ], [ 88.493, 27.378 ] ], [ [ 88.512, 27.285 ], [ 88.502, 27.275 ], [ 88.487, 27.278 ], [ 88.483, 27.29 ], [ 88.469, 27.292 ], [ 88.465, 27.304 ], [ 88.475, 27.314 ], [ 88.489, 27.311 ], [ 88.5, 27.321 ], [ 88.514, 27.318 ], [ 88.524, 27.328 ], [ 88.52, 27.339 ], [ 88.506, 27.342 ], [ 88.502, 27.354 ], [ 88.512, 27.363 ], [ 88.526, 27.361 ], [ 88.536, 27.37 ], [ 88.551, 27.368 ], [ 88.561, 27.377 ], [ 88.575, 27.375 ], [ 88.579, 27.363 ], [ 88.569, 27.353 ], [ 88.573, 27.341 ], [ 88.563, 27.332 ], [ 88.567, 27.32 ], [ 88.557, 27.311 ], [ 88.561, 27.299 ], [ 88.551, 27.289 ], [ 88.536, 27.292 ], [ 88.526, 27.282 ], [ 88.512, 27.285 ] ] ] ] } },
{ "type": "Feature", "properties": { "POLYGON.ID": 668.0, "subregion": "India--Sikkim--North--high Himalaya--Lachen and Lachung", "POLYGON": "India--Sikkim--North--high Himalaya--Lachen and Lachung", "SHOW": "1", "FILTER": "Not-Assigned", "FILTER.ID": null, "OLD.POLYGON": null, "STATE": "Sikkim", "COUNTY": "spl_region", "OWNER": null }, "geometry": { "type": "MultiPolygon", "coordinates": [ [ [ [ 88.677, 27.469 ], [ 88.673, 27.481 ], [ 88.683, 27.49 ], [ 88.679, 27.502 ], [ 88.689, 27.511 ], [ 88.704, 27.509 ], [ 88.714, 27.518 ], [ 88.71, 27.53 ], [ 88.72, 27.54 ], [ 88.716, 27.551 ], [ 88.726, 27.561 ], [ 88.722, 27.573 ], [ 88.708, 27.575 ], [ 88.704, 27.587 ], [ 88.689, 27.59 ], [ 88.685, 27.602 ], [ 88.695, 27.611 ], [ 88.71, 27.609 ], [ 88.72, 27.618 ], [ 88.734, 27.615 ], [ 88.744, 27.625 ], [ 88.759, 27.622 ], [ 88.769, 27.632 ], [ 88.765, 27.644 ], [ 88.775, 27.653 ], [ 88.771, 27.665 ], [ 88.781, 27.674 ], [ 88.777, 27.686 ], [ 88.763, 27.689 ], [ 88.759, 27.701 ], [ 88.769, 27.71 ], [ 88.765, 27.722 ], [ 88.775, 27.731 ], [ 88.771, 27.743 ], [ 88.781, 27.752 ], [ 88.777, 27.764 ], [ 88.763, 27.767 ], [ 88.753, 27.758 ], [ 88.738, 27.76 ], [ 88.734, 27.772 ], [ 88.72, 27.774 ], [ 88.71, 27.765 ], [ 88.714, 27.753 ], [ 88.728, 27.751 ], [ 88.732, 27.739 ], [ 88.746, 27.736 ], [ 88.751, 27.724 ], [ 88.74, 27.715 ], [ 88.744, 27.703 ], [ 88.734, 27.694 ], [ 88.72, 27.696 ], [ 88.71, 27.687 ], [ 88.714, 27.675 ], [ 88.704, 27.666 ], [ 88.708, 27.654 ], [ 88.697, 27.644 ], [ 88.683, 27.647 ], [ 88.673, 27.637 ], [ 88.659, 27.64 ], [ 88.648, 27.63 ], [ 88.634, 27.633 ], [ 88.63, 27.645 ], [ 88.64, 27.654 ], [ 88.636, 27.666 ], [ 88.646, 27.676 ], [ 88.642, 27.687 ], [ 88.628, 27.69 ], [ 88.624, 27.702 ], [ 88.634, 27.711 ], [ 88.63, 27.723 ], [ 88.616, 27.726 ], [ 88.605, 27.716 ], [ 88.591, 27.719 ], [ 88.587, 27.731 ], [ 88.597, 27.74 ], [ 88.593, 27.752 ], [ 88.579, 27.754 ], [ 88.569, 27.745 ], [ 88.554, 27.748 ], [ 88.544, 27.738 ], [ 88.53, 27.741 ], [ 88.52, 27.731 ], [ 88.524, 27.719 ], [ 88.538, 27.717 ], [ 88.542, 27.705 ], [ 88.532, 27.696 ], [ 88.536, 27.684 ], [ 88.55, 27.681 ], [ 88.554, 27.669 ], [ 88.544, 27.66 ], [ 88.548, 27.648 ], [ 88.563, 27.646 ], [ 88.567, 27.634 ], [ 88.581, 27.631 ], [ 88.585, 27.619 ], [ 88.599, 27.617 ], [ 88.603, 27.605 ], [ 88.593, 27.595 ], [ 88.597, 27.584 ], [ 88.587, 27.574 ], [ 88.591, 27.562 ], [ 88.606, 27.56 ], [ 88.61, 27.548 ], [ 88.624, 27.545 ], [ 88.628, 27.533 ], [ 88.618, 27.524 ], [ 88.622, 27.512 ], [ 88.612, 27.503 ], [ 88.616, 27.491 ], [ 88.606, 27.481 ], [ 88.61, 27.469 ], [ 88.624, 27.467 ], [ 88.628, 27.455 ], [ 88.642, 27.452 ], [ 88.646, 27.44 ], [ 88.636, 27.431 ], [ 88.64, 27.419 ], [ 88.63, 27.41 ], [ 88.634, 27.398 ], [ 88.648, 27.395 ], [ 88.659, 27.405 ], [ 88.673, 27.402 ], [ 88.683, 27.412 ], [ 88.679, 27.424 ], [ 88.689, 27.433 ], [ 88.685, 27.445 ], [ 88.695, 27.454 ], [ 88.691, 27.466 ], [ 88.677, 27.469 ] ] ] ] } },
{ "type": "Feature", "properties": { "POLYGON.ID": 667.0, "subregion": "India--Sikkim--North--mid Himalaya", "POLYGON": "India--Sikkim--North--mid Himalaya", "SHOW": "1", "FILTER": "Not-Assigned", "FILTER.ID": null, "OLD.POLYGON": null, "STATE": "Sikkim", "COUNTY": "spl_region", "OWNER": null }, "geometry": { "type": "MultiPolygon", "coordinates": [ [ [ [ 88.495, 27.568 ], [ 88.481, 27.57 ], [ 88.471, 27.561 ], [ 88.457, 27.563 ], [ 88.452, 27.575 ], [ 88.438, 27.578 ], [ 88.428, 27.568 ], [ 88.432, 27.556 ], [ 88.446, 27.554 ], [ 88.45, 27.542 ], [ 88.465, 27.54 ], [ 88.469, 27.528 ], [ 88.483, 27.525 ], [ 88.487, 27.513 ], [ 88.477, 27.504 ], [ 88.481, 27.492 ], [ 88.495, 27.489 ], [ 88.499, 27.478 ], [ 88.489, 27.468 ], [ 88.493, 27.456 ], [ 88.483, 27.447 ], [ 88.487, 27.435 ], [ 88.477, 27.425 ], [ 88.481, 27.414 ], [ 88.471, 27.404 ], [ 88.475, 27.392 ], [ 88.489, 27.39 ], [ 88.5, 27.399 ], [ 88.514, 27.397 ], [ 88.524, 27.406 ], [ 88.538, 27.403 ], [ 88.542, 27.392 ], [ 88.557, 27.389 ], [ 88.567, 27.398 ], [ 88.581, 27.396 ], [ 88.591, 27.405 ], [ 88.606, 27.403 ], [ 88.61, 27.391 ], [ 88.624, 27.388 ], [ 88.634, 27.398 ], [ 88.63, 27.41 ], [ 88.64, 27.419 ], [ 88.636, 27.431 ], [ 88.646, 27.44 ], [ 88.642, 27.452 ], [ 88.628, 27.455 ], [ 88.624, 27.467 ], [ 88.61, 27.469 ], [ 88.606, 27.481 ], [ 88.616, 27.491 ], [ 88.612, 27.503 ], [ 88.622, 27.512 ], [ 88.618, 27.524 ], [ 88.628, 27.533 ], [ 88.624, 27.545 ], [ 88.61, 27.548 ], [ 88.606, 27.56 ], [ 88.591, 27.562 ], [ 88.587, 27.574 ], [ 88.573, 27.577 ], [ 88.563, 27.567 ], [ 88.548, 27.57 ], [ 88.538, 27.56 ], [ 88.524, 27.563 ], [ 88.52, 27.575 ], [ 88.506, 27.577 ], [ 88.495, 27.568 ] ] ] ] } },
{ "type": "Feature", "properties": { "POLYGON.ID": 666.0, "subregion": "India--Sikkim--North--trans Himalaya", "POLYGON": "India--Sikkim--North--trans Himalaya", "SHOW": "1", "FILTER": "Not-Assigned", "FILTER.ID": null, "OLD.POLYGON": null, "STATE": "Sikkim", "COUNTY": "spl_region", "OWNER": null }, "geometry": { "type": "MultiPolygon", "coordinates": [ [ [ [ 88.487, 28.06 ], [ 88.477, 28.051 ], [ 88.462, 28.053 ], [ 88.452, 28.044 ], [ 88.456, 28.032 ], [ 88.446, 28.023 ], [ 88.432, 28.025 ], [ 88.421, 28.016 ], [ 88.407, 28.018 ], [ 88.397, 28.009 ], [ 88.401, 27.997 ], [ 88.391, 27.988 ], [ 88.376, 27.99 ], [ 88.372, 28.002 ], [ 88.358, 28.005 ], [ 88.348, 27.995 ], [ 88.334, 27.998 ], [ 88.323, 27.988 ], [ 88.309, 27.991 ], [ 88.299, 27.981 ], [ 88.285, 27.984 ], [ 88.274, 27.974 ], [ 88.26, 27.977 ], [ 88.256, 27.989 ], [ 88.242, 27.991 ], [ 88.232, 27.982 ], [ 88.217, 27.984 ], [ 88.207, 27.975 ], [ 88.193, 27.977 ], [ 88.183, 27.968 ], [ 88.168, 27.97 ], [ 88.164, 27.982 ], [ 88.15, 27.985 ], [ 88.14, 27.975 ], [ 88.144, 27.963 ], [ 88.134, 27.954 ], [ 88.119, 27.956 ], [ 88.109, 27.947 ], [ 88.113, 27.935 ], [ 88.103, 27.926 ], [ 88.107, 27.914 ], [ 88.121, 27.911 ], [ 88.126, 27.9 ], [ 88.115, 27.89 ], [ 88.119, 27.878 ], [ 88.134, 27.876 ], [ 88.138, 27.864 ], [ 88.152, 27.862 ], [ 88.156, 27.85 ], [ 88.171, 27.847 ], [ 88.175, 27.836 ], [ 88.164, 27.826 ], [ 88.169, 27.814 ], [ 88.183, 27.812 ], [ 88.187, 27.8 ], [ 88.201, 27.798 ], [ 88.211, 27.807 ], [ 88.226, 27.804 ], [ 88.23, 27.793 ], [ 88.244, 27.79 ], [ 88.254, 27.8 ], [ 88.269, 27.797 ], [ 88.279, 27.806 ], [ 88.293, 27.804 ], [ 88.303, 27.813 ], [ 88.317, 27.811 ], [ 88.328, 27.82 ], [ 88.324, 27.832 ], [ 88.334, 27.842 ], [ 88.348, 27.839 ], [ 88.358, 27.849 ], [ 88.373, 27.846 ], [ 88.383, 27.855 ], [ 88.397, 27.853 ], [ 88.407, 27.862 ], [ 88.403, 27.874 ], [ 88.413, 27.884 ], [ 88.409, 27.895 ], [ 88.419, 27.905 ], [ 88.434, 27.902 ], [ 88.444, 27.912 ], [ 88.44, 27.924 ], [ 88.45, 27.933 ], [ 88.464, 27.931 ], [ 88.475, 27.94 ], [ 88.47, 27.952 ], [ 88.481, 27.961 ], [ 88.477, 27.973 ], [ 88.487, 27.982 ], [ 88.501, 27.98 ], [ 88.505, 27.968 ], [ 88.495, 27.959 ], [ 88.499, 27.947 ], [ 88.489, 27.937 ], [ 88.493, 27.926 ], [ 88.483, 27.916 ], [ 88.487, 27.904 ], [ 88.501, 27.902 ], [ 88.511, 27.911 ], [ 88.526, 27.909 ], [ 88.536, 27.918 ], [ 88.55, 27.916 ], [ 88.554, 27.904 ], [ 88.569, 27.901 ], [ 88.579, 27.911 ], [ 88.593, 27.908 ], [ 88.603, 27.918 ], [ 88.599, 27.929 ], [ 88.609, 27.939 ], [ 88.605, 27.951 ], [ 88.591, 27.953 ], [ 88.587, 27.965 ], [ 88.597, 27.974 ], [ 88.593, 27.986 ], [ 88.603, 27.996 ], [ 88.618, 27.993 ], [ 88.628, 28.002 ], [ 88.642, 28.0 ], [ 88.646, 27.988 ], [ 88.661, 27.986 ], [ 88.671, 27.995 ], [ 88.685, 27.992 ], [ 88.695, 28.002 ], [ 88.71, 27.999 ], [ 88.72, 28.009 ], [ 88.734, 28.006 ], [ 88.738, 27.994 ], [ 88.753, 27.992 ], [ 88.757, 27.98 ], [ 88.771, 27.977 ], [ 88.781, 27.987 ], [ 88.796, 27.984 ], [ 88.806, 27.994 ], [ 88.82, 27.991 ], [ 88.824, 27.979 ], [ 88.839, 27.977 ], [ 88.843, 27.965 ], [ 88.857, 27.962 ], [ 88.867, 27.972 ], [ 88.863, 27.984 ], [ 88.873, 27.993 ], [ 88.869, 28.005 ], [ 88.855, 28.007 ], [ 88.851, 28.019 ], [ 88.837, 28.022 ], [ 88.832, 28.034 ], [ 88.818, 28.036 ], [ 88.814, 28.048 ], [ 88.8, 28.05 ], [ 88.796, 28.062 ], [ 88.781, 28.065 ], [ 88.777, 28.077 ], [ 88.763, 28.079 ], [ 88.759, 28.091 ], [ 88.744, 28.093 ], [ 88.734, 28.084 ], [ 88.72, 28.087 ], [ 88.716, 28.098 ], [ 88.701, 28.101 ], [ 88.691, 28.092 ], [ 88.677, 28.094 ], [ 88.673, 28.106 ], [ 88.659, 28.108 ], [ 88.654, 28.12 ], [ 88.64, 28.123 ], [ 88.636, 28.135 ], [ 88.622, 28.137 ], [ 88.618, 28.149 ], [ 88.603, 28.151 ], [ 88.593, 28.142 ], [ 88.597, 28.13 ], [ 88.587, 28.121 ], [ 88.591, 28.109 ], [ 88.581, 28.1 ], [ 88.566, 28.102 ], [ 88.556, 28.093 ], [ 88.542, 28.095 ], [ 88.532, 28.086 ], [ 88.536, 28.074 ], [ 88.526, 28.065 ], [ 88.511, 28.067 ], [ 88.501, 28.058 ], [ 88.487, 28.06 ] ] ] ] } },
{ "type": "Feature", "properties": { "POLYGON.ID": 669.0, "subregion": "India--Sikkim--West--sub trans Himalaya", "POLYGON": "India--Sikkim--West--sub trans Himalaya", "SHOW": "1", "FILTER": "Not-Assigned", "FILTER.ID": null, "OLD.POLYGON": null, "STATE": "Sikkim", "COUNTY": "spl_region", "OWNER": null }, "geometry": { "type": "MultiPolygon", "coordinates": [ [ [ [ 88.049, 27.578 ], [ 88.053, 27.566 ], [ 88.043, 27.557 ], [ 88.047, 27.545 ], [ 88.037, 27.536 ], [ 88.041, 27.524 ], [ 88.031, 27.514 ], [ 88.035, 27.502 ], [ 88.025, 27.493 ], [ 88.029, 27.481 ], [ 88.043, 27.479 ], [ 88.047, 27.467 ], [ 88.037, 27.457 ], [ 88.041, 27.445 ], [ 88.055, 27.443 ], [ 88.059, 27.431 ], [ 88.049, 27.422 ], [ 88.035, 27.424 ], [ 88.025, 27.415 ], [ 88.029, 27.403 ], [ 88.019, 27.393 ], [ 88.023, 27.381 ], [ 88.037, 27.379 ], [ 88.041, 27.367 ], [ 88.055, 27.364 ], [ 88.066, 27.374 ], [ 88.08, 27.371 ], [ 88.084, 27.36 ], [ 88.098, 27.357 ], [ 88.108, 27.366 ], [ 88.123, 27.364 ], [ 88.133, 27.373 ], [ 88.147, 27.371 ], [ 88.157, 27.38 ], [ 88.153, 27.392 ], [ 88.139, 27.395 ], [ 88.135, 27.407 ], [ 88.145, 27.416 ], [ 88.141, 27.428 ], [ 88.151, 27.437 ], [ 88.147, 27.449 ], [ 88.157, 27.459 ], [ 88.153, 27.471 ], [ 88.163, 27.48 ], [ 88.177, 27.478 ], [ 88.188, 27.487 ], [ 88.202, 27.485 ], [ 88.206, 27.473 ], [ 88.22, 27.47 ], [ 88.224, 27.458 ], [ 88.239, 27.456 ], [ 88.243, 27.444 ], [ 88.257, 27.442 ], [ 88.267, 27.451 ], [ 88.263, 27.463 ], [ 88.273, 27.472 ], [ 88.269, 27.484 ], [ 88.279, 27.494 ], [ 88.293, 27.491 ], [ 88.304, 27.501 ], [ 88.3, 27.512 ], [ 88.285, 27.515 ], [ 88.281, 27.527 ], [ 88.267, 27.529 ], [ 88.263, 27.541 ], [ 88.249, 27.544 ], [ 88.244, 27.556 ], [ 88.23, 27.558 ], [ 88.226, 27.57 ], [ 88.212, 27.572 ], [ 88.208, 27.584 ], [ 88.193, 27.587 ], [ 88.183, 27.577 ], [ 88.169, 27.58 ], [ 88.165, 27.592 ], [ 88.151, 27.594 ], [ 88.147, 27.606 ], [ 88.132, 27.608 ], [ 88.128, 27.62 ], [ 88.114, 27.623 ], [ 88.104, 27.613 ], [ 88.089, 27.616 ], [ 88.079, 27.606 ], [ 88.083, 27.595 ], [ 88.073, 27.585 ], [ 88.059, 27.588 ], [ 88.049, 27.578 ] ] ] ] } },
{ "type": "Feature", "properties": { "POLYGON.ID": 670.0, "subregion": "India--Sikkim--South--sub trans Himalaya", "POLYGON": "India--Sikkim--South--sub trans Himalaya", "SHOW": "1", "FILTER": "Not-Assigned", "FILTER.ID": null, "OLD.POLYGON": null, "STATE": "Sikkim", "COUNTY": "spl_region", "OWNER": null }, "geometry": { "type": "MultiPolygon", "coordinates": [ [ [ [ 88.279, 27.415 ], [ 88.294, 27.413 ], [ 88.304, 27.422 ], [ 88.318, 27.42 ], [ 88.322, 27.408 ], [ 88.336, 27.405 ], [ 88.347, 27.415 ], [ 88.361, 27.412 ], [ 88.371, 27.422 ], [ 88.367, 27.434 ], [ 88.377, 27.443 ], [ 88.391, 27.44 ], [ 88.402, 27.45 ], [ 88.397, 27.462 ], [ 88.408, 27.471 ], [ 88.404, 27.483 ], [ 88.389, 27.486 ], [ 88.385, 27.498 ], [ 88.371, 27.5 ], [ 88.367, 27.512 ], [ 88.353, 27.514 ], [ 88.342, 27.505 ], [ 88.328, 27.507 ], [ 88.318, 27.498 ], [ 88.304, 27.501 ], [ 88.293, 27.491 ], [ 88.279, 27.494 ], [ 88.269, 27.484 ], [ 88.273, 27.472 ], [ 88.263, 27.463 ], [ 88.267, 27.451 ], [ 88.257, 27.442 ], [ 88.261, 27.43 ], [ 88.275, 27.427 ], [ 88.279, 27.415 ] ] ] ] } },
{ "type": "Feature", "properties": { "POLYGON.ID": 671.0, "subregion": "India--Sikkim--South--high Himalaya", "POLYGON": "India--Sikkim--South--high Himalaya", "SHOW": "1", "FILTER": "Not-Assigned", "FILTER.ID": null, "OLD.POLYGON": null, "STATE": "Sikkim", "COUNTY": "spl_region", "OWNER": null }, "geometry": { "type": "MultiPolygon", "coordinates": [ [ [ [ 88.432, 27.4 ], [ 88.428, 27.412 ], [ 88.414, 27.414 ], [ 88.41, 27.426 ], [ 88.42, 27.435 ], [ 88.416, 27.447 ], [ 88.402, 27.45 ], [ 88.391, 27.44 ], [ 88.377, 27.443 ], [ 88.367, 27.434 ], [ 88.371, 27.422 ], [ 88.361, 27.412 ], [ 88.365, 27.4 ], [ 88.355, 27.391 ], [ 88.359, 27.379 ], [ 88.349, 27.369 ], [ 88.334, 27.372 ], [ 88.324, 27.363 ], [ 88.328, 27.351 ], [ 88.343, 27.348 ], [ 88.347, 27.336 ], [ 88.361, 27.334 ], [ 88.365, 27.322 ], [ 88.379, 27.319 ], [ 88.383, 27.307 ], [ 88.398, 27.305 ], [ 88.408, 27.314 ], [ 88.404, 27.326 ], [ 88.414, 27.336 ], [ 88.428, 27.333 ], [ 88.438, 27.343 ], [ 88.434, 27.354 ], [ 88.444, 27.364 ], [ 88.459, 27.361 ], [ 88.469, 27.371 ], [ 88.483, 27.368 ], [ 88.493, 27.378 ], [ 88.489, 27.39 ], [ 88.475, 27.392 ], [ 88.471, 27.404 ], [ 88.457, 27.407 ], [ 88.446, 27.397 ], [ 88.432, 27.4 ] ] ] ] } },
{ "type": "Feature", "properties": { "POLYGON.ID": 672.0, "subregion": "India--Sikkim--South--low Himalaya", "POLYGON": "India--Sikkim--South--low Himalaya", "SHOW": "1", "FILTER": "Not-Assigned", "FILTER.ID": null, "OLD.POLYGON": null, "STATE": "Sikkim", "COUNTY": "spl_region", "OWNER": null }, "geometry": { "type": "MultiPolygon", "coordinates": [ [ [ [ 88.39, 27.093 ], [ 88.404, 27.09 ], [ 88.408, 27.078 ], [ 88.422, 27.076 ], [ 88.433, 27.085 ], [ 88.447, 27.083 ], [ 88.457, 27.092 ], [ 88.453, 27.104 ], [ 88.463, 27.114 ], [ 88.477, 27.111 ], [ 88.488, 27.121 ], [ 88.502, 27.118 ], [ 88.512, 27.127 ], [ 88.508, 27.139 ], [ 88.518, 27.149 ], [ 88.532, 27.146 ], [ 88.542, 27.156 ], [ 88.538, 27.168 ], [ 88.524, 27.17 ], [ 88.52, 27.182 ], [ 88.506, 27.185 ], [ 88.502, 27.197 ], [ 88.487, 27.199 ], [ 88.483, 27.211 ], [ 88.494, 27.221 ], [ 88.489, 27.233 ], [ 88.475, 27.235 ], [ 88.465, 27.226 ], [ 88.451, 27.228 ], [ 88.441, 27.219 ], [ 88.445, 27.207 ], [ 88.434, 27.197 ], [ 88.42, 27.2 ], [ 88.41, 27.19 ], [ 88.396, 27.193 ], [ 88.386, 27.183 ], [ 88.371, 27.186 ], [ 88.361, 27.177 ], [ 88.347, 27.179 ], [ 88.343, 27.191 ], [ 88.329, 27.194 ], [ 88.318, 27.184 ], [ 88.322, 27.172 ], [ 88.312, 27.163 ], [ 88.316, 27.151 ], [ 88.306, 27.141 ], [ 88.292, 27.144 ], [ 88.282, 27.134 ], [ 88.286, 27.122 ], [ 88.3, 27.12 ], [ 88.31, 27.129 ], [ 88.325, 27.127 ], [ 88.329, 27.115 ], [ 88.343, 27.112 ], [ 88.347, 27.1 ], [ 88.361, 27.098 ], [ 88.365, 27.086 ], [ 88.38, 27.083 ], [ 88.39, 27.093 ] ] ] ] } },
{ "type": "Feature", "properties": { "POLYGON.ID": 673.0, "subregion": "India--Sikkim--West--mid Himalaya", "POLYGON": "India--Sikkim--West--mid Himalaya", "SHOW": "1", "FILTER": "Not-Assigned", "FILTER.ID": null, "OLD.POLYGON": null, "STATE": "Sikkim", "COUNTY": "spl_region", "OWNER": null }, "geometry": { "type": "MultiPolygon", "coordinates": [ [ [ [ 88.206, 27.237 ], [ 88.196, 27.228 ], [ 88.2, 27.216 ], [ 88.214, 27.213 ], [ 88.219, 27.202 ], [ 88.208, 27.192 ], [ 88.194, 27.195 ], [ 88.184, 27.185 ], [ 88.17, 27.188 ], [ 88.166, 27.2 ], [ 88.151, 27.202 ], [ 88.141, 27.193 ], [ 88.145, 27.181 ], [ 88.135, 27.171 ], [ 88.139, 27.159 ], [ 88.129, 27.15 ], [ 88.115, 27.152 ], [ 88.111, 27.164 ], [ 88.097, 27.167 ], [ 88.086, 27.157 ], [ 88.091, 27.145 ], [ 88.105, 27.143 ], [ 88.109, 27.131 ], [ 88.123, 27.128 ], [ 88.127, 27.116 ], [ 88.141, 27.114 ], [ 88.152, 27.123 ], [ 88.166, 27.121 ], [ 88.176, 27.13 ], [ 88.19, 27.128 ], [ 88.2, 27.137 ], [ 88.196, 27.149 ], [ 88.206, 27.159 ], [ 88.221, 27.156 ], [ 88.231, 27.166 ], [ 88.245, 27.163 ], [ 88.255, 27.173 ], [ 88.27, 27.17 ], [ 88.28, 27.18 ], [ 88.276, 27.192 ], [ 88.286, 27.201 ], [ 88.3, 27.199 ], [ 88.31, 27.208 ], [ 88.306, 27.22 ], [ 88.316, 27.229 ], [ 88.312, 27.241 ], [ 88.298, 27.244 ], [ 88.294, 27.256 ], [ 88.28, 27.258 ], [ 88.275, 27.27 ], [ 88.286, 27.28 ], [ 88.282, 27.292 ], [ 88.292, 27.301 ], [ 88.306, 27.298 ], [ 88.316, 27.308 ], [ 88.312, 27.32 ], [ 88.298, 27.322 ], [ 88.294, 27.334 ], [ 88.304, 27.344 ], [ 88.3, 27.356 ], [ 88.286, 27.358 ], [ 88.275, 27.349 ], [ 88.261, 27.351 ], [ 88.257, 27.363 ], [ 88.243, 27.366 ], [ 88.233, 27.356 ], [ 88.218, 27.359 ], [ 88.208, 27.349 ], [ 88.194, 27.352 ], [ 88.184, 27.342 ], [ 88.188, 27.33 ], [ 88.178, 27.321 ], [ 88.182, 27.309 ], [ 88.196, 27.306 ], [ 88.2, 27.295 ], [ 88.19, 27.285 ], [ 88.176, 27.288 ], [ 88.166, 27.278 ], [ 88.151, 27.281 ], [ 88.147, 27.293 ], [ 88.133, 27.295 ], [ 88.123, 27.286 ], [ 88.109, 27.288 ], [ 88.104, 27.3 ], [ 88.09, 27.302 ], [ 88.08, 27.293 ], [ 88.084, 27.281 ], [ 88.074, 27.272 ], [ 88.078, 27.26 ], [ 88.092, 27.257 ], [ 88.096, 27.245 ], [ 88.111, 27.243 ], [ 88.121, 27.252 ], [ 88.135, 27.25 ], [ 88.139, 27.238 ], [ 88.153, 27.235 ], [ 88.164, 27.245 ], [ 88.178, 27.242 ], [ 88.188, 27.252 ], [ 88.202, 27.249 ], [ 88.206, 27.237 ] ] ] ] } },
{ "type": "Feature", "properties": { "POLYGON.ID": 674.0, "subregion": "India--Sikkim--West--low Himalaya", "POLYGON": "India--Sikkim--West--low Himalaya", "SHOW": "1", "FILTER": "Not-Assigned", "FILTER.ID": null, "OLD.POLYGON": null, "STATE": "Sikkim", "COUNTY": "spl_region", "OWNER": null }, "geometry": { "type": "MultiPolygon", "coordinates": [ [ [ [ 88.286, 27.201 ], [ 88.276, 27.192 ], [ 88.28, 27.18 ], [ 88.27, 27.17 ], [ 88.255, 27.173 ], [ 88.245, 27.163 ], [ 88.231, 27.166 ], [ 88.221, 27.156 ], [ 88.206, 27.159 ], [ 88.196, 27.149 ], [ 88.2, 27.137 ], [ 88.215, 27.135 ], [ 88.219, 27.123 ], [ 88.233, 27.12 ], [ 88.243, 27.13 ], [ 88.257, 27.127 ], [ 88.268, 27.137 ], [ 88.282, 27.134 ], [ 88.292, 27.144 ], [ 88.306, 27.141 ], [ 88.316, 27.151 ], [ 88.312, 27.163 ], [ 88.322, 27.172 ], [ 88.318, 27.184 ], [ 88.329, 27.194 ], [ 88.324, 27.205 ], [ 88.31, 27.208 ], [ 88.3, 27.199 ], [ 88.286, 27.201 ] ] ] ] } },
{ "type": "Feature", "properties": { "POLYGON.ID": 675.0, "subregion": "India--Sikkim--West--high Himalaya--Barsey WLS", "POLYGON": "India--Sikkim--West--high Himalaya--Barsey WLS", "SHOW": "1", "FILTER": "Not-Assigned", "FILTER.ID": null, "OLD.POLYGON": null, "STATE": "Sikkim", "COUNTY": "spl_region", "OWNER": null }, "geometry": { "type": "MultiPolygon", "coordinates": [ [ [ [ 88.166, 27.2 ], [ 88.17, 27.188 ], [ 88.184, 27.185 ], [ 88.194, 27.195 ], [ 88.208, 27.192 ], [ 88.219, 27.202 ], [ 88.214, 27.213 ], [ 88.2, 27.216 ], [ 88.196, 27.228 ], [ 88.206, 27.237 ], [ 88.202, 27.249 ], [ 88.188, 27.252 ], [ 88.178, 27.242 ], [ 88.164, 27.245 ], [ 88.153, 27.235 ], [ 88.139, 27.238 ], [ 88.135, 27.25 ], [ 88.121, 27.252 ], [ 88.111, 27.243 ], [ 88.096, 27.245 ], [ 88.092, 27.257 ], [ 88.078, 27.26 ], [ 88.074, 27.272 ], [ 88.06, 27.274 ], [ 88.05, 27.265 ], [ 88.035, 27.267 ], [ 88.031, 27.279 ], [ 88.017, 27.281 ], [ 88.007, 27.272 ], [ 88.011, 27.26 ], [ 88.001, 27.251 ], [ 88.005, 27.239 ], [ 87.995, 27.229 ], [ 87.999, 27.217 ], [ 88.013, 27.215 ], [ 88.023, 27.224 ], [ 88.037, 27.222 ], [ 88.042, 27.21 ], [ 88.056, 27.207 ], [ 88.066, 27.217 ], [ 88.08, 27.214 ], [ 88.084, 27.203 ], [ 88.074, 27.193 ], [ 88.078, 27.181 ], [ 88.092, 27.179 ], [ 88.097, 27.167 ], [ 88.111, 27.164 ], [ 88.115, 27.152 ], [ 88.129, 27.15 ], [ 88.139, 27.159 ], [ 88.135, 27.171 ], [ 88.145, 27.181 ], [ 88.141, 27.193 ], [ 88.151, 27.202 ], [ 88.166, 27.2 ] ] ] ] } },
{ "type": "Feature", "properties": { "POLYGON.ID": 676.0, "subregion": "India--Sikkim--East--sub trans Himalaya", "POLYGON": "India--Sikkim--East--sub trans Himalaya", "SHOW": "1", "FILTER": "Not-Assigned", "FILTER.ID": null, "OLD.POLYGON": null, "STATE": "Sikkim", "COUNTY": "spl_region", "OWNER": null }, "geometry": { "type": "MultiPolygon", "coordinates": [ [ [ [ 88.861, 27.402 ], [ 88.851, 27.393 ], [ 88.836, 27.396 ], [ 88.832, 27.408 ], [ 88.818, 27.41 ], [ 88.814, 27.422 ], [ 88.8, 27.425 ], [ 88.789, 27.415 ], [ 88.775, 27.418 ], [ 88.765, 27.408 ], [ 88.751, 27.411 ], [ 88.746, 27.423 ], [ 88.732, 27.425 ], [ 88.722, 27.416 ], [ 88.708, 27.418 ], [ 88.697, 27.409 ], [ 88.683, 27.412 ], [ 88.673, 27.402 ], [ 88.677, 27.39 ], [ 88.691, 27.388 ], [ 88.695, 27.376 ], [ 88.71, 27.373 ], [ 88.714, 27.361 ], [ 88.728, 27.359 ], [ 88.738, 27.368 ], [ 88.753, 27.366 ], [ 88.757, 27.354 ], [ 88.771, 27.351 ], [ 88.775, 27.339 ], [ 88.789, 27.337 ], [ 88.799, 27.346 ], [ 88.814, 27.344 ], [ 88.818, 27.332 ], [ 88.808, 27.322 ], [ 88.812, 27.31 ], [ 88.826, 27.308 ], [ 88.83, 27.296 ], [ 88.844, 27.293 ], [ 88.848, 27.281 ], [ 88.863, 27.279 ], [ 88.867, 27.267 ], [ 88.857, 27.257 ], [ 88.861, 27.245 ], [ 88.875, 27.243 ], [ 88.885, 27.252 ], [ 88.899, 27.25 ], [ 88.91, 27.259 ], [ 88.906, 27.271 ], [ 88.916, 27.28 ], [ 88.93, 27.278 ], [ 88.94, 27.287 ], [ 88.936, 27.299 ], [ 88.922, 27.302 ], [ 88.918, 27.314 ], [ 88.928, 27.323 ], [ 88.924, 27.335 ], [ 88.91, 27.338 ], [ 88.906, 27.35 ], [ 88.891, 27.352 ], [ 88.887, 27.364 ], [ 88.873, 27.367 ], [ 88.869, 27.379 ], [ 88.879, 27.388 ], [ 88.875, 27.4 ], [ 88.861, 27.402 ] ] ] ] } },
{ "type": "Feature", "properties": { "POLYGON.ID": 681.0, "subregion": "India--Sikkim--East--mid Himalaya", "POLYGON": "India--Sikkim--East--mid Himalaya", "SHOW": "1", "FILTER": "Not-Assigned", "FILTER.ID": null, "OLD.POLYGON": null, "STATE": "Sikkim", "COUNTY": "spl_region", "OWNER": null }, "geometry": { "type": "MultiPolygon", "coordinates": [ [ [ [ 88.636, 27.274 ], [ 88.64, 27.262 ], [ 88.63, 27.253 ], [ 88.634, 27.241 ], [ 88.648, 27.238 ], [ 88.659, 27.248 ], [ 88.673, 27.245 ], [ 88.677, 27.233 ], [ 88.691, 27.231 ], [ 88.695, 27.219 ], [ 88.71, 27.216 ], [ 88.714, 27.204 ], [ 88.704, 27.195 ], [ 88.708, 27.183 ], [ 88.697, 27.173 ], [ 88.702, 27.161 ], [ 88.716, 27.159 ], [ 88.72, 27.147 ], [ 88.734, 27.144 ], [ 88.738, 27.132 ], [ 88.753, 27.13 ], [ 88.763, 27.139 ], [ 88.777, 27.137 ], [ 88.787, 27.146 ], [ 88.783, 27.158 ], [ 88.793, 27.167 ], [ 88.789, 27.179 ], [ 88.775, 27.182 ], [ 88.771, 27.194 ], [ 88.757, 27.196 ], [ 88.753, 27.208 ], [ 88.763, 27.218 ], [ 88.759, 27.23 ], [ 88.744, 27.232 ], [ 88.74, 27.244 ], [ 88.726, 27.247 ], [ 88.722, 27.259 ], [ 88.708, 27.261 ], [ 88.704, 27.273 ], [ 88.689, 27.276 ], [ 88.685, 27.288 ], [ 88.671, 27.29 ], [ 88.661, 27.281 ], [ 88.646, 27.283 ], [ 88.636, 27.274 ] ] ] ] } }
]
}
