{
"type": "FeatureCollection",
"name": "spl_region",
"crs": { "type": "name", "properties": { "name": "urn:ogc:def:crs:OGC:1.3:CRS84" } },
"features": [
{ "type": "Feature", "properties": { "POLYGON.ID": 326.0, "subregion": "IN--WesternEasternGhatsIntermediateMinusBRHills", "FILTER": "spl_region", "POLYGON": "IN--WesternEasternGhatsIntermediateMinusBRHills", "STATE": "spl_region", "COUNTY": "spl_region", "OWNER": null }, "geometry": { "type": "MultiPolygon", "coordinates": [ [ [ [ 77.776, 11.993 ], [ 77.772, 12.006 ], [ 77.78, 12.016 ], [ 77.793, 12.013 ], [ 77.801, 12.023 ], [ 77.797, 12.036 ], [ 77.806, 12.046 ], [ 77.802, 12.058 ], [ 77.811, 12.068 ], [ 77.823, 12.066 ], [ 77.832, 12.075 ], [ 77.828, 12.088 ], [ 77.836, 12.098 ], [ 77.849, 12.095 ], [ 77.858, 12.105 ], [ 77.854, 12.118 ], [ 77.862, 12.128 ], [ 77.858, 12.14 ], [ 77.867, 12.15 ], [ 77.879, 12.148 ], [ 77.888, 12.157 ], [ 77.901, 12.155 ], [ 77.909, 12.165 ], [ 77.922, 12.162 ], [ 77.93, 12.172 ], [ 77.943, 12.169 ], [ 77.952, 12.179 ], [ 77.964, 12.177 ], [ 77.973, 12.187 ], [ 77.986, 12.184 ], [ 77.99, 12.172 ], [ 78.002, 12.169 ], [ 78.011, 12.179 ], [ 78.023, 12.176 ], [ 78.032, 12.186 ], [ 78.028, 12.199 ], [ 78.037, 12.209 ], [ 78.049, 12.206 ], [ 78.058, 12.216 ], [ 78.054, 12.229 ], [ 78.063, 12.238 ], [ 78.059, 12.251 ], [ 78.067, 12.261 ], [ 78.063, 12.273 ], [ 78.072, 12.283 ], [ 78.068, 12.296 ], [ 78.055, 12.299 ], [ 78.051, 12.311 ], [ 78.06, 12.321 ], [ 78.056, 12.334 ], [ 78.043, 12.336 ], [ 78.039, 12.349 ], [ 78.027, 12.351 ], [ 78.023, 12.364 ], [ 78.031, 12.374 ], [ 78.027, 12.386 ], [ 78.015, 12.389 ], [ 78.011, 12.402 ], [ 77.998, 12.404 ], [ 77.994, 12.417 ], [ 78.003, 12.427 ], [ 77.999, 12.439 ], [ 77.986, 12.442 ], [ 77.982, 12.454 ], [ 77.969, 12.457 ], [ 77.965, 12.469 ], [ 77.953, 12.472 ], [ 77.949, 12.485 ], [ 77.957, 12.495 ], [ 77.953, 12.507 ], [ 77.962, 12.517 ], [ 77.958, 12.53 ], [ 77.945, 12.532 ], [ 77.937, 12.522 ], [ 77.924, 12.525 ], [ 77.92, 12.537 ], [ 77.908, 12.54 ], [ 77.899, 12.53 ], [ 77.886, 12.533 ], [ 77.878, 12.523 ], [ 77.865, 12.525 ], [ 77.856, 12.515 ], [ 77.844, 12.518 ], [ 77.835, 12.508 ], [ 77.823, 12.51 ], [ 77.814, 12.501 ], [ 77.818, 12.488 ], [ 77.831, 12.485 ], [ 77.835, 12.473 ], [ 77.826, 12.463 ], [ 77.83, 12.45 ], [ 77.843, 12.448 ], [ 77.847, 12.435 ], [ 77.838, 12.425 ], [ 77.842, 12.413 ], [ 77.833, 12.403 ], [ 77.821, 12.406 ], [ 77.812, 12.396 ], [ 77.8, 12.398 ], [ 77.796, 12.411 ], [ 77.783, 12.413 ], [ 77.774, 12.403 ], [ 77.762, 12.406 ], [ 77.758, 12.418 ], [ 77.766, 12.428 ], [ 77.762, 12.441 ], [ 77.75, 12.444 ], [ 77.746, 12.456 ], [ 77.733, 12.459 ], [ 77.725, 12.449 ], [ 77.712, 12.451 ], [ 77.708, 12.464 ], [ 77.695, 12.466 ], [ 77.691, 12.479 ], [ 77.679, 12.481 ], [ 77.675, 12.494 ], [ 77.662, 12.497 ], [ 77.658, 12.509 ], [ 77.646, 12.512 ], [ 77.642, 12.524 ], [ 77.629, 12.527 ], [ 77.625, 12.539 ], [ 77.613, 12.542 ], [ 77.609, 12.554 ], [ 77.617, 12.564 ], [ 77.613, 12.577 ], [ 77.622, 12.587 ], [ 77.618, 12.599 ], [ 77.626, 12.609 ], [ 77.622, 12.622 ], [ 77.631, 12.632 ], [ 77.643, 12.629 ], [ 77.652, 12.639 ], [ 77.648, 12.651 ], [ 77.657, 12.661 ], [ 77.653, 12.674 ], [ 77.661, 12.684 ], [ 77.657, 12.696 ], [ 77.645, 12.699 ], [ 77.641, 12.711 ], [ 77.628, 12.714 ], [ 77.624, 12.726 ], [ 77.611, 12.729 ], [ 77.607, 12.741 ], [ 77.595, 12.744 ], [ 77.591, 12.756 ], [ 77.578, 12.759 ], [ 77.574, 12.772 ], [ 77.562, 12.774 ], [ 77.553, 12.764 ], [ 77.541, 12.767 ], [ 77.532, 12.757 ], [ 77.536, 12.744 ], [ 77.549, 12.742 ], [ 77.553, 12.729 ], [ 77.544, 12.719 ], [ 77.548, 12.707 ], [ 77.539, 12.697 ], [ 77.543, 12.684 ], [ 77.556, 12.682 ], [ 77.56, 12.669 ], [ 77.551, 12.659 ], [ 77.555, 12.647 ], [ 77.568, 12.644 ], [ 77.572, 12.632 ], [ 77.563, 12.622 ], [ 77.567, 12.609 ], [ 77.559, 12.599 ], [ 77.546, 12.602 ], [ 77.538, 12.592 ], [ 77.525, 12.595 ], [ 77.517, 12.585 ], [ 77.504, 12.587 ], [ 77.5, 12.6 ], [ 77.487, 12.602 ], [ 77.479, 12.592 ], [ 77.466, 12.595 ], [ 77.462, 12.607 ], [ 77.45, 12.61 ], [ 77.441, 12.6 ], [ 77.445, 12.588 ], [ 77.437, 12.578 ], [ 77.424, 12.58 ], [ 77.42, 12.593 ], [ 77.429, 12.603 ], [ 77.425, 12.615 ], [ 77.433, 12.625 ], [ 77.429, 12.638 ], [ 77.438, 12.647 ], [ 77.434, 12.66 ], [ 77.442, 12.67 ], [ 77.438, 12.682 ], [ 77.447, 12.692 ], [ 77.443, 12.705 ], [ 77.451, 12.715 ], [ 77.447, 12.727 ], [ 77.456, 12.737 ], [ 77.452, 12.75 ], [ 77.439, 12.752 ], [ 77.435, 12.765 ], [ 77.444, 12.775 ], [ 77.44, 12.787 ], [ 77.427, 12.79 ], [ 77.419, 12.78 ], [ 77.406, 12.782 ], [ 77.398, 12.772 ], [ 77.402, 12.76 ], [ 77.393, 12.75 ], [ 77.397, 12.737 ], [ 77.389, 12.727 ], [ 77.376, 12.73 ], [ 77.367, 12.72 ], [ 77.355, 12.723 ], [ 77.351, 12.735 ], [ 77.338, 12.738 ], [ 77.334, 12.75 ], [ 77.322, 12.753 ], [ 77.318, 12.765 ], [ 77.305, 12.768 ], [ 77.297, 12.758 ], [ 77.301, 12.745 ], [ 77.292, 12.735 ], [ 77.296, 12.723 ], [ 77.309, 12.72 ], [ 77.313, 12.708 ], [ 77.325, 12.705 ], [ 77.329, 12.693 ], [ 77.342, 12.69 ], [ 77.346, 12.678 ], [ 77.337, 12.668 ], [ 77.341, 12.655 ], [ 77.354, 12.653 ], [ 77.358, 12.64 ], [ 77.349, 12.63 ], [ 77.353, 12.618 ], [ 77.366, 12.615 ], [ 77.37, 12.603 ], [ 77.361, 12.593 ], [ 77.365, 12.581 ], [ 77.357, 12.571 ], [ 77.361, 12.558 ], [ 77.352, 12.548 ], [ 77.356, 12.536 ], [ 77.369, 12.533 ], [ 77.377, 12.543 ], [ 77.39, 12.541 ], [ 77.394, 12.528 ], [ 77.406, 12.525 ], [ 77.415, 12.535 ], [ 77.427, 12.533 ], [ 77.436, 12.543 ], [ 77.449, 12.54 ], [ 77.453, 12.528 ], [ 77.465, 12.525 ], [ 77.469, 12.513 ], [ 77.461, 12.503 ], [ 77.465, 12.49 ], [ 77.456, 12.48 ], [ 77.46, 12.468 ], [ 77.473, 12.465 ], [ 77.481, 12.475 ], [ 77.494, 12.473 ], [ 77.502, 12.483 ], [ 77.515, 12.48 ], [ 77.523, 12.49 ], [ 77.536, 12.487 ], [ 77.54, 12.475 ], [ 77.531, 12.465 ], [ 77.535, 12.452 ], [ 77.548, 12.45 ], [ 77.552, 12.437 ], [ 77.543, 12.427 ], [ 77.531, 12.43 ], [ 77.522, 12.42 ], [ 77.51, 12.423 ], [ 77.501, 12.413 ], [ 77.505, 12.4 ], [ 77.496, 12.39 ], [ 77.484, 12.393 ], [ 77.475, 12.383 ], [ 77.479, 12.37 ], [ 77.471, 12.361 ], [ 77.475, 12.348 ], [ 77.487, 12.345 ], [ 77.491, 12.333 ], [ 77.483, 12.323 ], [ 77.47, 12.326 ], [ 77.466, 12.338 ], [ 77.454, 12.341 ], [ 77.445, 12.331 ], [ 77.433, 12.333 ], [ 77.429, 12.346 ], [ 77.416, 12.348 ], [ 77.412, 12.361 ], [ 77.4, 12.363 ], [ 77.396, 12.376 ], [ 77.404, 12.386 ], [ 77.4, 12.398 ], [ 77.388, 12.401 ], [ 77.379, 12.391 ], [ 77.366, 12.394 ], [ 77.362, 12.406 ], [ 77.35, 12.409 ], [ 77.341, 12.399 ], [ 77.329, 12.401 ], [ 77.325, 12.414 ], [ 77.312, 12.416 ], [ 77.304, 12.406 ], [ 77.291, 12.409 ], [ 77.287, 12.421 ], [ 77.275, 12.424 ], [ 77.266, 12.414 ], [ 77.254, 12.417 ], [ 77.245, 12.407 ], [ 77.233, 12.409 ], [ 77.224, 12.399 ], [ 77.228, 12.387 ], [ 77.22, 12.377 ], [ 77.207, 12.38 ], [ 77.198, 12.37 ], [ 77.186, 12.372 ], [ 77.177, 12.362 ], [ 77.165, 12.365 ], [ 77.156, 12.355 ], [ 77.16, 12.342 ], [ 77.152, 12.332 ], [ 77.156, 12.32 ], [ 77.147, 12.31 ], [ 77.151, 12.298 ], [ 77.164, 12.295 ], [ 77.168, 12.283 ], [ 77.159, 12.273 ], [ 77.163, 12.26 ], [ 77.155, 12.25 ], [ 77.159, 12.238 ], [ 77.171, 12.235 ], [ 77.175, 12.223 ], [ 77.167, 12.213 ], [ 77.171, 12.2 ], [ 77.162, 12.19 ], [ 77.166, 12.178 ], [ 77.179, 12.175 ], [ 77.183, 12.163 ], [ 77.195, 12.16 ], [ 77.204, 12.17 ], [ 77.216, 12.168 ], [ 77.225, 12.178 ], [ 77.221, 12.19 ], [ 77.229, 12.2 ], [ 77.242, 12.197 ], [ 77.246, 12.185 ], [ 77.237, 12.175 ], [ 77.241, 12.163 ], [ 77.254, 12.16 ], [ 77.258, 12.148 ], [ 77.27, 12.145 ], [ 77.274, 12.132 ], [ 77.287, 12.13 ], [ 77.295, 12.14 ], [ 77.308, 12.137 ], [ 77.316, 12.147 ], [ 77.312, 12.16 ], [ 77.321, 12.17 ], [ 77.333, 12.167 ], [ 77.342, 12.177 ], [ 77.355, 12.174 ], [ 77.363, 12.184 ], [ 77.376, 12.182 ], [ 77.384, 12.192 ], [ 77.38, 12.204 ], [ 77.389, 12.214 ], [ 77.401, 12.211 ], [ 77.41, 12.221 ], [ 77.422, 12.219 ], [ 77.426, 12.206 ], [ 77.439, 12.204 ], [ 77.443, 12.191 ], [ 77.434, 12.181 ], [ 77.422, 12.184 ], [ 77.413, 12.174 ], [ 77.417, 12.161 ], [ 77.409, 12.151 ], [ 77.413, 12.139 ], [ 77.404, 12.129 ], [ 77.392, 12.132 ], [ 77.383, 12.122 ], [ 77.387, 12.109 ], [ 77.378, 12.099 ], [ 77.366, 12.102 ], [ 77.357, 12.092 ], [ 77.345, 12.095 ], [ 77.336, 12.085 ], [ 77.324, 12.087 ], [ 77.315, 12.077 ], [ 77.303, 12.08 ], [ 77.294, 12.07 ], [ 77.282, 12.073 ], [ 77.278, 12.085 ], [ 77.265, 12.088 ], [ 77.257, 12.078 ], [ 77.244, 12.08 ], [ 77.24, 12.093 ], [ 77.228, 12.095 ], [ 77.224, 12.108 ], [ 77.211, 12.11 ], [ 77.207, 12.123 ], [ 77.195, 12.126 ], [ 77.191, 12.138 ], [ 77.178, 12.141 ], [ 77.174, 12.153 ], [ 77.162, 12.156 ], [ 77.153, 12.146 ], [ 77.141, 12.148 ], [ 77.132, 12.138 ], [ 77.12, 12.141 ], [ 77.111, 12.131 ], [ 77.099, 12.134 ], [ 77.09, 12.124 ], [ 77.094, 12.111 ], [ 77.086, 12.101 ], [ 77.09, 12.089 ], [ 77.081, 12.079 ], [ 77.085, 12.066 ], [ 77.098, 12.064 ], [ 77.102, 12.051 ], [ 77.093, 12.042 ], [ 77.097, 12.029 ], [ 77.089, 12.019 ], [ 77.093, 12.007 ], [ 77.084, 11.997 ], [ 77.072, 11.999 ], [ 77.063, 11.989 ], [ 77.067, 11.977 ], [ 77.059, 11.967 ], [ 77.063, 11.955 ], [ 77.075, 11.952 ], [ 77.079, 11.94 ], [ 77.071, 11.93 ], [ 77.075, 11.917 ], [ 77.066, 11.907 ], [ 77.07, 11.895 ], [ 77.062, 11.885 ], [ 77.066, 11.872 ], [ 77.057, 11.863 ], [ 77.061, 11.85 ], [ 77.053, 11.84 ], [ 77.057, 11.828 ], [ 77.048, 11.818 ], [ 77.052, 11.805 ], [ 77.044, 11.795 ], [ 77.047, 11.783 ], [ 77.06, 11.78 ], [ 77.068, 11.79 ], [ 77.081, 11.788 ], [ 77.085, 11.775 ], [ 77.097, 11.773 ], [ 77.106, 11.782 ], [ 77.118, 11.78 ], [ 77.122, 11.767 ], [ 77.135, 11.765 ], [ 77.143, 11.775 ], [ 77.156, 11.772 ], [ 77.164, 11.782 ], [ 77.177, 11.779 ], [ 77.185, 11.789 ], [ 77.181, 11.802 ], [ 77.169, 11.804 ], [ 77.165, 11.817 ], [ 77.152, 11.819 ], [ 77.148, 11.832 ], [ 77.136, 11.835 ], [ 77.127, 11.825 ], [ 77.115, 11.827 ], [ 77.111, 11.84 ], [ 77.119, 11.85 ], [ 77.115, 11.862 ], [ 77.103, 11.865 ], [ 77.099, 11.877 ], [ 77.107, 11.887 ], [ 77.103, 11.9 ], [ 77.112, 11.909 ], [ 77.108, 11.922 ], [ 77.117, 11.932 ], [ 77.113, 11.944 ], [ 77.121, 11.954 ], [ 77.117, 11.967 ], [ 77.126, 11.977 ], [ 77.122, 11.989 ], [ 77.13, 11.999 ], [ 77.126, 12.011 ], [ 77.135, 12.021 ], [ 77.131, 12.034 ], [ 77.139, 12.044 ], [ 77.135, 12.056 ], [ 77.144, 12.066 ], [ 77.156, 12.064 ], [ 77.165, 12.073 ], [ 77.161, 12.086 ], [ 77.169, 12.096 ], [ 77.182, 12.093 ], [ 77.186, 12.081 ], [ 77.198, 12.078 ], [ 77.202, 12.066 ], [ 77.215, 12.063 ], [ 77.219, 12.051 ], [ 77.231, 12.048 ], [ 77.235, 12.036 ], [ 77.248, 12.033 ], [ 77.252, 12.02 ], [ 77.243, 12.011 ], [ 77.247, 11.998 ], [ 77.26, 11.995 ], [ 77.264, 11.983 ], [ 77.255, 11.973 ], [ 77.259, 11.961 ], [ 77.251, 11.951 ], [ 77.255, 11.938 ], [ 77.246, 11.928 ], [ 77.233, 11.931 ], [ 77.23, 11.943 ], [ 77.217, 11.946 ], [ 77.208, 11.936 ], [ 77.212, 11.924 ], [ 77.204, 11.914 ], [ 77.208, 11.901 ], [ 77.199, 11.891 ], [ 77.203, 11.879 ], [ 77.195, 11.869 ], [ 77.199, 11.856 ], [ 77.19, 11.847 ], [ 77.194, 11.834 ], [ 77.207, 11.831 ], [ 77.211, 11.819 ], [ 77.202, 11.809 ], [ 77.206, 11.797 ], [ 77.219, 11.794 ], [ 77.227, 11.804 ], [ 77.24, 11.801 ], [ 77.248, 11.811 ], [ 77.261, 11.809 ], [ 77.269, 11.818 ], [ 77.282, 11.816 ], [ 77.286, 11.803 ], [ 77.298, 11.801 ], [ 77.302, 11.788 ], [ 77.315, 11.786 ], [ 77.323, 11.795 ], [ 77.336, 11.793 ], [ 77.34, 11.78 ], [ 77.352, 11.778 ], [ 77.361, 11.788 ], [ 77.373, 11.785 ], [ 77.382, 11.795 ], [ 77.395, 11.792 ], [ 77.398, 11.78 ], [ 77.411, 11.777 ], [ 77.415, 11.765 ], [ 77.428, 11.762 ], [ 77.436, 11.772 ], [ 77.432, 11.785 ], [ 77.441, 11.794 ], [ 77.453, 11.792 ], [ 77.462, 11.802 ], [ 77.458, 11.814 ], [ 77.466, 11.824 ], [ 77.462, 11.837 ], [ 77.471, 11.847 ], [ 77.467, 11.859 ], [ 77.454, 11.862 ], [ 77.45, 11.874 ], [ 77.459, 11.884 ], [ 77.455, 11.897 ], [ 77.463, 11.906 ], [ 77.476, 11.904 ], [ 77.484, 11.914 ], [ 77.48, 11.926 ], [ 77.489, 11.936 ], [ 77.502, 11.934 ], [ 77.51, 11.944 ], [ 77.523, 11.941 ], [ 77.531, 11.951 ], [ 77.544, 11.948 ], [ 77.552, 11.958 ], [ 77.565, 11.955 ], [ 77.569, 11.943 ], [ 77.581, 11.94 ], [ 77.59, 11.95 ], [ 77.603, 11.948 ], [ 77.611, 11.958 ], [ 77.624, 11.955 ], [ 77.632, 11.965 ], [ 77.645, 11.962 ], [ 77.649, 11.95 ], [ 77.661, 11.947 ], [ 77.67, 11.957 ], [ 77.682, 11.954 ], [ 77.686, 11.942 ], [ 77.678, 11.932 ], [ 77.682, 11.919 ], [ 77.673, 11.91 ], [ 77.677, 11.897 ], [ 77.69, 11.894 ], [ 77.698, 11.904 ], [ 77.694, 11.917 ], [ 77.703, 11.927 ], [ 77.699, 11.939 ], [ 77.708, 11.949 ], [ 77.72, 11.947 ], [ 77.729, 11.956 ], [ 77.741, 11.954 ], [ 77.75, 11.964 ], [ 77.762, 11.961 ], [ 77.771, 11.971 ], [ 77.767, 11.984 ], [ 77.776, 11.993 ] ], [ [ 77.28, 12.259 ], [ 77.293, 12.257 ], [ 77.297, 12.244 ], [ 77.288, 12.235 ], [ 77.292, 12.222 ], [ 77.284, 12.212 ], [ 77.271, 12.215 ], [ 77.263, 12.205 ], [ 77.25, 12.207 ], [ 77.246, 12.22 ], [ 77.255, 12.23 ], [ 77.251, 12.242 ], [ 77.259, 12.252 ], [ 77.255, 12.265 ], [ 77.264, 12.275 ], [ 77.276, 12.272 ], [ 77.28, 12.259 ] ] ], [ [ [ 77.794, 11.826 ], [ 77.781, 11.828 ], [ 77.777, 11.841 ], [ 77.765, 11.844 ], [ 77.756, 11.834 ], [ 77.744, 11.836 ], [ 77.735, 11.826 ], [ 77.722, 11.829 ], [ 77.718, 11.842 ], [ 77.706, 11.844 ], [ 77.697, 11.834 ], [ 77.701, 11.822 ], [ 77.714, 11.819 ], [ 77.718, 11.807 ], [ 77.709, 11.797 ], [ 77.713, 11.784 ], [ 77.705, 11.774 ], [ 77.709, 11.762 ], [ 77.7, 11.752 ], [ 77.704, 11.739 ], [ 77.695, 11.729 ], [ 77.699, 11.717 ], [ 77.691, 11.707 ], [ 77.695, 11.694 ], [ 77.686, 11.684 ], [ 77.69, 11.672 ], [ 77.682, 11.662 ], [ 77.686, 11.65 ], [ 77.698, 11.647 ], [ 77.702, 11.634 ], [ 77.715, 11.632 ], [ 77.723, 11.642 ], [ 77.736, 11.639 ], [ 77.744, 11.649 ], [ 77.757, 11.646 ], [ 77.766, 11.656 ], [ 77.778, 11.653 ], [ 77.787, 11.663 ], [ 77.783, 11.676 ], [ 77.791, 11.686 ], [ 77.804, 11.683 ], [ 77.813, 11.693 ], [ 77.825, 11.69 ], [ 77.834, 11.7 ], [ 77.846, 11.698 ], [ 77.855, 11.708 ], [ 77.867, 11.705 ], [ 77.876, 11.715 ], [ 77.872, 11.727 ], [ 77.881, 11.737 ], [ 77.877, 11.75 ], [ 77.864, 11.753 ], [ 77.86, 11.765 ], [ 77.869, 11.775 ], [ 77.865, 11.788 ], [ 77.852, 11.79 ], [ 77.843, 11.78 ], [ 77.831, 11.783 ], [ 77.822, 11.773 ], [ 77.81, 11.776 ], [ 77.806, 11.788 ], [ 77.793, 11.791 ], [ 77.789, 11.803 ], [ 77.798, 11.813 ], [ 77.794, 11.826 ] ] ], [ [ [ 76.795, 11.626 ], [ 76.804, 11.636 ], [ 76.816, 11.633 ], [ 76.82, 11.621 ], [ 76.833, 11.618 ], [ 76.841, 11.628 ], [ 76.837, 11.64 ], [ 76.846, 11.65 ], [ 76.842, 11.663 ], [ 76.85, 11.673 ], [ 76.846, 11.685 ], [ 76.855, 11.695 ], [ 76.867, 11.692 ], [ 76.876, 11.702 ], [ 76.872, 11.715 ], [ 76.859, 11.717 ], [ 76.851, 11.707 ], [ 76.838, 11.71 ], [ 76.83, 11.7 ], [ 76.817, 11.703 ], [ 76.809, 11.693 ], [ 76.796, 11.695 ], [ 76.788, 11.686 ], [ 76.792, 11.673 ], [ 76.783, 11.663 ], [ 76.771, 11.666 ], [ 76.763, 11.656 ], [ 76.75, 11.658 ], [ 76.742, 11.649 ], [ 76.746, 11.636 ], [ 76.758, 11.634 ], [ 76.762, 11.621 ], [ 76.775, 11.619 ], [ 76.783, 11.628 ], [ 76.795, 11.626 ] ] ] ] } }
]
}
