{
"type": "FeatureCollection",
"name": "Tamil_Nadu",
"crs": { "type": "name", "properties": { "name": "urn:ogc:def:crs:OGC:1.3:CRS84" } },
"features": [
{ "type": "Feature", "properties": { "POLYGON.ID": 38.0, "subregion": "India--Tamil Nadu--Plains Districts_CL26732", "FILTER": "Tamil Nadu", "POLYGON": "India--Tamil Nadu--Plains Districts_CL26732", "COUNTY": "spl_region", "STATE": "Tamil Nadu", "OWNER": null }, "geometry": { "type": "MultiPolygon", "coordinates": [ [ [ [ 78.512, 9.474 ], [ 78.521, 9.484 ], [ 78.517, 9.497 ], [ 78.525, 9.506 ], [ 78.521, 9.519 ], [ 78.53, 9.529 ], [ 78.542, 9.526 ], [ 78.551, 9.536 ], [ 78.547, 9.549 ], [ 78.556, 9.558 ], [ 78.552, 9.571 ], [ 78.56, 9.581 ], [ 78.573, 9.578 ], [ 78.582, 9.588 ], [ 78.578, 9.601 ], [ 78.586, 9.61 ], [ 78.582, 9.623 ], [ 78.591, 9.633 ], [ 78.604, 9.63 ], [ 78.612, 9.64 ], [ 78.608, 9.653 ], [ 78.617, 9.662 ], [ 78.613, 9.675 ], [ 78.621, 9.685 ], [ 78.634, 9.682 ], [ 78.643, 9.692 ], [ 78.639, 9.705 ], [ 78.647, 9.714 ], [ 78.643, 9.727 ], [ 78.652, 9.737 ], [ 78.665, 9.734 ], [ 78.673, 9.744 ], [ 78.669, 9.757 ], [ 78.678, 9.766 ], [ 78.691, 9.764 ], [ 78.699, 9.773 ], [ 78.695, 9.786 ], [ 78.704, 9.796 ], [ 78.7, 9.809 ], [ 78.709, 9.818 ], [ 78.721, 9.816 ], [ 78.73, 9.826 ], [ 78.726, 9.838 ], [ 78.735, 9.848 ], [ 78.747, 9.845 ], [ 78.756, 9.855 ], [ 78.752, 9.868 ], [ 78.76, 9.878 ], [ 78.757, 9.89 ], [ 78.765, 9.9 ], [ 78.778, 9.897 ], [ 78.786, 9.907 ], [ 78.782, 9.92 ], [ 78.791, 9.93 ], [ 78.804, 9.927 ], [ 78.812, 9.937 ], [ 78.808, 9.949 ], [ 78.817, 9.959 ], [ 78.813, 9.972 ], [ 78.822, 9.982 ], [ 78.834, 9.979 ], [ 78.843, 9.989 ], [ 78.839, 10.001 ], [ 78.848, 10.011 ], [ 78.86, 10.009 ], [ 78.869, 10.018 ], [ 78.865, 10.031 ], [ 78.874, 10.041 ], [ 78.87, 10.054 ], [ 78.879, 10.063 ], [ 78.891, 10.061 ], [ 78.9, 10.07 ], [ 78.896, 10.083 ], [ 78.905, 10.093 ], [ 78.917, 10.09 ], [ 78.926, 10.1 ], [ 78.922, 10.113 ], [ 78.931, 10.123 ], [ 78.927, 10.135 ], [ 78.935, 10.145 ], [ 78.948, 10.142 ], [ 78.957, 10.152 ], [ 78.953, 10.165 ], [ 78.961, 10.175 ], [ 78.974, 10.172 ], [ 78.983, 10.182 ], [ 78.979, 10.195 ], [ 78.987, 10.204 ], [ 78.983, 10.217 ], [ 78.992, 10.227 ], [ 79.005, 10.224 ], [ 79.013, 10.234 ], [ 79.01, 10.247 ], [ 79.018, 10.257 ], [ 79.031, 10.254 ], [ 79.04, 10.264 ], [ 79.036, 10.276 ], [ 79.044, 10.286 ], [ 79.04, 10.299 ], [ 79.049, 10.309 ], [ 79.062, 10.306 ], [ 79.07, 10.316 ], [ 79.066, 10.328 ], [ 79.075, 10.338 ], [ 79.088, 10.336 ], [ 79.097, 10.345 ], [ 79.093, 10.358 ], [ 79.101, 10.368 ], [ 79.097, 10.381 ], [ 79.106, 10.391 ], [ 79.119, 10.388 ], [ 79.127, 10.398 ], [ 79.123, 10.41 ], [ 79.132, 10.42 ], [ 79.145, 10.417 ], [ 79.154, 10.427 ], [ 79.15, 10.44 ], [ 79.137, 10.443 ], [ 79.133, 10.456 ], [ 79.142, 10.465 ], [ 79.138, 10.478 ], [ 79.146, 10.488 ], [ 79.142, 10.501 ], [ 79.151, 10.511 ], [ 79.147, 10.523 ], [ 79.134, 10.526 ], [ 79.13, 10.539 ], [ 79.139, 10.549 ], [ 79.135, 10.561 ], [ 79.144, 10.571 ], [ 79.14, 10.584 ], [ 79.149, 10.594 ], [ 79.145, 10.606 ], [ 79.153, 10.616 ], [ 79.149, 10.629 ], [ 79.137, 10.632 ], [ 79.133, 10.645 ], [ 79.141, 10.654 ], [ 79.138, 10.667 ], [ 79.146, 10.677 ], [ 79.142, 10.69 ], [ 79.151, 10.7 ], [ 79.147, 10.712 ], [ 79.156, 10.722 ], [ 79.152, 10.735 ], [ 79.139, 10.738 ], [ 79.135, 10.75 ], [ 79.144, 10.76 ], [ 79.14, 10.773 ], [ 79.127, 10.776 ], [ 79.118, 10.766 ], [ 79.106, 10.769 ], [ 79.097, 10.759 ], [ 79.084, 10.761 ], [ 79.08, 10.774 ], [ 79.068, 10.777 ], [ 79.059, 10.767 ], [ 79.046, 10.77 ], [ 79.037, 10.76 ], [ 79.025, 10.763 ], [ 79.021, 10.775 ], [ 79.008, 10.778 ], [ 78.999, 10.768 ], [ 78.987, 10.771 ], [ 78.978, 10.761 ], [ 78.965, 10.764 ], [ 78.961, 10.777 ], [ 78.949, 10.779 ], [ 78.945, 10.792 ], [ 78.953, 10.802 ], [ 78.949, 10.815 ], [ 78.958, 10.824 ], [ 78.971, 10.822 ], [ 78.98, 10.832 ], [ 78.976, 10.844 ], [ 78.984, 10.854 ], [ 78.98, 10.867 ], [ 78.989, 10.877 ], [ 78.985, 10.889 ], [ 78.994, 10.899 ], [ 79.006, 10.897 ], [ 79.015, 10.906 ], [ 79.011, 10.919 ], [ 79.02, 10.929 ], [ 79.033, 10.926 ], [ 79.041, 10.936 ], [ 79.037, 10.949 ], [ 79.046, 10.959 ], [ 79.059, 10.956 ], [ 79.067, 10.966 ], [ 79.08, 10.963 ], [ 79.089, 10.973 ], [ 79.102, 10.97 ], [ 79.11, 10.98 ], [ 79.123, 10.977 ], [ 79.132, 10.987 ], [ 79.144, 10.984 ], [ 79.153, 10.994 ], [ 79.149, 11.007 ], [ 79.158, 11.017 ], [ 79.171, 11.014 ], [ 79.179, 11.024 ], [ 79.192, 11.021 ], [ 79.201, 11.031 ], [ 79.214, 11.028 ], [ 79.222, 11.038 ], [ 79.235, 11.036 ], [ 79.244, 11.046 ], [ 79.256, 11.043 ], [ 79.265, 11.053 ], [ 79.261, 11.065 ], [ 79.27, 11.075 ], [ 79.283, 11.073 ], [ 79.291, 11.082 ], [ 79.304, 11.08 ], [ 79.313, 11.09 ], [ 79.326, 11.087 ], [ 79.334, 11.097 ], [ 79.347, 11.094 ], [ 79.356, 11.104 ], [ 79.352, 11.117 ], [ 79.361, 11.126 ], [ 79.373, 11.124 ], [ 79.382, 11.134 ], [ 79.395, 11.131 ], [ 79.404, 11.141 ], [ 79.417, 11.138 ], [ 79.425, 11.148 ], [ 79.421, 11.161 ], [ 79.43, 11.171 ], [ 79.426, 11.183 ], [ 79.435, 11.193 ], [ 79.431, 11.206 ], [ 79.44, 11.216 ], [ 79.436, 11.228 ], [ 79.444, 11.238 ], [ 79.44, 11.251 ], [ 79.449, 11.261 ], [ 79.445, 11.274 ], [ 79.454, 11.284 ], [ 79.45, 11.296 ], [ 79.459, 11.306 ], [ 79.455, 11.319 ], [ 79.464, 11.329 ], [ 79.476, 11.326 ], [ 79.485, 11.336 ], [ 79.481, 11.349 ], [ 79.49, 11.359 ], [ 79.486, 11.371 ], [ 79.495, 11.381 ], [ 79.491, 11.394 ], [ 79.5, 11.404 ], [ 79.496, 11.417 ], [ 79.504, 11.427 ], [ 79.5, 11.439 ], [ 79.509, 11.449 ], [ 79.505, 11.462 ], [ 79.514, 11.472 ], [ 79.51, 11.485 ], [ 79.519, 11.494 ], [ 79.515, 11.507 ], [ 79.524, 11.517 ], [ 79.52, 11.53 ], [ 79.528, 11.54 ], [ 79.524, 11.552 ], [ 79.533, 11.562 ], [ 79.529, 11.575 ], [ 79.538, 11.585 ], [ 79.534, 11.598 ], [ 79.543, 11.608 ], [ 79.539, 11.62 ], [ 79.548, 11.63 ], [ 79.544, 11.643 ], [ 79.552, 11.653 ], [ 79.548, 11.666 ], [ 79.557, 11.676 ], [ 79.553, 11.688 ], [ 79.562, 11.698 ], [ 79.558, 11.711 ], [ 79.567, 11.721 ], [ 79.58, 11.718 ], [ 79.588, 11.728 ], [ 79.584, 11.741 ], [ 79.593, 11.751 ], [ 79.589, 11.763 ], [ 79.598, 11.773 ], [ 79.594, 11.786 ], [ 79.603, 11.796 ], [ 79.599, 11.809 ], [ 79.608, 11.819 ], [ 79.604, 11.831 ], [ 79.613, 11.841 ], [ 79.609, 11.854 ], [ 79.596, 11.857 ], [ 79.592, 11.869 ], [ 79.601, 11.879 ], [ 79.613, 11.877 ], [ 79.622, 11.886 ], [ 79.618, 11.899 ], [ 79.627, 11.909 ], [ 79.623, 11.922 ], [ 79.632, 11.932 ], [ 79.628, 11.944 ], [ 79.637, 11.954 ], [ 79.633, 11.967 ], [ 79.62, 11.97 ], [ 79.616, 11.982 ], [ 79.625, 11.992 ], [ 79.621, 12.005 ], [ 79.629, 12.015 ], [ 79.625, 12.028 ], [ 79.634, 12.038 ], [ 79.647, 12.035 ], [ 79.651, 12.022 ], [ 79.642, 12.012 ], [ 79.646, 12.0 ], [ 79.637, 11.99 ], [ 79.641, 11.977 ], [ 79.654, 11.974 ], [ 79.663, 11.984 ], [ 79.659, 11.997 ], [ 79.668, 12.007 ], [ 79.664, 12.02 ], [ 79.673, 12.03 ], [ 79.686, 12.027 ], [ 79.694, 12.037 ], [ 79.69, 12.049 ], [ 79.699, 12.059 ], [ 79.695, 12.072 ], [ 79.704, 12.082 ], [ 79.7, 12.095 ], [ 79.709, 12.105 ], [ 79.705, 12.117 ], [ 79.714, 12.127 ], [ 79.71, 12.14 ], [ 79.719, 12.15 ], [ 79.731, 12.147 ], [ 79.74, 12.157 ], [ 79.736, 12.17 ], [ 79.745, 12.18 ], [ 79.741, 12.193 ], [ 79.75, 12.203 ], [ 79.746, 12.215 ], [ 79.755, 12.225 ], [ 79.768, 12.223 ], [ 79.776, 12.232 ], [ 79.772, 12.245 ], [ 79.781, 12.255 ], [ 79.777, 12.268 ], [ 79.786, 12.278 ], [ 79.782, 12.29 ], [ 79.791, 12.3 ], [ 79.804, 12.298 ], [ 79.813, 12.308 ], [ 79.809, 12.32 ], [ 79.818, 12.33 ], [ 79.83, 12.328 ], [ 79.839, 12.338 ], [ 79.835, 12.35 ], [ 79.844, 12.36 ], [ 79.84, 12.373 ], [ 79.849, 12.383 ], [ 79.862, 12.38 ], [ 79.871, 12.39 ], [ 79.867, 12.403 ], [ 79.876, 12.413 ], [ 79.872, 12.426 ], [ 79.88, 12.436 ], [ 79.893, 12.433 ], [ 79.902, 12.443 ], [ 79.898, 12.455 ], [ 79.907, 12.465 ], [ 79.903, 12.478 ], [ 79.912, 12.488 ], [ 79.908, 12.501 ], [ 79.917, 12.511 ], [ 79.93, 12.508 ], [ 79.938, 12.518 ], [ 79.934, 12.531 ], [ 79.943, 12.541 ], [ 79.939, 12.553 ], [ 79.948, 12.563 ], [ 79.944, 12.576 ], [ 79.953, 12.586 ], [ 79.966, 12.583 ], [ 79.975, 12.593 ], [ 79.971, 12.606 ], [ 79.98, 12.616 ], [ 79.976, 12.629 ], [ 79.985, 12.639 ], [ 79.981, 12.651 ], [ 79.989, 12.661 ], [ 79.985, 12.674 ], [ 79.994, 12.684 ], [ 79.99, 12.697 ], [ 79.999, 12.707 ], [ 79.995, 12.719 ], [ 80.004, 12.729 ], [ 80.0, 12.742 ], [ 80.009, 12.752 ], [ 80.005, 12.765 ], [ 80.014, 12.775 ], [ 80.01, 12.787 ], [ 80.019, 12.797 ], [ 80.015, 12.81 ], [ 80.024, 12.82 ], [ 80.02, 12.833 ], [ 80.028, 12.843 ], [ 80.024, 12.855 ], [ 80.033, 12.865 ], [ 80.029, 12.878 ], [ 80.038, 12.888 ], [ 80.034, 12.901 ], [ 80.043, 12.911 ], [ 80.039, 12.923 ], [ 80.048, 12.933 ], [ 80.044, 12.946 ], [ 80.053, 12.956 ], [ 80.049, 12.969 ], [ 80.058, 12.979 ], [ 80.054, 12.991 ], [ 80.063, 13.001 ], [ 80.059, 13.014 ], [ 80.068, 13.024 ], [ 80.064, 13.037 ], [ 80.072, 13.047 ], [ 80.068, 13.06 ], [ 80.077, 13.07 ], [ 80.073, 13.082 ], [ 80.082, 13.092 ], [ 80.078, 13.105 ], [ 80.087, 13.115 ], [ 80.083, 13.128 ], [ 80.092, 13.138 ], [ 80.088, 13.15 ], [ 80.097, 13.16 ], [ 80.093, 13.173 ], [ 80.08, 13.176 ], [ 80.076, 13.188 ], [ 80.085, 13.198 ], [ 80.081, 13.211 ], [ 80.09, 13.221 ], [ 80.086, 13.234 ], [ 80.095, 13.244 ], [ 80.091, 13.256 ], [ 80.1, 13.266 ], [ 80.096, 13.279 ], [ 80.105, 13.289 ], [ 80.101, 13.302 ], [ 80.109, 13.312 ], [ 80.105, 13.324 ], [ 80.114, 13.334 ], [ 80.11, 13.347 ], [ 80.097, 13.35 ], [ 80.093, 13.362 ], [ 80.102, 13.372 ], [ 80.098, 13.385 ], [ 80.107, 13.395 ], [ 80.103, 13.408 ], [ 80.112, 13.418 ], [ 80.108, 13.43 ], [ 80.117, 13.44 ], [ 80.113, 13.453 ], [ 80.122, 13.463 ], [ 80.118, 13.476 ], [ 80.105, 13.478 ], [ 80.101, 13.491 ], [ 80.088, 13.494 ], [ 80.084, 13.506 ], [ 80.071, 13.509 ], [ 80.067, 13.522 ], [ 80.076, 13.532 ], [ 80.072, 13.544 ], [ 80.059, 13.547 ], [ 80.05, 13.537 ], [ 80.037, 13.54 ], [ 80.028, 13.53 ], [ 80.032, 13.517 ], [ 80.045, 13.514 ], [ 80.049, 13.502 ], [ 80.04, 13.492 ], [ 80.027, 13.494 ], [ 80.019, 13.484 ], [ 80.006, 13.487 ], [ 79.997, 13.477 ], [ 79.984, 13.48 ], [ 79.975, 13.47 ], [ 79.979, 13.457 ], [ 79.97, 13.447 ], [ 79.974, 13.434 ], [ 79.965, 13.424 ], [ 79.952, 13.427 ], [ 79.943, 13.417 ], [ 79.947, 13.404 ], [ 79.96, 13.402 ], [ 79.964, 13.389 ], [ 79.955, 13.379 ], [ 79.942, 13.382 ], [ 79.934, 13.372 ], [ 79.938, 13.359 ], [ 79.929, 13.349 ], [ 79.916, 13.352 ], [ 79.907, 13.342 ], [ 79.894, 13.344 ], [ 79.885, 13.334 ], [ 79.872, 13.337 ], [ 79.863, 13.327 ], [ 79.85, 13.33 ], [ 79.842, 13.32 ], [ 79.829, 13.322 ], [ 79.82, 13.312 ], [ 79.807, 13.315 ], [ 79.798, 13.305 ], [ 79.785, 13.308 ], [ 79.776, 13.298 ], [ 79.763, 13.3 ], [ 79.754, 13.29 ], [ 79.742, 13.293 ], [ 79.733, 13.283 ], [ 79.737, 13.27 ], [ 79.75, 13.268 ], [ 79.754, 13.255 ], [ 79.767, 13.252 ], [ 79.775, 13.262 ], [ 79.788, 13.26 ], [ 79.792, 13.247 ], [ 79.783, 13.237 ], [ 79.787, 13.224 ], [ 79.779, 13.214 ], [ 79.766, 13.217 ], [ 79.757, 13.207 ], [ 79.744, 13.21 ], [ 79.74, 13.222 ], [ 79.727, 13.225 ], [ 79.718, 13.215 ], [ 79.705, 13.218 ], [ 79.701, 13.23 ], [ 79.71, 13.24 ], [ 79.706, 13.253 ], [ 79.693, 13.255 ], [ 79.689, 13.268 ], [ 79.698, 13.278 ], [ 79.694, 13.291 ], [ 79.681, 13.293 ], [ 79.672, 13.283 ], [ 79.66, 13.286 ], [ 79.651, 13.276 ], [ 79.638, 13.279 ], [ 79.629, 13.269 ], [ 79.616, 13.271 ], [ 79.612, 13.284 ], [ 79.599, 13.287 ], [ 79.59, 13.277 ], [ 79.594, 13.264 ], [ 79.585, 13.254 ], [ 79.573, 13.257 ], [ 79.569, 13.269 ], [ 79.556, 13.272 ], [ 79.547, 13.262 ], [ 79.534, 13.265 ], [ 79.53, 13.277 ], [ 79.539, 13.287 ], [ 79.535, 13.3 ], [ 79.544, 13.31 ], [ 79.54, 13.322 ], [ 79.549, 13.332 ], [ 79.545, 13.345 ], [ 79.532, 13.348 ], [ 79.523, 13.338 ], [ 79.51, 13.34 ], [ 79.501, 13.33 ], [ 79.488, 13.333 ], [ 79.484, 13.346 ], [ 79.471, 13.348 ], [ 79.463, 13.338 ], [ 79.45, 13.341 ], [ 79.446, 13.353 ], [ 79.433, 13.356 ], [ 79.424, 13.346 ], [ 79.428, 13.333 ], [ 79.419, 13.324 ], [ 79.406, 13.326 ], [ 79.398, 13.316 ], [ 79.385, 13.319 ], [ 79.376, 13.309 ], [ 79.38, 13.296 ], [ 79.393, 13.294 ], [ 79.402, 13.304 ], [ 79.414, 13.301 ], [ 79.418, 13.288 ], [ 79.431, 13.286 ], [ 79.435, 13.273 ], [ 79.426, 13.263 ], [ 79.43, 13.25 ], [ 79.443, 13.248 ], [ 79.447, 13.235 ], [ 79.439, 13.225 ], [ 79.443, 13.213 ], [ 79.434, 13.203 ], [ 79.438, 13.19 ], [ 79.429, 13.18 ], [ 79.416, 13.183 ], [ 79.412, 13.195 ], [ 79.399, 13.198 ], [ 79.39, 13.188 ], [ 79.378, 13.19 ], [ 79.369, 13.18 ], [ 79.373, 13.168 ], [ 79.364, 13.158 ], [ 79.368, 13.145 ], [ 79.359, 13.135 ], [ 79.363, 13.123 ], [ 79.354, 13.113 ], [ 79.341, 13.115 ], [ 79.337, 13.128 ], [ 79.325, 13.131 ], [ 79.316, 13.121 ], [ 79.303, 13.123 ], [ 79.294, 13.113 ], [ 79.281, 13.116 ], [ 79.277, 13.128 ], [ 79.286, 13.138 ], [ 79.282, 13.151 ], [ 79.269, 13.154 ], [ 79.261, 13.144 ], [ 79.248, 13.146 ], [ 79.244, 13.159 ], [ 79.231, 13.162 ], [ 79.222, 13.152 ], [ 79.226, 13.139 ], [ 79.239, 13.136 ], [ 79.243, 13.124 ], [ 79.234, 13.114 ], [ 79.238, 13.101 ], [ 79.229, 13.091 ], [ 79.217, 13.094 ], [ 79.208, 13.084 ], [ 79.195, 13.086 ], [ 79.186, 13.076 ], [ 79.19, 13.064 ], [ 79.181, 13.054 ], [ 79.185, 13.041 ], [ 79.177, 13.031 ], [ 79.164, 13.034 ], [ 79.155, 13.024 ], [ 79.142, 13.027 ], [ 79.138, 13.039 ], [ 79.125, 13.042 ], [ 79.117, 13.032 ], [ 79.104, 13.034 ], [ 79.095, 13.024 ], [ 79.082, 13.027 ], [ 79.078, 13.04 ], [ 79.065, 13.042 ], [ 79.061, 13.055 ], [ 79.049, 13.058 ], [ 79.045, 13.07 ], [ 79.032, 13.073 ], [ 79.023, 13.063 ], [ 79.01, 13.065 ], [ 79.006, 13.078 ], [ 78.993, 13.081 ], [ 78.989, 13.093 ], [ 78.977, 13.096 ], [ 78.968, 13.086 ], [ 78.955, 13.088 ], [ 78.946, 13.078 ], [ 78.934, 13.081 ], [ 78.925, 13.071 ], [ 78.912, 13.074 ], [ 78.903, 13.064 ], [ 78.907, 13.051 ], [ 78.92, 13.049 ], [ 78.924, 13.036 ], [ 78.915, 13.026 ], [ 78.903, 13.029 ], [ 78.899, 13.041 ], [ 78.886, 13.044 ], [ 78.882, 13.056 ], [ 78.891, 13.066 ], [ 78.887, 13.079 ], [ 78.895, 13.089 ], [ 78.891, 13.101 ], [ 78.879, 13.104 ], [ 78.87, 13.094 ], [ 78.874, 13.082 ], [ 78.865, 13.072 ], [ 78.852, 13.074 ], [ 78.848, 13.087 ], [ 78.835, 13.089 ], [ 78.827, 13.079 ], [ 78.814, 13.082 ], [ 78.805, 13.072 ], [ 78.792, 13.075 ], [ 78.784, 13.065 ], [ 78.771, 13.067 ], [ 78.762, 13.057 ], [ 78.749, 13.06 ], [ 78.745, 13.072 ], [ 78.733, 13.075 ], [ 78.724, 13.065 ], [ 78.711, 13.068 ], [ 78.703, 13.058 ], [ 78.707, 13.045 ], [ 78.698, 13.035 ], [ 78.702, 13.023 ], [ 78.693, 13.013 ], [ 78.68, 13.015 ], [ 78.676, 13.028 ], [ 78.664, 13.03 ], [ 78.655, 13.02 ], [ 78.659, 13.008 ], [ 78.65, 12.998 ], [ 78.637, 13.0 ], [ 78.629, 12.991 ], [ 78.633, 12.978 ], [ 78.645, 12.975 ], [ 78.649, 12.963 ], [ 78.641, 12.953 ], [ 78.645, 12.94 ], [ 78.636, 12.93 ], [ 78.64, 12.918 ], [ 78.631, 12.908 ], [ 78.619, 12.91 ], [ 78.61, 12.9 ], [ 78.614, 12.888 ], [ 78.605, 12.878 ], [ 78.609, 12.865 ], [ 78.6, 12.855 ], [ 78.604, 12.843 ], [ 78.596, 12.833 ], [ 78.6, 12.82 ], [ 78.591, 12.81 ], [ 78.595, 12.798 ], [ 78.586, 12.788 ], [ 78.59, 12.775 ], [ 78.582, 12.765 ], [ 78.569, 12.768 ], [ 78.56, 12.758 ], [ 78.564, 12.745 ], [ 78.555, 12.735 ], [ 78.559, 12.723 ], [ 78.551, 12.713 ], [ 78.555, 12.7 ], [ 78.546, 12.69 ], [ 78.533, 12.693 ], [ 78.529, 12.705 ], [ 78.517, 12.708 ], [ 78.508, 12.698 ], [ 78.512, 12.685 ], [ 78.503, 12.675 ], [ 78.49, 12.678 ], [ 78.482, 12.668 ], [ 78.469, 12.671 ], [ 78.46, 12.661 ], [ 78.464, 12.648 ], [ 78.477, 12.646 ], [ 78.481, 12.633 ], [ 78.472, 12.623 ], [ 78.46, 12.626 ], [ 78.456, 12.638 ], [ 78.443, 12.641 ], [ 78.434, 12.631 ], [ 78.422, 12.634 ], [ 78.413, 12.624 ], [ 78.4, 12.626 ], [ 78.392, 12.616 ], [ 78.379, 12.619 ], [ 78.375, 12.631 ], [ 78.362, 12.634 ], [ 78.358, 12.647 ], [ 78.346, 12.649 ], [ 78.342, 12.662 ], [ 78.329, 12.664 ], [ 78.32, 12.654 ], [ 78.307, 12.657 ], [ 78.303, 12.67 ], [ 78.291, 12.672 ], [ 78.287, 12.685 ], [ 78.274, 12.687 ], [ 78.27, 12.7 ], [ 78.257, 12.703 ], [ 78.249, 12.693 ], [ 78.236, 12.695 ], [ 78.227, 12.685 ], [ 78.215, 12.688 ], [ 78.211, 12.7 ], [ 78.219, 12.71 ], [ 78.232, 12.708 ], [ 78.241, 12.718 ], [ 78.237, 12.73 ], [ 78.245, 12.74 ], [ 78.241, 12.753 ], [ 78.229, 12.755 ], [ 78.225, 12.768 ], [ 78.212, 12.77 ], [ 78.203, 12.76 ], [ 78.191, 12.763 ], [ 78.187, 12.776 ], [ 78.174, 12.778 ], [ 78.165, 12.768 ], [ 78.153, 12.771 ], [ 78.149, 12.783 ], [ 78.136, 12.786 ], [ 78.132, 12.798 ], [ 78.119, 12.801 ], [ 78.115, 12.814 ], [ 78.103, 12.816 ], [ 78.099, 12.829 ], [ 78.086, 12.831 ], [ 78.082, 12.844 ], [ 78.069, 12.846 ], [ 78.061, 12.836 ], [ 78.048, 12.839 ], [ 78.044, 12.852 ], [ 78.032, 12.854 ], [ 78.023, 12.844 ], [ 78.027, 12.832 ], [ 78.018, 12.822 ], [ 78.006, 12.824 ], [ 77.997, 12.814 ], [ 77.984, 12.817 ], [ 77.98, 12.829 ], [ 77.968, 12.832 ], [ 77.964, 12.845 ], [ 77.951, 12.847 ], [ 77.942, 12.837 ], [ 77.946, 12.825 ], [ 77.938, 12.815 ], [ 77.925, 12.817 ], [ 77.921, 12.83 ], [ 77.93, 12.84 ], [ 77.926, 12.852 ], [ 77.934, 12.862 ], [ 77.93, 12.875 ], [ 77.918, 12.877 ], [ 77.914, 12.89 ], [ 77.901, 12.892 ], [ 77.893, 12.882 ], [ 77.897, 12.87 ], [ 77.888, 12.86 ], [ 77.875, 12.862 ], [ 77.871, 12.875 ], [ 77.859, 12.878 ], [ 77.85, 12.868 ], [ 77.837, 12.87 ], [ 77.829, 12.86 ], [ 77.816, 12.863 ], [ 77.808, 12.853 ], [ 77.795, 12.855 ], [ 77.786, 12.845 ], [ 77.79, 12.833 ], [ 77.803, 12.83 ], [ 77.807, 12.818 ], [ 77.798, 12.808 ], [ 77.802, 12.795 ], [ 77.794, 12.785 ], [ 77.798, 12.773 ], [ 77.789, 12.763 ], [ 77.793, 12.75 ], [ 77.784, 12.741 ], [ 77.772, 12.743 ], [ 77.763, 12.733 ], [ 77.767, 12.721 ], [ 77.759, 12.711 ], [ 77.763, 12.698 ], [ 77.754, 12.688 ], [ 77.741, 12.691 ], [ 77.733, 12.681 ], [ 77.72, 12.683 ], [ 77.712, 12.674 ], [ 77.716, 12.661 ], [ 77.707, 12.651 ], [ 77.694, 12.654 ], [ 77.69, 12.666 ], [ 77.678, 12.669 ], [ 77.674, 12.681 ], [ 77.661, 12.684 ], [ 77.653, 12.674 ], [ 77.657, 12.661 ], [ 77.648, 12.651 ], [ 77.652, 12.639 ], [ 77.643, 12.629 ], [ 77.631, 12.632 ], [ 77.622, 12.622 ], [ 77.626, 12.609 ], [ 77.618, 12.599 ], [ 77.622, 12.587 ], [ 77.613, 12.577 ], [ 77.617, 12.564 ], [ 77.609, 12.554 ], [ 77.613, 12.542 ], [ 77.625, 12.539 ], [ 77.629, 12.527 ], [ 77.642, 12.524 ], [ 77.646, 12.512 ], [ 77.658, 12.509 ], [ 77.662, 12.497 ], [ 77.675, 12.494 ], [ 77.679, 12.481 ], [ 77.691, 12.479 ], [ 77.695, 12.466 ], [ 77.708, 12.464 ], [ 77.712, 12.451 ], [ 77.725, 12.449 ], [ 77.733, 12.459 ], [ 77.746, 12.456 ], [ 77.75, 12.444 ], [ 77.762, 12.441 ], [ 77.766, 12.428 ], [ 77.758, 12.418 ], [ 77.762, 12.406 ], [ 77.774, 12.403 ], [ 77.783, 12.413 ], [ 77.796, 12.411 ], [ 77.8, 12.398 ], [ 77.812, 12.396 ], [ 77.821, 12.406 ], [ 77.833, 12.403 ], [ 77.842, 12.413 ], [ 77.838, 12.425 ], [ 77.847, 12.435 ], [ 77.843, 12.448 ], [ 77.83, 12.45 ], [ 77.826, 12.463 ], [ 77.835, 12.473 ], [ 77.831, 12.485 ], [ 77.818, 12.488 ], [ 77.814, 12.501 ], [ 77.823, 12.51 ], [ 77.835, 12.508 ], [ 77.844, 12.518 ], [ 77.856, 12.515 ], [ 77.865, 12.525 ], [ 77.878, 12.523 ], [ 77.886, 12.533 ], [ 77.899, 12.53 ], [ 77.908, 12.54 ], [ 77.92, 12.537 ], [ 77.924, 12.525 ], [ 77.937, 12.522 ], [ 77.945, 12.532 ], [ 77.958, 12.53 ], [ 77.962, 12.517 ], [ 77.953, 12.507 ], [ 77.957, 12.495 ], [ 77.949, 12.485 ], [ 77.953, 12.472 ], [ 77.965, 12.469 ], [ 77.969, 12.457 ], [ 77.982, 12.454 ], [ 77.986, 12.442 ], [ 77.999, 12.439 ], [ 78.003, 12.427 ], [ 77.994, 12.417 ], [ 77.998, 12.404 ], [ 78.011, 12.402 ], [ 78.015, 12.389 ], [ 78.027, 12.386 ], [ 78.031, 12.374 ], [ 78.023, 12.364 ], [ 78.027, 12.351 ], [ 78.039, 12.349 ], [ 78.043, 12.336 ], [ 78.056, 12.334 ], [ 78.06, 12.321 ], [ 78.051, 12.311 ], [ 78.055, 12.299 ], [ 78.068, 12.296 ], [ 78.072, 12.283 ], [ 78.063, 12.273 ], [ 78.067, 12.261 ], [ 78.059, 12.251 ], [ 78.063, 12.238 ], [ 78.054, 12.229 ], [ 78.058, 12.216 ], [ 78.049, 12.206 ], [ 78.037, 12.209 ], [ 78.028, 12.199 ], [ 78.032, 12.186 ], [ 78.023, 12.176 ], [ 78.011, 12.179 ], [ 78.002, 12.169 ], [ 77.99, 12.172 ], [ 77.986, 12.184 ], [ 77.973, 12.187 ], [ 77.964, 12.177 ], [ 77.952, 12.179 ], [ 77.943, 12.169 ], [ 77.93, 12.172 ], [ 77.922, 12.162 ], [ 77.909, 12.165 ], [ 77.901, 12.155 ], [ 77.888, 12.157 ], [ 77.879, 12.148 ], [ 77.867, 12.15 ], [ 77.858, 12.14 ], [ 77.862, 12.128 ], [ 77.854, 12.118 ], [ 77.858, 12.105 ], [ 77.849, 12.095 ], [ 77.836, 12.098 ], [ 77.828, 12.088 ], [ 77.832, 12.075 ], [ 77.823, 12.066 ], [ 77.811, 12.068 ], [ 77.802, 12.058 ], [ 77.806, 12.046 ], [ 77.797, 12.036 ], [ 77.801, 12.023 ], [ 77.793, 12.013 ], [ 77.78, 12.016 ], [ 77.772, 12.006 ], [ 77.776, 11.993 ], [ 77.767, 11.984 ], [ 77.771, 11.971 ], [ 77.762, 11.961 ], [ 77.75, 11.964 ], [ 77.741, 11.954 ], [ 77.729, 11.956 ], [ 77.72, 11.947 ], [ 77.708, 11.949 ], [ 77.699, 11.939 ], [ 77.703, 11.927 ], [ 77.694, 11.917 ], [ 77.698, 11.904 ], [ 77.69, 11.894 ], [ 77.694, 11.882 ], [ 77.685, 11.872 ], [ 77.689, 11.859 ], [ 77.702, 11.857 ], [ 77.706, 11.844 ], [ 77.718, 11.842 ], [ 77.722, 11.829 ], [ 77.735, 11.826 ], [ 77.744, 11.836 ], [ 77.756, 11.834 ], [ 77.765, 11.844 ], [ 77.777, 11.841 ], [ 77.781, 11.828 ], [ 77.794, 11.826 ], [ 77.798, 11.813 ], [ 77.789, 11.803 ], [ 77.793, 11.791 ], [ 77.806, 11.788 ], [ 77.81, 11.776 ], [ 77.822, 11.773 ], [ 77.831, 11.783 ], [ 77.843, 11.78 ], [ 77.852, 11.79 ], [ 77.865, 11.788 ], [ 77.869, 11.775 ], [ 77.86, 11.765 ], [ 77.864, 11.753 ], [ 77.877, 11.75 ], [ 77.881, 11.737 ], [ 77.872, 11.727 ], [ 77.876, 11.715 ], [ 77.867, 11.705 ], [ 77.855, 11.708 ], [ 77.846, 11.698 ], [ 77.834, 11.7 ], [ 77.825, 11.69 ], [ 77.813, 11.693 ], [ 77.804, 11.683 ], [ 77.791, 11.686 ], [ 77.783, 11.676 ], [ 77.787, 11.663 ], [ 77.778, 11.653 ], [ 77.766, 11.656 ], [ 77.757, 11.646 ], [ 77.761, 11.634 ], [ 77.752, 11.624 ], [ 77.74, 11.626 ], [ 77.731, 11.617 ], [ 77.735, 11.604 ], [ 77.727, 11.594 ], [ 77.731, 11.582 ], [ 77.743, 11.579 ], [ 77.747, 11.566 ], [ 77.739, 11.556 ], [ 77.726, 11.559 ], [ 77.718, 11.549 ], [ 77.722, 11.537 ], [ 77.734, 11.534 ], [ 77.738, 11.521 ], [ 77.73, 11.512 ], [ 77.734, 11.499 ], [ 77.725, 11.489 ], [ 77.712, 11.492 ], [ 77.704, 11.482 ], [ 77.708, 11.469 ], [ 77.699, 11.459 ], [ 77.703, 11.447 ], [ 77.695, 11.437 ], [ 77.682, 11.44 ], [ 77.674, 11.43 ], [ 77.678, 11.417 ], [ 77.69, 11.415 ], [ 77.694, 11.402 ], [ 77.707, 11.399 ], [ 77.711, 11.387 ], [ 77.723, 11.384 ], [ 77.727, 11.372 ], [ 77.74, 11.369 ], [ 77.744, 11.356 ], [ 77.756, 11.354 ], [ 77.76, 11.341 ], [ 77.773, 11.338 ], [ 77.777, 11.326 ], [ 77.768, 11.316 ], [ 77.772, 11.303 ], [ 77.785, 11.301 ], [ 77.789, 11.288 ], [ 77.801, 11.286 ], [ 77.805, 11.273 ], [ 77.818, 11.27 ], [ 77.822, 11.258 ], [ 77.834, 11.255 ], [ 77.843, 11.265 ], [ 77.855, 11.262 ], [ 77.859, 11.25 ], [ 77.872, 11.247 ], [ 77.876, 11.234 ], [ 77.867, 11.225 ], [ 77.871, 11.212 ], [ 77.863, 11.202 ], [ 77.867, 11.19 ], [ 77.858, 11.18 ], [ 77.862, 11.167 ], [ 77.875, 11.164 ], [ 77.879, 11.152 ], [ 77.891, 11.149 ], [ 77.895, 11.137 ], [ 77.887, 11.127 ], [ 77.891, 11.114 ], [ 77.882, 11.104 ], [ 77.886, 11.092 ], [ 77.899, 11.089 ], [ 77.903, 11.076 ], [ 77.915, 11.074 ], [ 77.919, 11.061 ], [ 77.911, 11.051 ], [ 77.915, 11.039 ], [ 77.906, 11.029 ], [ 77.893, 11.031 ], [ 77.885, 11.022 ], [ 77.872, 11.024 ], [ 77.868, 11.037 ], [ 77.856, 11.04 ], [ 77.852, 11.052 ], [ 77.839, 11.055 ], [ 77.835, 11.067 ], [ 77.823, 11.07 ], [ 77.814, 11.06 ], [ 77.802, 11.063 ], [ 77.793, 11.053 ], [ 77.78, 11.056 ], [ 77.772, 11.046 ], [ 77.776, 11.033 ], [ 77.788, 11.031 ], [ 77.792, 11.018 ], [ 77.784, 11.008 ], [ 77.788, 10.996 ], [ 77.779, 10.986 ], [ 77.767, 10.988 ], [ 77.758, 10.979 ], [ 77.762, 10.966 ], [ 77.775, 10.963 ], [ 77.779, 10.951 ], [ 77.77, 10.941 ], [ 77.774, 10.928 ], [ 77.765, 10.918 ], [ 77.769, 10.906 ], [ 77.761, 10.896 ], [ 77.765, 10.883 ], [ 77.777, 10.881 ], [ 77.781, 10.868 ], [ 77.794, 10.865 ], [ 77.798, 10.853 ], [ 77.81, 10.85 ], [ 77.819, 10.86 ], [ 77.832, 10.857 ], [ 77.836, 10.845 ], [ 77.848, 10.842 ], [ 77.857, 10.852 ], [ 77.869, 10.849 ], [ 77.873, 10.837 ], [ 77.865, 10.827 ], [ 77.869, 10.814 ], [ 77.881, 10.811 ], [ 77.885, 10.799 ], [ 77.877, 10.789 ], [ 77.88, 10.776 ], [ 77.872, 10.767 ], [ 77.859, 10.769 ], [ 77.855, 10.782 ], [ 77.843, 10.785 ], [ 77.839, 10.797 ], [ 77.826, 10.8 ], [ 77.818, 10.79 ], [ 77.805, 10.793 ], [ 77.797, 10.783 ], [ 77.784, 10.785 ], [ 77.776, 10.776 ], [ 77.78, 10.763 ], [ 77.792, 10.76 ], [ 77.796, 10.748 ], [ 77.809, 10.745 ], [ 77.817, 10.755 ], [ 77.83, 10.752 ], [ 77.834, 10.74 ], [ 77.825, 10.73 ], [ 77.829, 10.717 ], [ 77.821, 10.707 ], [ 77.808, 10.71 ], [ 77.799, 10.7 ], [ 77.803, 10.688 ], [ 77.795, 10.678 ], [ 77.782, 10.68 ], [ 77.774, 10.671 ], [ 77.761, 10.673 ], [ 77.753, 10.663 ], [ 77.757, 10.651 ], [ 77.748, 10.641 ], [ 77.736, 10.644 ], [ 77.727, 10.634 ], [ 77.715, 10.637 ], [ 77.711, 10.649 ], [ 77.698, 10.652 ], [ 77.694, 10.664 ], [ 77.703, 10.674 ], [ 77.699, 10.687 ], [ 77.707, 10.697 ], [ 77.703, 10.709 ], [ 77.712, 10.719 ], [ 77.708, 10.732 ], [ 77.695, 10.734 ], [ 77.687, 10.725 ], [ 77.674, 10.727 ], [ 77.666, 10.717 ], [ 77.67, 10.705 ], [ 77.661, 10.695 ], [ 77.665, 10.682 ], [ 77.657, 10.673 ], [ 77.644, 10.675 ], [ 77.636, 10.665 ], [ 77.623, 10.668 ], [ 77.619, 10.681 ], [ 77.607, 10.683 ], [ 77.598, 10.674 ], [ 77.585, 10.676 ], [ 77.577, 10.666 ], [ 77.581, 10.654 ], [ 77.572, 10.644 ], [ 77.56, 10.647 ], [ 77.551, 10.637 ], [ 77.555, 10.624 ], [ 77.547, 10.614 ], [ 77.534, 10.617 ], [ 77.526, 10.607 ], [ 77.513, 10.61 ], [ 77.509, 10.623 ], [ 77.497, 10.625 ], [ 77.493, 10.638 ], [ 77.48, 10.64 ], [ 77.476, 10.653 ], [ 77.464, 10.656 ], [ 77.455, 10.646 ], [ 77.459, 10.633 ], [ 77.451, 10.623 ], [ 77.438, 10.626 ], [ 77.43, 10.616 ], [ 77.417, 10.619 ], [ 77.409, 10.609 ], [ 77.396, 10.612 ], [ 77.388, 10.602 ], [ 77.392, 10.59 ], [ 77.383, 10.58 ], [ 77.387, 10.567 ], [ 77.379, 10.557 ], [ 77.366, 10.56 ], [ 77.358, 10.55 ], [ 77.362, 10.538 ], [ 77.374, 10.535 ], [ 77.378, 10.522 ], [ 77.391, 10.52 ], [ 77.395, 10.507 ], [ 77.386, 10.497 ], [ 77.39, 10.485 ], [ 77.382, 10.475 ], [ 77.386, 10.462 ], [ 77.377, 10.452 ], [ 77.365, 10.455 ], [ 77.356, 10.445 ], [ 77.344, 10.448 ], [ 77.34, 10.461 ], [ 77.327, 10.463 ], [ 77.319, 10.453 ], [ 77.323, 10.441 ], [ 77.335, 10.438 ], [ 77.339, 10.426 ], [ 77.352, 10.423 ], [ 77.356, 10.41 ], [ 77.368, 10.408 ], [ 77.377, 10.418 ], [ 77.389, 10.415 ], [ 77.393, 10.402 ], [ 77.406, 10.4 ], [ 77.414, 10.409 ], [ 77.427, 10.407 ], [ 77.431, 10.394 ], [ 77.443, 10.391 ], [ 77.451, 10.401 ], [ 77.464, 10.399 ], [ 77.472, 10.408 ], [ 77.485, 10.406 ], [ 77.489, 10.393 ], [ 77.501, 10.39 ], [ 77.51, 10.4 ], [ 77.522, 10.398 ], [ 77.531, 10.407 ], [ 77.543, 10.405 ], [ 77.552, 10.414 ], [ 77.564, 10.412 ], [ 77.573, 10.422 ], [ 77.585, 10.419 ], [ 77.594, 10.429 ], [ 77.606, 10.426 ], [ 77.615, 10.436 ], [ 77.627, 10.433 ], [ 77.636, 10.443 ], [ 77.648, 10.44 ], [ 77.657, 10.45 ], [ 77.653, 10.463 ], [ 77.662, 10.472 ], [ 77.674, 10.47 ], [ 77.683, 10.48 ], [ 77.695, 10.477 ], [ 77.704, 10.487 ], [ 77.716, 10.484 ], [ 77.725, 10.494 ], [ 77.737, 10.491 ], [ 77.746, 10.501 ], [ 77.758, 10.498 ], [ 77.762, 10.486 ], [ 77.775, 10.483 ], [ 77.779, 10.47 ], [ 77.791, 10.468 ], [ 77.795, 10.455 ], [ 77.787, 10.445 ], [ 77.791, 10.433 ], [ 77.803, 10.43 ], [ 77.807, 10.417 ], [ 77.82, 10.415 ], [ 77.824, 10.402 ], [ 77.815, 10.392 ], [ 77.819, 10.38 ], [ 77.81, 10.37 ], [ 77.814, 10.357 ], [ 77.806, 10.347 ], [ 77.81, 10.335 ], [ 77.801, 10.325 ], [ 77.805, 10.312 ], [ 77.797, 10.302 ], [ 77.801, 10.29 ], [ 77.792, 10.28 ], [ 77.78, 10.283 ], [ 77.771, 10.273 ], [ 77.759, 10.276 ], [ 77.75, 10.266 ], [ 77.738, 10.269 ], [ 77.729, 10.259 ], [ 77.717, 10.261 ], [ 77.708, 10.252 ], [ 77.712, 10.239 ], [ 77.703, 10.229 ], [ 77.707, 10.217 ], [ 77.699, 10.207 ], [ 77.703, 10.194 ], [ 77.694, 10.184 ], [ 77.682, 10.187 ], [ 77.673, 10.177 ], [ 77.677, 10.165 ], [ 77.669, 10.155 ], [ 77.656, 10.158 ], [ 77.648, 10.148 ], [ 77.635, 10.151 ], [ 77.627, 10.141 ], [ 77.614, 10.143 ], [ 77.606, 10.134 ], [ 77.593, 10.136 ], [ 77.585, 10.127 ], [ 77.572, 10.129 ], [ 77.568, 10.142 ], [ 77.556, 10.145 ], [ 77.547, 10.135 ], [ 77.535, 10.137 ], [ 77.526, 10.128 ], [ 77.514, 10.13 ], [ 77.505, 10.121 ], [ 77.509, 10.108 ], [ 77.501, 10.098 ], [ 77.488, 10.101 ], [ 77.48, 10.091 ], [ 77.484, 10.079 ], [ 77.475, 10.069 ], [ 77.479, 10.056 ], [ 77.471, 10.046 ], [ 77.458, 10.049 ], [ 77.45, 10.039 ], [ 77.437, 10.042 ], [ 77.429, 10.032 ], [ 77.416, 10.035 ], [ 77.408, 10.025 ], [ 77.395, 10.028 ], [ 77.391, 10.04 ], [ 77.379, 10.043 ], [ 77.371, 10.033 ], [ 77.358, 10.036 ], [ 77.354, 10.049 ], [ 77.342, 10.051 ], [ 77.333, 10.042 ], [ 77.321, 10.044 ], [ 77.312, 10.034 ], [ 77.316, 10.022 ], [ 77.308, 10.012 ], [ 77.312, 10.0 ], [ 77.303, 9.99 ], [ 77.307, 9.977 ], [ 77.299, 9.967 ], [ 77.286, 9.97 ], [ 77.278, 9.96 ], [ 77.282, 9.948 ], [ 77.273, 9.938 ], [ 77.277, 9.925 ], [ 77.269, 9.916 ], [ 77.256, 9.918 ], [ 77.248, 9.908 ], [ 77.252, 9.896 ], [ 77.243, 9.886 ], [ 77.247, 9.874 ], [ 77.26, 9.871 ], [ 77.264, 9.858 ], [ 77.255, 9.848 ], [ 77.259, 9.836 ], [ 77.272, 9.833 ], [ 77.276, 9.821 ], [ 77.288, 9.818 ], [ 77.292, 9.805 ], [ 77.284, 9.796 ], [ 77.271, 9.798 ], [ 77.263, 9.788 ], [ 77.25, 9.791 ], [ 77.242, 9.781 ], [ 77.246, 9.769 ], [ 77.237, 9.759 ], [ 77.241, 9.747 ], [ 77.233, 9.737 ], [ 77.237, 9.724 ], [ 77.228, 9.714 ], [ 77.232, 9.702 ], [ 77.224, 9.692 ], [ 77.211, 9.695 ], [ 77.203, 9.685 ], [ 77.207, 9.672 ], [ 77.199, 9.663 ], [ 77.202, 9.65 ], [ 77.215, 9.647 ], [ 77.219, 9.635 ], [ 77.231, 9.632 ], [ 77.24, 9.642 ], [ 77.252, 9.639 ], [ 77.261, 9.649 ], [ 77.273, 9.646 ], [ 77.281, 9.656 ], [ 77.294, 9.653 ], [ 77.302, 9.663 ], [ 77.298, 9.676 ], [ 77.307, 9.685 ], [ 77.319, 9.683 ], [ 77.328, 9.692 ], [ 77.324, 9.705 ], [ 77.332, 9.715 ], [ 77.328, 9.727 ], [ 77.337, 9.737 ], [ 77.333, 9.75 ], [ 77.341, 9.759 ], [ 77.354, 9.757 ], [ 77.362, 9.766 ], [ 77.375, 9.764 ], [ 77.379, 9.751 ], [ 77.391, 9.748 ], [ 77.399, 9.758 ], [ 77.396, 9.771 ], [ 77.404, 9.781 ], [ 77.416, 9.778 ], [ 77.425, 9.788 ], [ 77.421, 9.8 ], [ 77.429, 9.81 ], [ 77.442, 9.807 ], [ 77.45, 9.817 ], [ 77.446, 9.83 ], [ 77.455, 9.839 ], [ 77.467, 9.837 ], [ 77.476, 9.846 ], [ 77.472, 9.859 ], [ 77.48, 9.869 ], [ 77.493, 9.866 ], [ 77.501, 9.876 ], [ 77.514, 9.873 ], [ 77.522, 9.883 ], [ 77.518, 9.896 ], [ 77.527, 9.905 ], [ 77.539, 9.903 ], [ 77.543, 9.89 ], [ 77.556, 9.887 ], [ 77.564, 9.897 ], [ 77.577, 9.894 ], [ 77.585, 9.904 ], [ 77.598, 9.901 ], [ 77.606, 9.911 ], [ 77.619, 9.908 ], [ 77.627, 9.918 ], [ 77.623, 9.931 ], [ 77.611, 9.934 ], [ 77.607, 9.946 ], [ 77.615, 9.956 ], [ 77.628, 9.953 ], [ 77.636, 9.963 ], [ 77.649, 9.96 ], [ 77.657, 9.97 ], [ 77.653, 9.983 ], [ 77.641, 9.985 ], [ 77.637, 9.998 ], [ 77.645, 10.008 ], [ 77.658, 10.005 ], [ 77.666, 10.015 ], [ 77.662, 10.027 ], [ 77.671, 10.037 ], [ 77.667, 10.05 ], [ 77.675, 10.06 ], [ 77.672, 10.072 ], [ 77.68, 10.082 ], [ 77.693, 10.079 ], [ 77.696, 10.067 ], [ 77.709, 10.064 ], [ 77.718, 10.074 ], [ 77.73, 10.071 ], [ 77.739, 10.081 ], [ 77.751, 10.078 ], [ 77.755, 10.066 ], [ 77.767, 10.063 ], [ 77.771, 10.05 ], [ 77.784, 10.048 ], [ 77.788, 10.035 ], [ 77.779, 10.025 ], [ 77.783, 10.012 ], [ 77.775, 10.003 ], [ 77.779, 9.99 ], [ 77.77, 9.98 ], [ 77.774, 9.968 ], [ 77.766, 9.958 ], [ 77.77, 9.945 ], [ 77.761, 9.935 ], [ 77.765, 9.923 ], [ 77.778, 9.92 ], [ 77.782, 9.907 ], [ 77.773, 9.898 ], [ 77.761, 9.9 ], [ 77.752, 9.891 ], [ 77.739, 9.893 ], [ 77.731, 9.884 ], [ 77.718, 9.886 ], [ 77.715, 9.899 ], [ 77.702, 9.902 ], [ 77.694, 9.892 ], [ 77.681, 9.895 ], [ 77.673, 9.885 ], [ 77.66, 9.888 ], [ 77.652, 9.878 ], [ 77.655, 9.865 ], [ 77.647, 9.855 ], [ 77.651, 9.843 ], [ 77.642, 9.833 ], [ 77.646, 9.82 ], [ 77.638, 9.811 ], [ 77.642, 9.798 ], [ 77.654, 9.795 ], [ 77.658, 9.783 ], [ 77.671, 9.78 ], [ 77.675, 9.767 ], [ 77.687, 9.764 ], [ 77.691, 9.752 ], [ 77.704, 9.749 ], [ 77.712, 9.759 ], [ 77.725, 9.756 ], [ 77.733, 9.766 ], [ 77.746, 9.763 ], [ 77.754, 9.773 ], [ 77.767, 9.77 ], [ 77.771, 9.758 ], [ 77.783, 9.755 ], [ 77.787, 9.742 ], [ 77.779, 9.732 ], [ 77.766, 9.735 ], [ 77.758, 9.725 ], [ 77.745, 9.728 ], [ 77.737, 9.718 ], [ 77.724, 9.721 ], [ 77.716, 9.711 ], [ 77.719, 9.699 ], [ 77.711, 9.689 ], [ 77.698, 9.692 ], [ 77.69, 9.682 ], [ 77.694, 9.669 ], [ 77.685, 9.66 ], [ 77.673, 9.662 ], [ 77.669, 9.675 ], [ 77.657, 9.678 ], [ 77.648, 9.668 ], [ 77.636, 9.671 ], [ 77.632, 9.683 ], [ 77.619, 9.686 ], [ 77.611, 9.676 ], [ 77.598, 9.679 ], [ 77.59, 9.669 ], [ 77.594, 9.657 ], [ 77.585, 9.647 ], [ 77.573, 9.65 ], [ 77.564, 9.64 ], [ 77.552, 9.643 ], [ 77.543, 9.633 ], [ 77.547, 9.62 ], [ 77.56, 9.617 ], [ 77.568, 9.627 ], [ 77.581, 9.624 ], [ 77.589, 9.634 ], [ 77.602, 9.631 ], [ 77.605, 9.619 ], [ 77.597, 9.609 ], [ 77.601, 9.596 ], [ 77.613, 9.594 ], [ 77.622, 9.603 ], [ 77.634, 9.601 ], [ 77.643, 9.61 ], [ 77.655, 9.608 ], [ 77.659, 9.595 ], [ 77.672, 9.592 ], [ 77.676, 9.58 ], [ 77.688, 9.577 ], [ 77.692, 9.564 ], [ 77.684, 9.555 ], [ 77.671, 9.557 ], [ 77.663, 9.548 ], [ 77.65, 9.55 ], [ 77.646, 9.563 ], [ 77.634, 9.566 ], [ 77.625, 9.556 ], [ 77.613, 9.559 ], [ 77.604, 9.549 ], [ 77.592, 9.552 ], [ 77.583, 9.542 ], [ 77.571, 9.545 ], [ 77.562, 9.535 ], [ 77.55, 9.538 ], [ 77.541, 9.528 ], [ 77.529, 9.531 ], [ 77.521, 9.521 ], [ 77.508, 9.524 ], [ 77.5, 9.514 ], [ 77.504, 9.501 ], [ 77.495, 9.491 ], [ 77.483, 9.494 ], [ 77.474, 9.484 ], [ 77.478, 9.472 ], [ 77.491, 9.469 ], [ 77.494, 9.457 ], [ 77.486, 9.447 ], [ 77.474, 9.45 ], [ 77.465, 9.44 ], [ 77.453, 9.443 ], [ 77.444, 9.433 ], [ 77.432, 9.436 ], [ 77.423, 9.426 ], [ 77.411, 9.428 ], [ 77.402, 9.419 ], [ 77.406, 9.406 ], [ 77.398, 9.396 ], [ 77.385, 9.399 ], [ 77.377, 9.389 ], [ 77.381, 9.377 ], [ 77.393, 9.374 ], [ 77.397, 9.361 ], [ 77.389, 9.352 ], [ 77.393, 9.339 ], [ 77.384, 9.329 ], [ 77.388, 9.317 ], [ 77.38, 9.307 ], [ 77.384, 9.294 ], [ 77.375, 9.285 ], [ 77.379, 9.272 ], [ 77.371, 9.262 ], [ 77.375, 9.25 ], [ 77.366, 9.24 ], [ 77.37, 9.227 ], [ 77.362, 9.218 ], [ 77.366, 9.205 ], [ 77.357, 9.195 ], [ 77.361, 9.183 ], [ 77.374, 9.18 ], [ 77.378, 9.167 ], [ 77.369, 9.158 ], [ 77.373, 9.145 ], [ 77.365, 9.135 ], [ 77.352, 9.138 ], [ 77.344, 9.128 ], [ 77.331, 9.131 ], [ 77.323, 9.121 ], [ 77.327, 9.109 ], [ 77.318, 9.099 ], [ 77.306, 9.102 ], [ 77.298, 9.092 ], [ 77.302, 9.079 ], [ 77.293, 9.07 ], [ 77.297, 9.057 ], [ 77.289, 9.047 ], [ 77.276, 9.05 ], [ 77.272, 9.063 ], [ 77.26, 9.065 ], [ 77.251, 9.056 ], [ 77.239, 9.059 ], [ 77.231, 9.049 ], [ 77.235, 9.036 ], [ 77.226, 9.026 ], [ 77.214, 9.029 ], [ 77.205, 9.019 ], [ 77.193, 9.022 ], [ 77.184, 9.013 ], [ 77.188, 9.0 ], [ 77.201, 8.997 ], [ 77.205, 8.985 ], [ 77.217, 8.982 ], [ 77.221, 8.969 ], [ 77.233, 8.966 ], [ 77.237, 8.954 ], [ 77.25, 8.951 ], [ 77.254, 8.939 ], [ 77.266, 8.936 ], [ 77.275, 8.945 ], [ 77.287, 8.943 ], [ 77.291, 8.93 ], [ 77.303, 8.927 ], [ 77.307, 8.915 ], [ 77.32, 8.912 ], [ 77.324, 8.899 ], [ 77.336, 8.897 ], [ 77.34, 8.884 ], [ 77.331, 8.874 ], [ 77.335, 8.862 ], [ 77.327, 8.852 ], [ 77.331, 8.839 ], [ 77.322, 8.83 ], [ 77.326, 8.817 ], [ 77.339, 8.814 ], [ 77.343, 8.802 ], [ 77.334, 8.792 ], [ 77.338, 8.779 ], [ 77.351, 8.776 ], [ 77.355, 8.764 ], [ 77.367, 8.761 ], [ 77.371, 8.748 ], [ 77.363, 8.739 ], [ 77.366, 8.726 ], [ 77.379, 8.723 ], [ 77.383, 8.711 ], [ 77.395, 8.708 ], [ 77.399, 8.695 ], [ 77.412, 8.692 ], [ 77.415, 8.68 ], [ 77.407, 8.67 ], [ 77.411, 8.658 ], [ 77.423, 8.655 ], [ 77.432, 8.665 ], [ 77.444, 8.662 ], [ 77.448, 8.649 ], [ 77.461, 8.646 ], [ 77.465, 8.634 ], [ 77.477, 8.631 ], [ 77.481, 8.618 ], [ 77.493, 8.615 ], [ 77.502, 8.625 ], [ 77.514, 8.622 ], [ 77.523, 8.632 ], [ 77.535, 8.629 ], [ 77.539, 8.617 ], [ 77.551, 8.614 ], [ 77.555, 8.601 ], [ 77.568, 8.598 ], [ 77.572, 8.586 ], [ 77.563, 8.576 ], [ 77.567, 8.563 ], [ 77.559, 8.554 ], [ 77.563, 8.541 ], [ 77.575, 8.538 ], [ 77.584, 8.548 ], [ 77.596, 8.545 ], [ 77.604, 8.555 ], [ 77.617, 8.552 ], [ 77.625, 8.562 ], [ 77.638, 8.559 ], [ 77.646, 8.569 ], [ 77.659, 8.566 ], [ 77.667, 8.576 ], [ 77.68, 8.573 ], [ 77.688, 8.582 ], [ 77.7, 8.58 ], [ 77.709, 8.589 ], [ 77.705, 8.602 ], [ 77.713, 8.612 ], [ 77.726, 8.609 ], [ 77.734, 8.619 ], [ 77.73, 8.631 ], [ 77.739, 8.641 ], [ 77.751, 8.638 ], [ 77.76, 8.648 ], [ 77.756, 8.66 ], [ 77.764, 8.67 ], [ 77.777, 8.667 ], [ 77.785, 8.677 ], [ 77.798, 8.674 ], [ 77.806, 8.684 ], [ 77.802, 8.697 ], [ 77.811, 8.706 ], [ 77.823, 8.703 ], [ 77.832, 8.713 ], [ 77.828, 8.726 ], [ 77.836, 8.736 ], [ 77.849, 8.733 ], [ 77.857, 8.743 ], [ 77.853, 8.755 ], [ 77.862, 8.765 ], [ 77.874, 8.762 ], [ 77.883, 8.772 ], [ 77.879, 8.784 ], [ 77.887, 8.794 ], [ 77.9, 8.791 ], [ 77.908, 8.801 ], [ 77.905, 8.814 ], [ 77.913, 8.824 ], [ 77.909, 8.836 ], [ 77.918, 8.846 ], [ 77.914, 8.859 ], [ 77.922, 8.868 ], [ 77.918, 8.881 ], [ 77.927, 8.891 ], [ 77.939, 8.888 ], [ 77.948, 8.898 ], [ 77.944, 8.91 ], [ 77.952, 8.92 ], [ 77.948, 8.933 ], [ 77.957, 8.942 ], [ 77.969, 8.94 ], [ 77.978, 8.949 ], [ 77.974, 8.962 ], [ 77.982, 8.972 ], [ 77.979, 8.984 ], [ 77.987, 8.994 ], [ 78.0, 8.991 ], [ 78.008, 9.001 ], [ 78.004, 9.014 ], [ 78.013, 9.023 ], [ 78.009, 9.036 ], [ 78.017, 9.046 ], [ 78.013, 9.059 ], [ 78.022, 9.068 ], [ 78.018, 9.081 ], [ 78.026, 9.091 ], [ 78.039, 9.088 ], [ 78.047, 9.098 ], [ 78.043, 9.11 ], [ 78.052, 9.12 ], [ 78.065, 9.117 ], [ 78.073, 9.127 ], [ 78.069, 9.14 ], [ 78.078, 9.149 ], [ 78.09, 9.147 ], [ 78.099, 9.156 ], [ 78.095, 9.169 ], [ 78.103, 9.179 ], [ 78.116, 9.176 ], [ 78.124, 9.186 ], [ 78.12, 9.198 ], [ 78.129, 9.208 ], [ 78.142, 9.205 ], [ 78.15, 9.215 ], [ 78.163, 9.212 ], [ 78.171, 9.222 ], [ 78.167, 9.235 ], [ 78.176, 9.245 ], [ 78.188, 9.242 ], [ 78.197, 9.252 ], [ 78.209, 9.249 ], [ 78.218, 9.259 ], [ 78.214, 9.271 ], [ 78.223, 9.281 ], [ 78.235, 9.278 ], [ 78.244, 9.288 ], [ 78.256, 9.285 ], [ 78.265, 9.295 ], [ 78.277, 9.292 ], [ 78.286, 9.302 ], [ 78.298, 9.299 ], [ 78.307, 9.309 ], [ 78.303, 9.321 ], [ 78.312, 9.331 ], [ 78.324, 9.328 ], [ 78.333, 9.338 ], [ 78.345, 9.335 ], [ 78.354, 9.345 ], [ 78.366, 9.342 ], [ 78.375, 9.352 ], [ 78.388, 9.349 ], [ 78.396, 9.359 ], [ 78.409, 9.356 ], [ 78.417, 9.366 ], [ 78.43, 9.363 ], [ 78.438, 9.373 ], [ 78.451, 9.37 ], [ 78.46, 9.38 ], [ 78.456, 9.393 ], [ 78.464, 9.403 ], [ 78.46, 9.415 ], [ 78.469, 9.425 ], [ 78.481, 9.422 ], [ 78.49, 9.432 ], [ 78.486, 9.445 ], [ 78.495, 9.455 ], [ 78.491, 9.467 ], [ 78.499, 9.477 ], [ 78.512, 9.474 ] ] ], [ [ [ 79.994, 13.525 ], [ 80.006, 13.522 ], [ 80.015, 13.532 ], [ 80.011, 13.545 ], [ 79.998, 13.548 ], [ 79.99, 13.538 ], [ 79.994, 13.525 ] ] ], [ [ [ 77.711, 9.946 ], [ 77.724, 9.944 ], [ 77.732, 9.954 ], [ 77.728, 9.966 ], [ 77.716, 9.969 ], [ 77.707, 9.959 ], [ 77.711, 9.946 ] ] ] ] } },
{ "type": "Feature", "properties": { "POLYGON.ID": 37.0, "subregion": "India--Tamil Nadu--Coastal Polygon_CL26729", "FILTER": "Tamil Nadu", "POLYGON": "India--Tamil Nadu--Coastal Polygon_CL26729", "COUNTY": "spl_region", "STATE": "Tamil Nadu", "OWNER": null }, "geometry": { "type": "MultiPolygon", "coordinates": [ [ [ [ 79.628, 11.944 ], [ 79.632, 11.932 ], [ 79.623, 11.922 ], [ 79.627, 11.909 ], [ 79.64, 11.906 ], [ 79.649, 11.916 ], [ 79.645, 11.929 ], [ 79.653, 11.939 ], [ 79.649, 11.952 ], [ 79.658, 11.962 ], [ 79.654, 11.974 ], [ 79.641, 11.977 ], [ 79.637, 11.99 ], [ 79.646, 12.0 ], [ 79.642, 12.012 ], [ 79.651, 12.022 ], [ 79.647, 12.035 ], [ 79.634, 12.038 ], [ 79.625, 12.028 ], [ 79.629, 12.015 ], [ 79.621, 12.005 ], [ 79.625, 11.992 ], [ 79.616, 11.982 ], [ 79.62, 11.97 ], [ 79.633, 11.967 ], [ 79.637, 11.954 ], [ 79.628, 11.944 ] ] ], [ [ [ 79.613, 11.877 ], [ 79.601, 11.879 ], [ 79.592, 11.869 ], [ 79.596, 11.857 ], [ 79.609, 11.854 ], [ 79.617, 11.864 ], [ 79.613, 11.877 ] ] ] ] } },
{ "type": "Feature", "properties": { "POLYGON.ID": 85.0, "subregion": "India--Tamil Nadu--Coimbatore_CL30683", "FILTER": "Tamil Nadu", "POLYGON": "India--Tamil Nadu--Coimbatore_CL30683", "COUNTY": "Coimbatore", "STATE": "Tamil Nadu", "OWNER": null }, "geometry": { "type": "MultiPolygon", "coordinates": [ [ [ [ 76.877, 10.642 ], [ 76.869, 10.632 ], [ 76.856, 10.635 ], [ 76.848, 10.625 ], [ 76.835, 10.628 ], [ 76.831, 10.64 ], [ 76.819, 10.643 ], [ 76.811, 10.633 ], [ 76.814, 10.621 ], [ 76.827, 10.618 ], [ 76.831, 10.606 ], [ 76.843, 10.603 ], [ 76.847, 10.59 ], [ 76.839, 10.581 ], [ 76.843, 10.568 ], [ 76.855, 10.565 ], [ 76.864, 10.575 ], [ 76.876, 10.573 ], [ 76.88, 10.56 ], [ 76.871, 10.55 ], [ 76.859, 10.553 ], [ 76.851, 10.543 ], [ 76.855, 10.531 ], [ 76.867, 10.528 ], [ 76.871, 10.515 ], [ 76.863, 10.506 ], [ 76.867, 10.493 ], [ 76.879, 10.49 ], [ 76.883, 10.478 ], [ 76.895, 10.475 ], [ 76.904, 10.485 ], [ 76.916, 10.482 ], [ 76.925, 10.492 ], [ 76.937, 10.49 ], [ 76.941, 10.477 ], [ 76.953, 10.474 ], [ 76.962, 10.484 ], [ 76.974, 10.482 ], [ 76.983, 10.491 ], [ 76.979, 10.504 ], [ 76.987, 10.514 ], [ 77.0, 10.511 ], [ 77.008, 10.521 ], [ 77.02, 10.518 ], [ 77.029, 10.528 ], [ 77.041, 10.525 ], [ 77.05, 10.535 ], [ 77.062, 10.532 ], [ 77.071, 10.542 ], [ 77.067, 10.555 ], [ 77.075, 10.565 ], [ 77.088, 10.562 ], [ 77.096, 10.572 ], [ 77.092, 10.584 ], [ 77.1, 10.594 ], [ 77.113, 10.591 ], [ 77.117, 10.579 ], [ 77.129, 10.576 ], [ 77.138, 10.586 ], [ 77.15, 10.583 ], [ 77.159, 10.593 ], [ 77.171, 10.591 ], [ 77.18, 10.6 ], [ 77.176, 10.613 ], [ 77.184, 10.623 ], [ 77.18, 10.635 ], [ 77.168, 10.638 ], [ 77.164, 10.65 ], [ 77.151, 10.653 ], [ 77.147, 10.666 ], [ 77.135, 10.668 ], [ 77.131, 10.681 ], [ 77.139, 10.691 ], [ 77.135, 10.703 ], [ 77.144, 10.713 ], [ 77.14, 10.726 ], [ 77.148, 10.735 ], [ 77.144, 10.748 ], [ 77.153, 10.758 ], [ 77.149, 10.77 ], [ 77.157, 10.78 ], [ 77.153, 10.793 ], [ 77.162, 10.803 ], [ 77.174, 10.8 ], [ 77.183, 10.81 ], [ 77.195, 10.807 ], [ 77.199, 10.795 ], [ 77.212, 10.792 ], [ 77.216, 10.779 ], [ 77.228, 10.777 ], [ 77.237, 10.787 ], [ 77.249, 10.784 ], [ 77.253, 10.771 ], [ 77.266, 10.769 ], [ 77.274, 10.778 ], [ 77.27, 10.791 ], [ 77.279, 10.801 ], [ 77.291, 10.798 ], [ 77.299, 10.808 ], [ 77.295, 10.821 ], [ 77.283, 10.823 ], [ 77.279, 10.836 ], [ 77.267, 10.838 ], [ 77.263, 10.851 ], [ 77.25, 10.854 ], [ 77.246, 10.866 ], [ 77.255, 10.876 ], [ 77.251, 10.889 ], [ 77.259, 10.898 ], [ 77.255, 10.911 ], [ 77.243, 10.914 ], [ 77.234, 10.904 ], [ 77.222, 10.906 ], [ 77.213, 10.897 ], [ 77.201, 10.899 ], [ 77.197, 10.912 ], [ 77.184, 10.914 ], [ 77.18, 10.927 ], [ 77.168, 10.93 ], [ 77.164, 10.942 ], [ 77.172, 10.952 ], [ 77.169, 10.964 ], [ 77.177, 10.974 ], [ 77.173, 10.987 ], [ 77.161, 10.99 ], [ 77.157, 11.002 ], [ 77.165, 11.012 ], [ 77.178, 11.009 ], [ 77.186, 11.019 ], [ 77.182, 11.032 ], [ 77.17, 11.034 ], [ 77.166, 11.047 ], [ 77.174, 11.057 ], [ 77.17, 11.069 ], [ 77.179, 11.079 ], [ 77.191, 11.076 ], [ 77.2, 11.086 ], [ 77.212, 11.084 ], [ 77.221, 11.093 ], [ 77.233, 11.091 ], [ 77.241, 11.101 ], [ 77.254, 11.098 ], [ 77.262, 11.108 ], [ 77.258, 11.12 ], [ 77.246, 11.123 ], [ 77.242, 11.136 ], [ 77.23, 11.138 ], [ 77.221, 11.128 ], [ 77.209, 11.131 ], [ 77.205, 11.144 ], [ 77.192, 11.146 ], [ 77.184, 11.136 ], [ 77.171, 11.139 ], [ 77.167, 11.151 ], [ 77.176, 11.161 ], [ 77.172, 11.174 ], [ 77.159, 11.176 ], [ 77.155, 11.189 ], [ 77.164, 11.199 ], [ 77.16, 11.211 ], [ 77.147, 11.214 ], [ 77.143, 11.227 ], [ 77.152, 11.236 ], [ 77.164, 11.234 ], [ 77.173, 11.244 ], [ 77.169, 11.256 ], [ 77.177, 11.266 ], [ 77.173, 11.278 ], [ 77.161, 11.281 ], [ 77.152, 11.271 ], [ 77.14, 11.274 ], [ 77.136, 11.286 ], [ 77.123, 11.289 ], [ 77.119, 11.302 ], [ 77.128, 11.311 ], [ 77.14, 11.309 ], [ 77.149, 11.319 ], [ 77.145, 11.331 ], [ 77.132, 11.334 ], [ 77.128, 11.346 ], [ 77.137, 11.356 ], [ 77.133, 11.369 ], [ 77.121, 11.371 ], [ 77.117, 11.384 ], [ 77.104, 11.386 ], [ 77.1, 11.399 ], [ 77.088, 11.402 ], [ 77.079, 11.392 ], [ 77.067, 11.394 ], [ 77.063, 11.407 ], [ 77.05, 11.409 ], [ 77.042, 11.4 ], [ 77.029, 11.402 ], [ 77.021, 11.392 ], [ 77.025, 11.38 ], [ 77.016, 11.37 ], [ 77.004, 11.373 ], [ 76.995, 11.363 ], [ 76.999, 11.35 ], [ 76.991, 11.34 ], [ 76.995, 11.328 ], [ 76.986, 11.318 ], [ 76.974, 11.321 ], [ 76.966, 11.311 ], [ 76.953, 11.313 ], [ 76.945, 11.303 ], [ 76.949, 11.291 ], [ 76.94, 11.281 ], [ 76.928, 11.284 ], [ 76.919, 11.274 ], [ 76.907, 11.276 ], [ 76.898, 11.267 ], [ 76.886, 11.269 ], [ 76.877, 11.259 ], [ 76.881, 11.247 ], [ 76.873, 11.237 ], [ 76.861, 11.24 ], [ 76.852, 11.23 ], [ 76.84, 11.232 ], [ 76.831, 11.223 ], [ 76.819, 11.225 ], [ 76.81, 11.215 ], [ 76.814, 11.203 ], [ 76.827, 11.2 ], [ 76.831, 11.188 ], [ 76.843, 11.185 ], [ 76.852, 11.195 ], [ 76.848, 11.207 ], [ 76.856, 11.217 ], [ 76.869, 11.215 ], [ 76.877, 11.225 ], [ 76.889, 11.222 ], [ 76.898, 11.232 ], [ 76.91, 11.229 ], [ 76.919, 11.239 ], [ 76.931, 11.236 ], [ 76.935, 11.224 ], [ 76.927, 11.214 ], [ 76.931, 11.202 ], [ 76.922, 11.192 ], [ 76.926, 11.179 ], [ 76.918, 11.169 ], [ 76.922, 11.157 ], [ 76.913, 11.147 ], [ 76.917, 11.135 ], [ 76.93, 11.132 ], [ 76.934, 11.119 ], [ 76.925, 11.11 ], [ 76.913, 11.112 ], [ 76.904, 11.102 ], [ 76.892, 11.105 ], [ 76.883, 11.095 ], [ 76.887, 11.083 ], [ 76.9, 11.08 ], [ 76.904, 11.067 ], [ 76.895, 11.058 ], [ 76.899, 11.045 ], [ 76.891, 11.035 ], [ 76.878, 11.038 ], [ 76.87, 11.028 ], [ 76.874, 11.016 ], [ 76.866, 11.006 ], [ 76.853, 11.008 ], [ 76.849, 11.021 ], [ 76.837, 11.024 ], [ 76.828, 11.014 ], [ 76.816, 11.016 ], [ 76.807, 11.006 ], [ 76.795, 11.009 ], [ 76.787, 10.999 ], [ 76.774, 11.002 ], [ 76.766, 10.992 ], [ 76.77, 10.98 ], [ 76.761, 10.97 ], [ 76.765, 10.957 ], [ 76.757, 10.947 ], [ 76.761, 10.935 ], [ 76.773, 10.932 ], [ 76.782, 10.942 ], [ 76.794, 10.939 ], [ 76.803, 10.949 ], [ 76.815, 10.947 ], [ 76.823, 10.957 ], [ 76.836, 10.954 ], [ 76.84, 10.941 ], [ 76.852, 10.939 ], [ 76.861, 10.949 ], [ 76.873, 10.946 ], [ 76.881, 10.956 ], [ 76.894, 10.953 ], [ 76.898, 10.941 ], [ 76.91, 10.938 ], [ 76.919, 10.948 ], [ 76.931, 10.945 ], [ 76.935, 10.933 ], [ 76.948, 10.93 ], [ 76.951, 10.918 ], [ 76.943, 10.908 ], [ 76.931, 10.91 ], [ 76.922, 10.901 ], [ 76.91, 10.903 ], [ 76.901, 10.893 ], [ 76.889, 10.896 ], [ 76.88, 10.886 ], [ 76.868, 10.889 ], [ 76.86, 10.879 ], [ 76.864, 10.866 ], [ 76.876, 10.864 ], [ 76.88, 10.851 ], [ 76.872, 10.841 ], [ 76.875, 10.829 ], [ 76.867, 10.819 ], [ 76.871, 10.807 ], [ 76.883, 10.804 ], [ 76.892, 10.814 ], [ 76.904, 10.811 ], [ 76.908, 10.799 ], [ 76.9, 10.789 ], [ 76.904, 10.776 ], [ 76.895, 10.766 ], [ 76.899, 10.754 ], [ 76.891, 10.744 ], [ 76.895, 10.732 ], [ 76.886, 10.722 ], [ 76.89, 10.709 ], [ 76.882, 10.699 ], [ 76.87, 10.702 ], [ 76.861, 10.692 ], [ 76.865, 10.68 ], [ 76.877, 10.677 ], [ 76.881, 10.665 ], [ 76.873, 10.655 ], [ 76.877, 10.642 ] ] ] ] } },
{ "type": "Feature", "properties": { "POLYGON.ID": 222.0, "subregion": "India--Tamil Nadu--Erode_CL32235", "FILTER": "Tamil Nadu", "POLYGON": "India--Tamil Nadu--Erode_CL32235", "COUNTY": "Erode", "STATE": "Tamil Nadu", "OWNER": null }, "geometry": { "type": "MultiPolygon", "coordinates": [ [ [ [ 77.735, 11.604 ], [ 77.731, 11.617 ], [ 77.74, 11.626 ], [ 77.752, 11.624 ], [ 77.761, 11.634 ], [ 77.757, 11.646 ], [ 77.744, 11.649 ], [ 77.736, 11.639 ], [ 77.723, 11.642 ], [ 77.715, 11.632 ], [ 77.702, 11.634 ], [ 77.698, 11.647 ], [ 77.686, 11.65 ], [ 77.682, 11.662 ], [ 77.69, 11.672 ], [ 77.686, 11.684 ], [ 77.695, 11.694 ], [ 77.691, 11.707 ], [ 77.678, 11.71 ], [ 77.67, 11.7 ], [ 77.657, 11.702 ], [ 77.649, 11.692 ], [ 77.636, 11.695 ], [ 77.628, 11.685 ], [ 77.615, 11.688 ], [ 77.606, 11.678 ], [ 77.594, 11.681 ], [ 77.585, 11.671 ], [ 77.589, 11.658 ], [ 77.581, 11.648 ], [ 77.568, 11.651 ], [ 77.56, 11.641 ], [ 77.564, 11.628 ], [ 77.555, 11.618 ], [ 77.559, 11.606 ], [ 77.551, 11.596 ], [ 77.554, 11.584 ], [ 77.546, 11.574 ], [ 77.533, 11.576 ], [ 77.525, 11.566 ], [ 77.512, 11.569 ], [ 77.504, 11.559 ], [ 77.491, 11.562 ], [ 77.483, 11.552 ], [ 77.47, 11.554 ], [ 77.462, 11.545 ], [ 77.449, 11.547 ], [ 77.441, 11.537 ], [ 77.428, 11.54 ], [ 77.42, 11.53 ], [ 77.407, 11.533 ], [ 77.399, 11.523 ], [ 77.386, 11.525 ], [ 77.382, 11.538 ], [ 77.37, 11.541 ], [ 77.361, 11.531 ], [ 77.349, 11.533 ], [ 77.34, 11.523 ], [ 77.327, 11.526 ], [ 77.319, 11.516 ], [ 77.306, 11.519 ], [ 77.302, 11.531 ], [ 77.29, 11.534 ], [ 77.281, 11.524 ], [ 77.269, 11.527 ], [ 77.265, 11.539 ], [ 77.253, 11.542 ], [ 77.244, 11.532 ], [ 77.232, 11.535 ], [ 77.228, 11.547 ], [ 77.215, 11.55 ], [ 77.211, 11.562 ], [ 77.199, 11.565 ], [ 77.19, 11.555 ], [ 77.178, 11.558 ], [ 77.174, 11.57 ], [ 77.161, 11.573 ], [ 77.153, 11.563 ], [ 77.157, 11.55 ], [ 77.148, 11.54 ], [ 77.136, 11.543 ], [ 77.127, 11.533 ], [ 77.131, 11.521 ], [ 77.123, 11.511 ], [ 77.11, 11.513 ], [ 77.102, 11.504 ], [ 77.089, 11.506 ], [ 77.081, 11.496 ], [ 77.068, 11.499 ], [ 77.064, 11.511 ], [ 77.052, 11.514 ], [ 77.043, 11.504 ], [ 77.047, 11.492 ], [ 77.06, 11.489 ], [ 77.064, 11.477 ], [ 77.055, 11.467 ], [ 77.059, 11.454 ], [ 77.051, 11.444 ], [ 77.055, 11.432 ], [ 77.046, 11.422 ], [ 77.034, 11.425 ], [ 77.025, 11.415 ], [ 77.029, 11.402 ], [ 77.042, 11.4 ], [ 77.05, 11.409 ], [ 77.063, 11.407 ], [ 77.067, 11.394 ], [ 77.079, 11.392 ], [ 77.088, 11.402 ], [ 77.1, 11.399 ], [ 77.104, 11.386 ], [ 77.117, 11.384 ], [ 77.121, 11.371 ], [ 77.133, 11.369 ], [ 77.137, 11.356 ], [ 77.128, 11.346 ], [ 77.132, 11.334 ], [ 77.145, 11.331 ], [ 77.153, 11.341 ], [ 77.166, 11.338 ], [ 77.17, 11.326 ], [ 77.182, 11.323 ], [ 77.191, 11.333 ], [ 77.203, 11.33 ], [ 77.212, 11.34 ], [ 77.224, 11.338 ], [ 77.228, 11.325 ], [ 77.241, 11.323 ], [ 77.245, 11.31 ], [ 77.257, 11.307 ], [ 77.266, 11.317 ], [ 77.278, 11.315 ], [ 77.282, 11.302 ], [ 77.295, 11.3 ], [ 77.299, 11.287 ], [ 77.311, 11.284 ], [ 77.315, 11.272 ], [ 77.328, 11.269 ], [ 77.336, 11.279 ], [ 77.349, 11.276 ], [ 77.357, 11.286 ], [ 77.353, 11.299 ], [ 77.341, 11.301 ], [ 77.337, 11.314 ], [ 77.345, 11.324 ], [ 77.358, 11.321 ], [ 77.366, 11.331 ], [ 77.379, 11.328 ], [ 77.383, 11.316 ], [ 77.395, 11.313 ], [ 77.404, 11.323 ], [ 77.416, 11.32 ], [ 77.42, 11.308 ], [ 77.433, 11.305 ], [ 77.441, 11.315 ], [ 77.454, 11.313 ], [ 77.458, 11.3 ], [ 77.47, 11.297 ], [ 77.474, 11.285 ], [ 77.466, 11.275 ], [ 77.47, 11.262 ], [ 77.461, 11.253 ], [ 77.465, 11.24 ], [ 77.478, 11.237 ], [ 77.482, 11.225 ], [ 77.494, 11.222 ], [ 77.498, 11.21 ], [ 77.511, 11.207 ], [ 77.515, 11.194 ], [ 77.506, 11.185 ], [ 77.494, 11.187 ], [ 77.485, 11.177 ], [ 77.472, 11.18 ], [ 77.464, 11.17 ], [ 77.468, 11.158 ], [ 77.48, 11.155 ], [ 77.484, 11.142 ], [ 77.497, 11.14 ], [ 77.501, 11.127 ], [ 77.492, 11.117 ], [ 77.496, 11.105 ], [ 77.509, 11.102 ], [ 77.517, 11.112 ], [ 77.53, 11.109 ], [ 77.538, 11.119 ], [ 77.551, 11.116 ], [ 77.555, 11.104 ], [ 77.567, 11.101 ], [ 77.576, 11.111 ], [ 77.588, 11.108 ], [ 77.597, 11.118 ], [ 77.61, 11.116 ], [ 77.618, 11.126 ], [ 77.631, 11.123 ], [ 77.635, 11.11 ], [ 77.647, 11.108 ], [ 77.656, 11.118 ], [ 77.668, 11.115 ], [ 77.672, 11.102 ], [ 77.685, 11.1 ], [ 77.689, 11.087 ], [ 77.701, 11.084 ], [ 77.71, 11.094 ], [ 77.722, 11.092 ], [ 77.726, 11.079 ], [ 77.739, 11.076 ], [ 77.747, 11.086 ], [ 77.76, 11.084 ], [ 77.764, 11.071 ], [ 77.776, 11.068 ], [ 77.78, 11.056 ], [ 77.793, 11.053 ], [ 77.802, 11.063 ], [ 77.814, 11.06 ], [ 77.823, 11.07 ], [ 77.835, 11.067 ], [ 77.839, 11.055 ], [ 77.852, 11.052 ], [ 77.856, 11.04 ], [ 77.868, 11.037 ], [ 77.872, 11.024 ], [ 77.885, 11.022 ], [ 77.893, 11.031 ], [ 77.906, 11.029 ], [ 77.915, 11.039 ], [ 77.911, 11.051 ], [ 77.919, 11.061 ], [ 77.915, 11.074 ], [ 77.903, 11.076 ], [ 77.899, 11.089 ], [ 77.886, 11.092 ], [ 77.882, 11.104 ], [ 77.891, 11.114 ], [ 77.887, 11.127 ], [ 77.895, 11.137 ], [ 77.891, 11.149 ], [ 77.879, 11.152 ], [ 77.875, 11.164 ], [ 77.862, 11.167 ], [ 77.858, 11.18 ], [ 77.867, 11.19 ], [ 77.863, 11.202 ], [ 77.871, 11.212 ], [ 77.867, 11.225 ], [ 77.876, 11.234 ], [ 77.872, 11.247 ], [ 77.859, 11.25 ], [ 77.855, 11.262 ], [ 77.843, 11.265 ], [ 77.834, 11.255 ], [ 77.822, 11.258 ], [ 77.818, 11.27 ], [ 77.805, 11.273 ], [ 77.801, 11.286 ], [ 77.789, 11.288 ], [ 77.785, 11.301 ], [ 77.772, 11.303 ], [ 77.768, 11.316 ], [ 77.777, 11.326 ], [ 77.773, 11.338 ], [ 77.76, 11.341 ], [ 77.756, 11.354 ], [ 77.744, 11.356 ], [ 77.74, 11.369 ], [ 77.727, 11.372 ], [ 77.723, 11.384 ], [ 77.711, 11.387 ], [ 77.707, 11.399 ], [ 77.694, 11.402 ], [ 77.69, 11.415 ], [ 77.678, 11.417 ], [ 77.674, 11.43 ], [ 77.682, 11.44 ], [ 77.695, 11.437 ], [ 77.703, 11.447 ], [ 77.699, 11.459 ], [ 77.708, 11.469 ], [ 77.704, 11.482 ], [ 77.712, 11.492 ], [ 77.725, 11.489 ], [ 77.734, 11.499 ], [ 77.73, 11.512 ], [ 77.738, 11.521 ], [ 77.734, 11.534 ], [ 77.722, 11.537 ], [ 77.718, 11.549 ], [ 77.726, 11.559 ], [ 77.739, 11.556 ], [ 77.747, 11.566 ], [ 77.743, 11.579 ], [ 77.731, 11.582 ], [ 77.727, 11.594 ], [ 77.735, 11.604 ] ] ], [ [ [ 76.972, 11.729 ], [ 76.98, 11.739 ], [ 76.976, 11.751 ], [ 76.985, 11.761 ], [ 76.997, 11.758 ], [ 77.006, 11.768 ], [ 77.018, 11.766 ], [ 77.027, 11.776 ], [ 77.023, 11.788 ], [ 77.031, 11.798 ], [ 77.027, 11.81 ], [ 77.015, 11.813 ], [ 77.006, 11.803 ], [ 76.994, 11.806 ], [ 76.985, 11.796 ], [ 76.973, 11.798 ], [ 76.964, 11.789 ], [ 76.952, 11.791 ], [ 76.943, 11.781 ], [ 76.931, 11.784 ], [ 76.927, 11.796 ], [ 76.914, 11.799 ], [ 76.906, 11.789 ], [ 76.91, 11.777 ], [ 76.901, 11.767 ], [ 76.905, 11.754 ], [ 76.897, 11.744 ], [ 76.884, 11.747 ], [ 76.876, 11.737 ], [ 76.88, 11.725 ], [ 76.872, 11.715 ], [ 76.876, 11.702 ], [ 76.867, 11.692 ], [ 76.871, 11.68 ], [ 76.883, 11.677 ], [ 76.887, 11.665 ], [ 76.9, 11.662 ], [ 76.908, 11.672 ], [ 76.904, 11.685 ], [ 76.913, 11.694 ], [ 76.925, 11.692 ], [ 76.934, 11.702 ], [ 76.93, 11.714 ], [ 76.938, 11.724 ], [ 76.951, 11.722 ], [ 76.959, 11.731 ], [ 76.972, 11.729 ] ] ] ] } },
{ "type": "Feature", "properties": { "POLYGON.ID": 221.0, "subregion": "India--Tamil Nadu--Tiruppur_CL32234", "FILTER": "Tamil Nadu", "POLYGON": "India--Tamil Nadu--Tiruppur_CL32234", "COUNTY": "Tiruppur", "STATE": "Tamil Nadu", "OWNER": null }, "geometry": { "type": "MultiPolygon", "coordinates": [ [ [ [ 77.144, 10.748 ], [ 77.148, 10.735 ], [ 77.14, 10.726 ], [ 77.144, 10.713 ], [ 77.135, 10.703 ], [ 77.139, 10.691 ], [ 77.131, 10.681 ], [ 77.135, 10.668 ], [ 77.147, 10.666 ], [ 77.151, 10.653 ], [ 77.164, 10.65 ], [ 77.168, 10.638 ], [ 77.18, 10.635 ], [ 77.184, 10.623 ], [ 77.176, 10.613 ], [ 77.18, 10.6 ], [ 77.171, 10.591 ], [ 77.159, 10.593 ], [ 77.15, 10.583 ], [ 77.138, 10.586 ], [ 77.129, 10.576 ], [ 77.117, 10.579 ], [ 77.113, 10.591 ], [ 77.1, 10.594 ], [ 77.092, 10.584 ], [ 77.096, 10.572 ], [ 77.088, 10.562 ], [ 77.075, 10.565 ], [ 77.067, 10.555 ], [ 77.071, 10.542 ], [ 77.062, 10.532 ], [ 77.066, 10.52 ], [ 77.079, 10.517 ], [ 77.083, 10.505 ], [ 77.095, 10.502 ], [ 77.103, 10.512 ], [ 77.116, 10.509 ], [ 77.12, 10.497 ], [ 77.132, 10.494 ], [ 77.136, 10.481 ], [ 77.149, 10.479 ], [ 77.157, 10.489 ], [ 77.17, 10.486 ], [ 77.178, 10.496 ], [ 77.19, 10.493 ], [ 77.194, 10.48 ], [ 77.207, 10.478 ], [ 77.211, 10.465 ], [ 77.223, 10.463 ], [ 77.232, 10.472 ], [ 77.244, 10.47 ], [ 77.248, 10.457 ], [ 77.261, 10.454 ], [ 77.265, 10.442 ], [ 77.277, 10.439 ], [ 77.286, 10.449 ], [ 77.298, 10.446 ], [ 77.302, 10.434 ], [ 77.314, 10.431 ], [ 77.323, 10.441 ], [ 77.319, 10.453 ], [ 77.327, 10.463 ], [ 77.34, 10.461 ], [ 77.344, 10.448 ], [ 77.356, 10.445 ], [ 77.365, 10.455 ], [ 77.377, 10.452 ], [ 77.386, 10.462 ], [ 77.382, 10.475 ], [ 77.39, 10.485 ], [ 77.386, 10.497 ], [ 77.395, 10.507 ], [ 77.391, 10.52 ], [ 77.378, 10.522 ], [ 77.374, 10.535 ], [ 77.362, 10.538 ], [ 77.358, 10.55 ], [ 77.366, 10.56 ], [ 77.379, 10.557 ], [ 77.387, 10.567 ], [ 77.383, 10.58 ], [ 77.392, 10.59 ], [ 77.388, 10.602 ], [ 77.396, 10.612 ], [ 77.409, 10.609 ], [ 77.417, 10.619 ], [ 77.43, 10.616 ], [ 77.438, 10.626 ], [ 77.451, 10.623 ], [ 77.459, 10.633 ], [ 77.455, 10.646 ], [ 77.464, 10.656 ], [ 77.476, 10.653 ], [ 77.48, 10.64 ], [ 77.493, 10.638 ], [ 77.497, 10.625 ], [ 77.509, 10.623 ], [ 77.513, 10.61 ], [ 77.526, 10.607 ], [ 77.534, 10.617 ], [ 77.547, 10.614 ], [ 77.555, 10.624 ], [ 77.551, 10.637 ], [ 77.56, 10.647 ], [ 77.572, 10.644 ], [ 77.581, 10.654 ], [ 77.577, 10.666 ], [ 77.585, 10.676 ], [ 77.598, 10.674 ], [ 77.607, 10.683 ], [ 77.619, 10.681 ], [ 77.623, 10.668 ], [ 77.636, 10.665 ], [ 77.644, 10.675 ], [ 77.657, 10.673 ], [ 77.665, 10.682 ], [ 77.661, 10.695 ], [ 77.67, 10.705 ], [ 77.666, 10.717 ], [ 77.674, 10.727 ], [ 77.687, 10.725 ], [ 77.695, 10.734 ], [ 77.708, 10.732 ], [ 77.712, 10.719 ], [ 77.703, 10.709 ], [ 77.707, 10.697 ], [ 77.699, 10.687 ], [ 77.703, 10.674 ], [ 77.694, 10.664 ], [ 77.698, 10.652 ], [ 77.711, 10.649 ], [ 77.715, 10.637 ], [ 77.727, 10.634 ], [ 77.736, 10.644 ], [ 77.748, 10.641 ], [ 77.757, 10.651 ], [ 77.753, 10.663 ], [ 77.761, 10.673 ], [ 77.774, 10.671 ], [ 77.782, 10.68 ], [ 77.795, 10.678 ], [ 77.803, 10.688 ], [ 77.799, 10.7 ], [ 77.808, 10.71 ], [ 77.821, 10.707 ], [ 77.829, 10.717 ], [ 77.825, 10.73 ], [ 77.834, 10.74 ], [ 77.83, 10.752 ], [ 77.817, 10.755 ], [ 77.809, 10.745 ], [ 77.796, 10.748 ], [ 77.792, 10.76 ], [ 77.78, 10.763 ], [ 77.776, 10.776 ], [ 77.784, 10.785 ], [ 77.797, 10.783 ], [ 77.805, 10.793 ], [ 77.818, 10.79 ], [ 77.826, 10.8 ], [ 77.839, 10.797 ], [ 77.843, 10.785 ], [ 77.855, 10.782 ], [ 77.859, 10.769 ], [ 77.872, 10.767 ], [ 77.88, 10.776 ], [ 77.877, 10.789 ], [ 77.885, 10.799 ], [ 77.881, 10.811 ], [ 77.869, 10.814 ], [ 77.865, 10.827 ], [ 77.873, 10.837 ], [ 77.869, 10.849 ], [ 77.857, 10.852 ], [ 77.848, 10.842 ], [ 77.836, 10.845 ], [ 77.832, 10.857 ], [ 77.819, 10.86 ], [ 77.81, 10.85 ], [ 77.798, 10.853 ], [ 77.794, 10.865 ], [ 77.781, 10.868 ], [ 77.777, 10.881 ], [ 77.765, 10.883 ], [ 77.761, 10.896 ], [ 77.769, 10.906 ], [ 77.765, 10.918 ], [ 77.774, 10.928 ], [ 77.77, 10.941 ], [ 77.779, 10.951 ], [ 77.775, 10.963 ], [ 77.762, 10.966 ], [ 77.758, 10.979 ], [ 77.767, 10.988 ], [ 77.779, 10.986 ], [ 77.788, 10.996 ], [ 77.784, 11.008 ], [ 77.792, 11.018 ], [ 77.788, 11.031 ], [ 77.776, 11.033 ], [ 77.772, 11.046 ], [ 77.78, 11.056 ], [ 77.776, 11.068 ], [ 77.764, 11.071 ], [ 77.76, 11.084 ], [ 77.747, 11.086 ], [ 77.739, 11.076 ], [ 77.726, 11.079 ], [ 77.722, 11.092 ], [ 77.71, 11.094 ], [ 77.701, 11.084 ], [ 77.689, 11.087 ], [ 77.685, 11.1 ], [ 77.672, 11.102 ], [ 77.668, 11.115 ], [ 77.656, 11.118 ], [ 77.647, 11.108 ], [ 77.635, 11.11 ], [ 77.631, 11.123 ], [ 77.618, 11.126 ], [ 77.61, 11.116 ], [ 77.597, 11.118 ], [ 77.588, 11.108 ], [ 77.576, 11.111 ], [ 77.567, 11.101 ], [ 77.555, 11.104 ], [ 77.551, 11.116 ], [ 77.538, 11.119 ], [ 77.53, 11.109 ], [ 77.517, 11.112 ], [ 77.509, 11.102 ], [ 77.496, 11.105 ], [ 77.492, 11.117 ], [ 77.501, 11.127 ], [ 77.497, 11.14 ], [ 77.484, 11.142 ], [ 77.48, 11.155 ], [ 77.468, 11.158 ], [ 77.464, 11.17 ], [ 77.472, 11.18 ], [ 77.485, 11.177 ], [ 77.494, 11.187 ], [ 77.506, 11.185 ], [ 77.515, 11.194 ], [ 77.511, 11.207 ], [ 77.498, 11.21 ], [ 77.494, 11.222 ], [ 77.482, 11.225 ], [ 77.478, 11.237 ], [ 77.465, 11.24 ], [ 77.461, 11.253 ], [ 77.47, 11.262 ], [ 77.466, 11.275 ], [ 77.474, 11.285 ], [ 77.47, 11.297 ], [ 77.458, 11.3 ], [ 77.454, 11.313 ], [ 77.441, 11.315 ], [ 77.433, 11.305 ], [ 77.42, 11.308 ], [ 77.416, 11.32 ], [ 77.404, 11.323 ], [ 77.395, 11.313 ], [ 77.383, 11.316 ], [ 77.379, 11.328 ], [ 77.366, 11.331 ], [ 77.358, 11.321 ], [ 77.345, 11.324 ], [ 77.337, 11.314 ], [ 77.341, 11.301 ], [ 77.353, 11.299 ], [ 77.357, 11.286 ], [ 77.349, 11.276 ], [ 77.336, 11.279 ], [ 77.328, 11.269 ], [ 77.315, 11.272 ], [ 77.311, 11.284 ], [ 77.299, 11.287 ], [ 77.295, 11.3 ], [ 77.282, 11.302 ], [ 77.278, 11.315 ], [ 77.266, 11.317 ], [ 77.257, 11.307 ], [ 77.245, 11.31 ], [ 77.241, 11.323 ], [ 77.228, 11.325 ], [ 77.224, 11.338 ], [ 77.212, 11.34 ], [ 77.203, 11.33 ], [ 77.191, 11.333 ], [ 77.182, 11.323 ], [ 77.17, 11.326 ], [ 77.166, 11.338 ], [ 77.153, 11.341 ], [ 77.145, 11.331 ], [ 77.149, 11.319 ], [ 77.14, 11.309 ], [ 77.128, 11.311 ], [ 77.119, 11.302 ], [ 77.123, 11.289 ], [ 77.136, 11.286 ], [ 77.14, 11.274 ], [ 77.152, 11.271 ], [ 77.161, 11.281 ], [ 77.173, 11.278 ], [ 77.177, 11.266 ], [ 77.169, 11.256 ], [ 77.173, 11.244 ], [ 77.164, 11.234 ], [ 77.152, 11.236 ], [ 77.143, 11.227 ], [ 77.147, 11.214 ], [ 77.16, 11.211 ], [ 77.164, 11.199 ], [ 77.155, 11.189 ], [ 77.159, 11.176 ], [ 77.172, 11.174 ], [ 77.176, 11.161 ], [ 77.167, 11.151 ], [ 77.171, 11.139 ], [ 77.184, 11.136 ], [ 77.192, 11.146 ], [ 77.205, 11.144 ], [ 77.209, 11.131 ], [ 77.221, 11.128 ], [ 77.23, 11.138 ], [ 77.242, 11.136 ], [ 77.246, 11.123 ], [ 77.258, 11.12 ], [ 77.262, 11.108 ], [ 77.254, 11.098 ], [ 77.241, 11.101 ], [ 77.233, 11.091 ], [ 77.221, 11.093 ], [ 77.212, 11.084 ], [ 77.2, 11.086 ], [ 77.191, 11.076 ], [ 77.179, 11.079 ], [ 77.17, 11.069 ], [ 77.174, 11.057 ], [ 77.166, 11.047 ], [ 77.17, 11.034 ], [ 77.182, 11.032 ], [ 77.186, 11.019 ], [ 77.178, 11.009 ], [ 77.165, 11.012 ], [ 77.157, 11.002 ], [ 77.161, 10.99 ], [ 77.173, 10.987 ], [ 77.177, 10.974 ], [ 77.169, 10.964 ], [ 77.172, 10.952 ], [ 77.164, 10.942 ], [ 77.168, 10.93 ], [ 77.18, 10.927 ], [ 77.184, 10.914 ], [ 77.197, 10.912 ], [ 77.201, 10.899 ], [ 77.213, 10.897 ], [ 77.222, 10.906 ], [ 77.234, 10.904 ], [ 77.243, 10.914 ], [ 77.255, 10.911 ], [ 77.259, 10.898 ], [ 77.251, 10.889 ], [ 77.255, 10.876 ], [ 77.246, 10.866 ], [ 77.25, 10.854 ], [ 77.263, 10.851 ], [ 77.267, 10.838 ], [ 77.279, 10.836 ], [ 77.283, 10.823 ], [ 77.295, 10.821 ], [ 77.299, 10.808 ], [ 77.291, 10.798 ], [ 77.279, 10.801 ], [ 77.27, 10.791 ], [ 77.274, 10.778 ], [ 77.266, 10.769 ], [ 77.253, 10.771 ], [ 77.249, 10.784 ], [ 77.237, 10.787 ], [ 77.228, 10.777 ], [ 77.216, 10.779 ], [ 77.212, 10.792 ], [ 77.199, 10.795 ], [ 77.195, 10.807 ], [ 77.183, 10.81 ], [ 77.174, 10.8 ], [ 77.162, 10.803 ], [ 77.153, 10.793 ], [ 77.157, 10.78 ], [ 77.149, 10.77 ], [ 77.153, 10.758 ], [ 77.144, 10.748 ] ] ] ] } }
]
}
