{
"type": "FeatureCollection",
"name": "Telangana",
"crs": { "type": "name", "properties": { "name": "urn:ogc:def:crs:OGC:1.3:CRS84" } },
"features": [
{ "type": "Feature", "properties": { "POLYGON.ID": 1329.0, "subregion": "India--Telangana--Warangal Rural--Hills", "POLYGON": "India--Telangana--Warangal Rural--Hills", "SHOW": "1", "FILTER": "Not-Assigned", "FILTER.ID": null, "OLD.POLYGON": null, "STATE": "Telangana", "COUNTY": "Warangal Rural", "OWNER": null }, "geometry": { "type": "MultiPolygon", "coordinates": [ [ [ [ 80.275, 17.697 ], [ 80.271, 17.709 ], [ 80.28, 17.719 ], [ 80.276, 17.732 ], [ 80.263, 17.734 ], [ 80.259, 17.746 ], [ 80.268, 17.756 ], [ 80.264, 17.769 ], [ 80.273, 17.779 ], [ 80.269, 17.791 ], [ 80.256, 17.794 ], [ 80.252, 17.806 ], [ 80.261, 17.816 ], [ 80.257, 17.828 ], [ 80.266, 17.839 ], [ 80.262, 17.851 ], [ 80.271, 17.861 ], [ 80.267, 17.873 ], [ 80.276, 17.883 ], [ 80.272, 17.896 ], [ 80.281, 17.906 ], [ 80.277, 17.918 ], [ 80.286, 17.928 ], [ 80.282, 17.941 ], [ 80.291, 17.951 ], [ 80.287, 17.963 ], [ 80.296, 17.973 ], [ 80.292, 17.986 ], [ 80.279, 17.988 ], [ 80.274, 18.0 ], [ 80.261, 18.003 ], [ 80.257, 18.015 ], [ 80.244, 18.018 ], [ 80.24, 18.03 ], [ 80.227, 18.032 ], [ 80.223, 18.045 ], [ 80.21, 18.047 ], [ 80.206, 18.059 ], [ 80.192, 18.062 ], [ 80.188, 18.074 ], [ 80.175, 18.077 ], [ 80.171, 18.089 ], [ 80.158, 18.091 ], [ 80.154, 18.104 ], [ 80.141, 18.106 ], [ 80.132, 18.096 ], [ 80.119, 18.098 ], [ 80.115, 18.111 ], [ 80.101, 18.113 ], [ 80.092, 18.103 ], [ 80.079, 18.105 ], [ 80.075, 18.118 ], [ 80.062, 18.12 ], [ 80.053, 18.11 ], [ 80.04, 18.112 ], [ 80.036, 18.125 ], [ 80.023, 18.127 ], [ 80.014, 18.117 ], [ 80.001, 18.119 ], [ 79.992, 18.109 ], [ 79.978, 18.112 ], [ 79.969, 18.101 ], [ 79.956, 18.104 ], [ 79.947, 18.094 ], [ 79.934, 18.096 ], [ 79.925, 18.086 ], [ 79.912, 18.088 ], [ 79.903, 18.078 ], [ 79.907, 18.066 ], [ 79.92, 18.064 ], [ 79.924, 18.051 ], [ 79.937, 18.049 ], [ 79.941, 18.037 ], [ 79.932, 18.026 ], [ 79.936, 18.014 ], [ 79.95, 18.012 ], [ 79.954, 17.999 ], [ 79.967, 17.997 ], [ 79.971, 17.985 ], [ 79.962, 17.975 ], [ 79.966, 17.962 ], [ 79.957, 17.952 ], [ 79.961, 17.94 ], [ 79.952, 17.93 ], [ 79.956, 17.917 ], [ 79.947, 17.907 ], [ 79.951, 17.895 ], [ 79.964, 17.893 ], [ 79.968, 17.88 ], [ 79.981, 17.878 ], [ 79.985, 17.866 ], [ 79.976, 17.855 ], [ 79.98, 17.843 ], [ 79.993, 17.841 ], [ 79.998, 17.828 ], [ 79.988, 17.818 ], [ 79.993, 17.806 ], [ 79.984, 17.796 ], [ 79.988, 17.783 ], [ 79.979, 17.773 ], [ 79.983, 17.761 ], [ 79.974, 17.751 ], [ 79.978, 17.739 ], [ 79.969, 17.728 ], [ 79.973, 17.716 ], [ 79.986, 17.714 ], [ 79.99, 17.701 ], [ 79.981, 17.691 ], [ 79.985, 17.679 ], [ 79.976, 17.669 ], [ 79.98, 17.656 ], [ 79.971, 17.646 ], [ 79.975, 17.634 ], [ 79.988, 17.632 ], [ 79.992, 17.619 ], [ 79.983, 17.609 ], [ 79.987, 17.597 ], [ 80.0, 17.594 ], [ 80.004, 17.582 ], [ 80.017, 17.58 ], [ 80.022, 17.567 ], [ 80.035, 17.565 ], [ 80.039, 17.552 ], [ 80.052, 17.55 ], [ 80.061, 17.56 ], [ 80.074, 17.558 ], [ 80.078, 17.545 ], [ 80.091, 17.543 ], [ 80.095, 17.53 ], [ 80.108, 17.528 ], [ 80.112, 17.516 ], [ 80.103, 17.506 ], [ 80.107, 17.493 ], [ 80.12, 17.491 ], [ 80.125, 17.478 ], [ 80.138, 17.476 ], [ 80.142, 17.464 ], [ 80.155, 17.461 ], [ 80.159, 17.449 ], [ 80.172, 17.446 ], [ 80.176, 17.434 ], [ 80.189, 17.432 ], [ 80.198, 17.442 ], [ 80.194, 17.454 ], [ 80.203, 17.464 ], [ 80.199, 17.477 ], [ 80.208, 17.487 ], [ 80.221, 17.484 ], [ 80.23, 17.494 ], [ 80.226, 17.507 ], [ 80.235, 17.517 ], [ 80.231, 17.529 ], [ 80.218, 17.532 ], [ 80.214, 17.544 ], [ 80.223, 17.554 ], [ 80.219, 17.566 ], [ 80.228, 17.577 ], [ 80.224, 17.589 ], [ 80.233, 17.599 ], [ 80.229, 17.611 ], [ 80.238, 17.621 ], [ 80.234, 17.634 ], [ 80.243, 17.644 ], [ 80.239, 17.656 ], [ 80.248, 17.666 ], [ 80.261, 17.664 ], [ 80.27, 17.674 ], [ 80.266, 17.687 ], [ 80.275, 17.697 ] ] ] ] } },
{ "type": "Feature", "properties": { "POLYGON.ID": 1328.0, "subregion": "India--Telangana--Nagarkurnool--Hills", "POLYGON": "India--Telangana--Nagarkurnool--Hills", "SHOW": "1", "FILTER": "Not-Assigned", "FILTER.ID": null, "OLD.POLYGON": null, "STATE": "Telangana", "COUNTY": "Nagarkurnool", "OWNER": null }, "geometry": { "type": "MultiPolygon", "coordinates": [ [ [ [ 78.417, 16.063 ], [ 78.421, 16.051 ], [ 78.434, 16.048 ], [ 78.442, 16.058 ], [ 78.455, 16.056 ], [ 78.464, 16.066 ], [ 78.477, 16.064 ], [ 78.486, 16.074 ], [ 78.498, 16.071 ], [ 78.502, 16.059 ], [ 78.515, 16.056 ], [ 78.519, 16.044 ], [ 78.532, 16.042 ], [ 78.541, 16.052 ], [ 78.554, 16.049 ], [ 78.563, 16.059 ], [ 78.576, 16.057 ], [ 78.584, 16.067 ], [ 78.597, 16.065 ], [ 78.606, 16.075 ], [ 78.602, 16.087 ], [ 78.611, 16.097 ], [ 78.624, 16.095 ], [ 78.628, 16.082 ], [ 78.641, 16.08 ], [ 78.645, 16.068 ], [ 78.657, 16.065 ], [ 78.661, 16.053 ], [ 78.674, 16.05 ], [ 78.678, 16.038 ], [ 78.691, 16.036 ], [ 78.695, 16.023 ], [ 78.708, 16.021 ], [ 78.717, 16.031 ], [ 78.73, 16.029 ], [ 78.734, 16.016 ], [ 78.747, 16.014 ], [ 78.756, 16.024 ], [ 78.768, 16.021 ], [ 78.777, 16.031 ], [ 78.79, 16.029 ], [ 78.799, 16.039 ], [ 78.812, 16.037 ], [ 78.821, 16.047 ], [ 78.834, 16.044 ], [ 78.842, 16.054 ], [ 78.838, 16.067 ], [ 78.847, 16.077 ], [ 78.86, 16.074 ], [ 78.869, 16.084 ], [ 78.882, 16.082 ], [ 78.891, 16.092 ], [ 78.904, 16.09 ], [ 78.912, 16.1 ], [ 78.925, 16.097 ], [ 78.934, 16.107 ], [ 78.93, 16.12 ], [ 78.917, 16.122 ], [ 78.913, 16.135 ], [ 78.922, 16.145 ], [ 78.918, 16.157 ], [ 78.905, 16.159 ], [ 78.901, 16.172 ], [ 78.91, 16.182 ], [ 78.923, 16.18 ], [ 78.932, 16.19 ], [ 78.945, 16.187 ], [ 78.953, 16.197 ], [ 78.966, 16.195 ], [ 78.975, 16.205 ], [ 78.988, 16.203 ], [ 78.997, 16.213 ], [ 78.993, 16.225 ], [ 79.002, 16.235 ], [ 79.015, 16.233 ], [ 79.024, 16.243 ], [ 79.036, 16.24 ], [ 79.04, 16.228 ], [ 79.053, 16.225 ], [ 79.062, 16.235 ], [ 79.075, 16.233 ], [ 79.079, 16.221 ], [ 79.092, 16.218 ], [ 79.101, 16.228 ], [ 79.114, 16.226 ], [ 79.118, 16.213 ], [ 79.131, 16.211 ], [ 79.14, 16.221 ], [ 79.153, 16.219 ], [ 79.157, 16.206 ], [ 79.17, 16.204 ], [ 79.179, 16.214 ], [ 79.192, 16.212 ], [ 79.2, 16.222 ], [ 79.213, 16.219 ], [ 79.222, 16.229 ], [ 79.218, 16.242 ], [ 79.227, 16.252 ], [ 79.223, 16.264 ], [ 79.232, 16.274 ], [ 79.228, 16.287 ], [ 79.237, 16.297 ], [ 79.233, 16.309 ], [ 79.242, 16.319 ], [ 79.238, 16.332 ], [ 79.225, 16.334 ], [ 79.221, 16.346 ], [ 79.208, 16.349 ], [ 79.204, 16.361 ], [ 79.191, 16.364 ], [ 79.187, 16.376 ], [ 79.174, 16.378 ], [ 79.17, 16.391 ], [ 79.157, 16.393 ], [ 79.153, 16.406 ], [ 79.14, 16.408 ], [ 79.136, 16.421 ], [ 79.123, 16.423 ], [ 79.119, 16.435 ], [ 79.106, 16.438 ], [ 79.097, 16.428 ], [ 79.084, 16.43 ], [ 79.08, 16.442 ], [ 79.067, 16.445 ], [ 79.063, 16.457 ], [ 79.05, 16.46 ], [ 79.046, 16.472 ], [ 79.033, 16.474 ], [ 79.024, 16.464 ], [ 79.011, 16.467 ], [ 79.007, 16.479 ], [ 78.994, 16.482 ], [ 78.99, 16.494 ], [ 78.977, 16.496 ], [ 78.973, 16.509 ], [ 78.96, 16.511 ], [ 78.956, 16.523 ], [ 78.943, 16.526 ], [ 78.934, 16.516 ], [ 78.921, 16.518 ], [ 78.917, 16.531 ], [ 78.905, 16.533 ], [ 78.9, 16.545 ], [ 78.888, 16.548 ], [ 78.879, 16.538 ], [ 78.866, 16.54 ], [ 78.862, 16.552 ], [ 78.849, 16.555 ], [ 78.84, 16.545 ], [ 78.827, 16.547 ], [ 78.818, 16.537 ], [ 78.805, 16.539 ], [ 78.796, 16.529 ], [ 78.784, 16.532 ], [ 78.775, 16.522 ], [ 78.779, 16.509 ], [ 78.77, 16.499 ], [ 78.774, 16.487 ], [ 78.765, 16.477 ], [ 78.769, 16.464 ], [ 78.76, 16.454 ], [ 78.764, 16.442 ], [ 78.756, 16.432 ], [ 78.76, 16.42 ], [ 78.751, 16.409 ], [ 78.738, 16.412 ], [ 78.729, 16.402 ], [ 78.716, 16.404 ], [ 78.707, 16.394 ], [ 78.694, 16.396 ], [ 78.686, 16.386 ], [ 78.673, 16.389 ], [ 78.664, 16.379 ], [ 78.651, 16.381 ], [ 78.642, 16.371 ], [ 78.629, 16.373 ], [ 78.621, 16.363 ], [ 78.608, 16.366 ], [ 78.599, 16.356 ], [ 78.586, 16.358 ], [ 78.577, 16.348 ], [ 78.564, 16.35 ], [ 78.555, 16.34 ], [ 78.56, 16.328 ], [ 78.551, 16.318 ], [ 78.538, 16.32 ], [ 78.529, 16.31 ], [ 78.516, 16.313 ], [ 78.507, 16.303 ], [ 78.495, 16.305 ], [ 78.486, 16.295 ], [ 78.473, 16.297 ], [ 78.464, 16.287 ], [ 78.451, 16.29 ], [ 78.442, 16.279 ], [ 78.43, 16.282 ], [ 78.421, 16.272 ], [ 78.408, 16.274 ], [ 78.404, 16.286 ], [ 78.391, 16.289 ], [ 78.382, 16.279 ], [ 78.369, 16.281 ], [ 78.365, 16.294 ], [ 78.353, 16.296 ], [ 78.349, 16.308 ], [ 78.336, 16.311 ], [ 78.327, 16.301 ], [ 78.314, 16.303 ], [ 78.305, 16.293 ], [ 78.309, 16.28 ], [ 78.301, 16.27 ], [ 78.305, 16.258 ], [ 78.317, 16.256 ], [ 78.322, 16.243 ], [ 78.313, 16.233 ], [ 78.3, 16.236 ], [ 78.291, 16.226 ], [ 78.295, 16.213 ], [ 78.286, 16.203 ], [ 78.274, 16.206 ], [ 78.265, 16.196 ], [ 78.269, 16.183 ], [ 78.26, 16.173 ], [ 78.264, 16.161 ], [ 78.255, 16.151 ], [ 78.259, 16.138 ], [ 78.251, 16.128 ], [ 78.255, 16.116 ], [ 78.246, 16.106 ], [ 78.25, 16.094 ], [ 78.241, 16.084 ], [ 78.245, 16.071 ], [ 78.237, 16.061 ], [ 78.224, 16.063 ], [ 78.215, 16.053 ], [ 78.202, 16.056 ], [ 78.193, 16.046 ], [ 78.197, 16.033 ], [ 78.21, 16.031 ], [ 78.214, 16.019 ], [ 78.227, 16.016 ], [ 78.231, 16.004 ], [ 78.244, 16.002 ], [ 78.248, 15.989 ], [ 78.261, 15.987 ], [ 78.27, 15.997 ], [ 78.282, 15.995 ], [ 78.291, 16.005 ], [ 78.304, 16.002 ], [ 78.313, 16.012 ], [ 78.326, 16.01 ], [ 78.334, 16.02 ], [ 78.33, 16.032 ], [ 78.339, 16.042 ], [ 78.352, 16.04 ], [ 78.361, 16.05 ], [ 78.373, 16.048 ], [ 78.382, 16.058 ], [ 78.395, 16.055 ], [ 78.404, 16.065 ], [ 78.417, 16.063 ] ] ] ] } }
]
}
