{
"type": "FeatureCollection",
"name": "Tripura",
"crs": { "type": "name", "properties": { "name": "urn:ogc:def:crs:OGC:1.3:CRS84" } },
"features": [
{ "type": "Feature", "properties": { "POLYGON.ID": 234.0, "subregion": "India--Tripura--North Tripura_CL32296", "FILTER": "Tripura", "POLYGON": "India--Tripura--North Tripura_CL32296", "COUNTY": "North Tripura", "STATE": "Tripura", "OWNER": null }, "geometry": { "type": "MultiPolygon", "coordinates": [ [ [ [ 92.176, 23.754 ], [ 92.165, 23.745 ], [ 92.169, 23.732 ], [ 92.159, 23.723 ], [ 92.163, 23.71 ], [ 92.177, 23.707 ], [ 92.181, 23.694 ], [ 92.195, 23.691 ], [ 92.199, 23.679 ], [ 92.189, 23.669 ], [ 92.193, 23.657 ], [ 92.207, 23.654 ], [ 92.211, 23.641 ], [ 92.225, 23.638 ], [ 92.236, 23.648 ], [ 92.232, 23.66 ], [ 92.242, 23.67 ], [ 92.238, 23.682 ], [ 92.248, 23.692 ], [ 92.244, 23.704 ], [ 92.255, 23.714 ], [ 92.251, 23.726 ], [ 92.261, 23.736 ], [ 92.257, 23.748 ], [ 92.267, 23.758 ], [ 92.264, 23.77 ], [ 92.274, 23.78 ], [ 92.27, 23.792 ], [ 92.256, 23.796 ], [ 92.252, 23.808 ], [ 92.262, 23.818 ], [ 92.276, 23.815 ], [ 92.287, 23.824 ], [ 92.283, 23.837 ], [ 92.268, 23.84 ], [ 92.265, 23.852 ], [ 92.275, 23.862 ], [ 92.289, 23.859 ], [ 92.299, 23.868 ], [ 92.314, 23.865 ], [ 92.324, 23.874 ], [ 92.32, 23.887 ], [ 92.306, 23.89 ], [ 92.302, 23.903 ], [ 92.312, 23.912 ], [ 92.308, 23.925 ], [ 92.294, 23.928 ], [ 92.29, 23.94 ], [ 92.3, 23.95 ], [ 92.297, 23.962 ], [ 92.307, 23.972 ], [ 92.303, 23.984 ], [ 92.313, 23.994 ], [ 92.309, 24.006 ], [ 92.32, 24.016 ], [ 92.316, 24.028 ], [ 92.326, 24.038 ], [ 92.322, 24.05 ], [ 92.308, 24.053 ], [ 92.304, 24.066 ], [ 92.314, 24.075 ], [ 92.31, 24.088 ], [ 92.321, 24.097 ], [ 92.317, 24.11 ], [ 92.327, 24.119 ], [ 92.323, 24.132 ], [ 92.333, 24.141 ], [ 92.329, 24.154 ], [ 92.34, 24.163 ], [ 92.336, 24.176 ], [ 92.322, 24.179 ], [ 92.318, 24.191 ], [ 92.328, 24.201 ], [ 92.324, 24.213 ], [ 92.31, 24.216 ], [ 92.306, 24.229 ], [ 92.292, 24.232 ], [ 92.288, 24.245 ], [ 92.273, 24.248 ], [ 92.263, 24.238 ], [ 92.249, 24.241 ], [ 92.239, 24.232 ], [ 92.224, 24.235 ], [ 92.22, 24.247 ], [ 92.206, 24.25 ], [ 92.202, 24.263 ], [ 92.212, 24.272 ], [ 92.209, 24.285 ], [ 92.219, 24.294 ], [ 92.233, 24.291 ], [ 92.243, 24.301 ], [ 92.24, 24.313 ], [ 92.25, 24.323 ], [ 92.246, 24.335 ], [ 92.256, 24.345 ], [ 92.252, 24.357 ], [ 92.263, 24.367 ], [ 92.259, 24.379 ], [ 92.244, 24.382 ], [ 92.241, 24.395 ], [ 92.251, 24.404 ], [ 92.247, 24.417 ], [ 92.257, 24.426 ], [ 92.253, 24.438 ], [ 92.239, 24.441 ], [ 92.235, 24.454 ], [ 92.221, 24.457 ], [ 92.217, 24.469 ], [ 92.227, 24.479 ], [ 92.223, 24.491 ], [ 92.234, 24.501 ], [ 92.23, 24.513 ], [ 92.215, 24.516 ], [ 92.211, 24.529 ], [ 92.197, 24.532 ], [ 92.187, 24.522 ], [ 92.173, 24.525 ], [ 92.169, 24.538 ], [ 92.154, 24.541 ], [ 92.144, 24.532 ], [ 92.148, 24.519 ], [ 92.138, 24.51 ], [ 92.142, 24.497 ], [ 92.131, 24.488 ], [ 92.135, 24.475 ], [ 92.149, 24.472 ], [ 92.153, 24.46 ], [ 92.143, 24.45 ], [ 92.147, 24.438 ], [ 92.137, 24.428 ], [ 92.122, 24.431 ], [ 92.112, 24.422 ], [ 92.116, 24.409 ], [ 92.106, 24.4 ], [ 92.091, 24.403 ], [ 92.081, 24.394 ], [ 92.067, 24.397 ], [ 92.057, 24.387 ], [ 92.061, 24.375 ], [ 92.075, 24.372 ], [ 92.079, 24.359 ], [ 92.068, 24.35 ], [ 92.072, 24.337 ], [ 92.062, 24.328 ], [ 92.066, 24.315 ], [ 92.056, 24.306 ], [ 92.06, 24.293 ], [ 92.074, 24.29 ], [ 92.078, 24.278 ], [ 92.092, 24.275 ], [ 92.096, 24.262 ], [ 92.11, 24.259 ], [ 92.114, 24.247 ], [ 92.104, 24.237 ], [ 92.108, 24.225 ], [ 92.122, 24.222 ], [ 92.126, 24.209 ], [ 92.14, 24.206 ], [ 92.144, 24.194 ], [ 92.158, 24.191 ], [ 92.169, 24.2 ], [ 92.183, 24.197 ], [ 92.187, 24.184 ], [ 92.201, 24.181 ], [ 92.205, 24.169 ], [ 92.195, 24.159 ], [ 92.199, 24.147 ], [ 92.188, 24.137 ], [ 92.174, 24.14 ], [ 92.164, 24.131 ], [ 92.168, 24.119 ], [ 92.157, 24.109 ], [ 92.161, 24.097 ], [ 92.151, 24.087 ], [ 92.155, 24.075 ], [ 92.145, 24.065 ], [ 92.149, 24.053 ], [ 92.138, 24.043 ], [ 92.124, 24.046 ], [ 92.114, 24.037 ], [ 92.118, 24.024 ], [ 92.107, 24.015 ], [ 92.111, 24.002 ], [ 92.101, 23.993 ], [ 92.087, 23.996 ], [ 92.076, 23.986 ], [ 92.08, 23.974 ], [ 92.07, 23.964 ], [ 92.074, 23.952 ], [ 92.088, 23.949 ], [ 92.092, 23.936 ], [ 92.106, 23.933 ], [ 92.11, 23.92 ], [ 92.125, 23.917 ], [ 92.129, 23.905 ], [ 92.143, 23.902 ], [ 92.147, 23.889 ], [ 92.136, 23.88 ], [ 92.14, 23.867 ], [ 92.155, 23.864 ], [ 92.159, 23.852 ], [ 92.148, 23.842 ], [ 92.152, 23.83 ], [ 92.142, 23.82 ], [ 92.146, 23.807 ], [ 92.16, 23.804 ], [ 92.164, 23.792 ], [ 92.154, 23.782 ], [ 92.158, 23.77 ], [ 92.172, 23.767 ], [ 92.176, 23.754 ] ] ] ] } },
{ "type": "Feature", "properties": { "POLYGON.ID": 233.0, "subregion": "India--Tripura--Unakoti_CL32295", "FILTER": "Tripura", "POLYGON": "India--Tripura--Unakoti_CL32295", "COUNTY": "Unakoti", "STATE": "Tripura", "OWNER": null }, "geometry": { "type": "MultiPolygon", "coordinates": [ [ [ [ 92.042, 24.39 ], [ 92.038, 24.403 ], [ 92.024, 24.406 ], [ 92.014, 24.396 ], [ 92.0, 24.399 ], [ 91.989, 24.39 ], [ 91.975, 24.393 ], [ 91.965, 24.383 ], [ 91.969, 24.371 ], [ 91.958, 24.361 ], [ 91.944, 24.364 ], [ 91.934, 24.355 ], [ 91.919, 24.358 ], [ 91.909, 24.348 ], [ 91.913, 24.336 ], [ 91.903, 24.327 ], [ 91.907, 24.314 ], [ 91.921, 24.311 ], [ 91.925, 24.299 ], [ 91.915, 24.289 ], [ 91.919, 24.277 ], [ 91.933, 24.274 ], [ 91.937, 24.261 ], [ 91.926, 24.252 ], [ 91.93, 24.239 ], [ 91.92, 24.23 ], [ 91.924, 24.217 ], [ 91.914, 24.208 ], [ 91.918, 24.195 ], [ 91.907, 24.186 ], [ 91.911, 24.173 ], [ 91.901, 24.164 ], [ 91.905, 24.151 ], [ 91.919, 24.148 ], [ 91.923, 24.136 ], [ 91.913, 24.126 ], [ 91.917, 24.114 ], [ 91.931, 24.111 ], [ 91.935, 24.098 ], [ 91.949, 24.095 ], [ 91.953, 24.083 ], [ 91.967, 24.08 ], [ 91.971, 24.067 ], [ 91.986, 24.064 ], [ 91.996, 24.073 ], [ 91.992, 24.086 ], [ 92.002, 24.095 ], [ 92.016, 24.092 ], [ 92.027, 24.102 ], [ 92.041, 24.099 ], [ 92.051, 24.108 ], [ 92.066, 24.105 ], [ 92.07, 24.093 ], [ 92.059, 24.083 ], [ 92.063, 24.071 ], [ 92.053, 24.061 ], [ 92.057, 24.049 ], [ 92.071, 24.046 ], [ 92.075, 24.033 ], [ 92.065, 24.024 ], [ 92.069, 24.011 ], [ 92.083, 24.008 ], [ 92.087, 23.996 ], [ 92.101, 23.993 ], [ 92.111, 24.002 ], [ 92.107, 24.015 ], [ 92.118, 24.024 ], [ 92.114, 24.037 ], [ 92.124, 24.046 ], [ 92.138, 24.043 ], [ 92.149, 24.053 ], [ 92.145, 24.065 ], [ 92.155, 24.075 ], [ 92.151, 24.087 ], [ 92.161, 24.097 ], [ 92.157, 24.109 ], [ 92.168, 24.119 ], [ 92.164, 24.131 ], [ 92.174, 24.14 ], [ 92.188, 24.137 ], [ 92.199, 24.147 ], [ 92.195, 24.159 ], [ 92.205, 24.169 ], [ 92.201, 24.181 ], [ 92.187, 24.184 ], [ 92.183, 24.197 ], [ 92.169, 24.2 ], [ 92.158, 24.191 ], [ 92.144, 24.194 ], [ 92.14, 24.206 ], [ 92.126, 24.209 ], [ 92.122, 24.222 ], [ 92.108, 24.225 ], [ 92.104, 24.237 ], [ 92.114, 24.247 ], [ 92.11, 24.259 ], [ 92.096, 24.262 ], [ 92.092, 24.275 ], [ 92.078, 24.278 ], [ 92.074, 24.29 ], [ 92.06, 24.293 ], [ 92.056, 24.306 ], [ 92.066, 24.315 ], [ 92.062, 24.328 ], [ 92.072, 24.337 ], [ 92.068, 24.35 ], [ 92.079, 24.359 ], [ 92.075, 24.372 ], [ 92.061, 24.375 ], [ 92.057, 24.387 ], [ 92.042, 24.39 ] ] ] ] } },
{ "type": "Feature", "properties": { "POLYGON.ID": 232.0, "subregion": "India--Tripura--Dhalai_CL32294", "FILTER": "Tripura", "POLYGON": "India--Tripura--Dhalai_CL32294", "COUNTY": "Dhalai", "STATE": "Tripura", "OWNER": null }, "geometry": { "type": "MultiPolygon", "coordinates": [ [ [ [ 91.778, 23.711 ], [ 91.768, 23.701 ], [ 91.772, 23.688 ], [ 91.761, 23.679 ], [ 91.765, 23.666 ], [ 91.755, 23.657 ], [ 91.759, 23.644 ], [ 91.773, 23.641 ], [ 91.777, 23.629 ], [ 91.767, 23.619 ], [ 91.771, 23.607 ], [ 91.785, 23.604 ], [ 91.789, 23.591 ], [ 91.779, 23.582 ], [ 91.783, 23.569 ], [ 91.772, 23.559 ], [ 91.776, 23.547 ], [ 91.79, 23.544 ], [ 91.794, 23.531 ], [ 91.809, 23.528 ], [ 91.819, 23.538 ], [ 91.833, 23.535 ], [ 91.837, 23.522 ], [ 91.851, 23.519 ], [ 91.855, 23.507 ], [ 91.869, 23.503 ], [ 91.88, 23.513 ], [ 91.894, 23.51 ], [ 91.898, 23.497 ], [ 91.912, 23.494 ], [ 91.916, 23.482 ], [ 91.906, 23.472 ], [ 91.91, 23.46 ], [ 91.899, 23.45 ], [ 91.903, 23.438 ], [ 91.893, 23.428 ], [ 91.879, 23.431 ], [ 91.875, 23.444 ], [ 91.861, 23.447 ], [ 91.85, 23.437 ], [ 91.854, 23.425 ], [ 91.844, 23.415 ], [ 91.848, 23.402 ], [ 91.862, 23.399 ], [ 91.872, 23.409 ], [ 91.887, 23.406 ], [ 91.897, 23.415 ], [ 91.911, 23.412 ], [ 91.921, 23.422 ], [ 91.936, 23.419 ], [ 91.946, 23.428 ], [ 91.96, 23.425 ], [ 91.97, 23.435 ], [ 91.966, 23.447 ], [ 91.952, 23.45 ], [ 91.948, 23.463 ], [ 91.959, 23.473 ], [ 91.973, 23.47 ], [ 91.983, 23.479 ], [ 91.979, 23.492 ], [ 91.989, 23.501 ], [ 91.986, 23.514 ], [ 91.971, 23.517 ], [ 91.967, 23.529 ], [ 91.978, 23.539 ], [ 91.974, 23.551 ], [ 91.984, 23.561 ], [ 91.98, 23.574 ], [ 91.966, 23.577 ], [ 91.962, 23.589 ], [ 91.972, 23.599 ], [ 91.968, 23.611 ], [ 91.979, 23.621 ], [ 91.975, 23.633 ], [ 91.96, 23.636 ], [ 91.956, 23.649 ], [ 91.967, 23.658 ], [ 91.963, 23.671 ], [ 91.949, 23.674 ], [ 91.945, 23.687 ], [ 91.955, 23.696 ], [ 91.969, 23.693 ], [ 91.979, 23.703 ], [ 91.994, 23.7 ], [ 91.998, 23.687 ], [ 91.987, 23.678 ], [ 91.991, 23.665 ], [ 92.006, 23.662 ], [ 92.009, 23.649 ], [ 92.024, 23.646 ], [ 92.028, 23.634 ], [ 92.042, 23.631 ], [ 92.052, 23.64 ], [ 92.066, 23.637 ], [ 92.077, 23.647 ], [ 92.091, 23.644 ], [ 92.101, 23.653 ], [ 92.097, 23.666 ], [ 92.108, 23.675 ], [ 92.104, 23.688 ], [ 92.114, 23.697 ], [ 92.128, 23.694 ], [ 92.138, 23.704 ], [ 92.153, 23.701 ], [ 92.157, 23.688 ], [ 92.171, 23.685 ], [ 92.181, 23.694 ], [ 92.177, 23.707 ], [ 92.163, 23.71 ], [ 92.159, 23.723 ], [ 92.169, 23.732 ], [ 92.165, 23.745 ], [ 92.176, 23.754 ], [ 92.172, 23.767 ], [ 92.158, 23.77 ], [ 92.154, 23.782 ], [ 92.164, 23.792 ], [ 92.16, 23.804 ], [ 92.146, 23.807 ], [ 92.142, 23.82 ], [ 92.152, 23.83 ], [ 92.148, 23.842 ], [ 92.159, 23.852 ], [ 92.155, 23.864 ], [ 92.14, 23.867 ], [ 92.136, 23.88 ], [ 92.147, 23.889 ], [ 92.143, 23.902 ], [ 92.129, 23.905 ], [ 92.125, 23.917 ], [ 92.11, 23.92 ], [ 92.106, 23.933 ], [ 92.092, 23.936 ], [ 92.088, 23.949 ], [ 92.074, 23.952 ], [ 92.07, 23.964 ], [ 92.08, 23.974 ], [ 92.076, 23.986 ], [ 92.087, 23.996 ], [ 92.083, 24.008 ], [ 92.069, 24.011 ], [ 92.065, 24.024 ], [ 92.075, 24.033 ], [ 92.071, 24.046 ], [ 92.057, 24.049 ], [ 92.053, 24.061 ], [ 92.063, 24.071 ], [ 92.059, 24.083 ], [ 92.07, 24.093 ], [ 92.066, 24.105 ], [ 92.051, 24.108 ], [ 92.041, 24.099 ], [ 92.027, 24.102 ], [ 92.016, 24.092 ], [ 92.002, 24.095 ], [ 91.992, 24.086 ], [ 91.996, 24.073 ], [ 91.986, 24.064 ], [ 91.971, 24.067 ], [ 91.967, 24.08 ], [ 91.953, 24.083 ], [ 91.949, 24.095 ], [ 91.935, 24.098 ], [ 91.931, 24.111 ], [ 91.917, 24.114 ], [ 91.913, 24.126 ], [ 91.923, 24.136 ], [ 91.919, 24.148 ], [ 91.905, 24.151 ], [ 91.901, 24.164 ], [ 91.887, 24.167 ], [ 91.883, 24.179 ], [ 91.869, 24.182 ], [ 91.865, 24.195 ], [ 91.85, 24.198 ], [ 91.846, 24.21 ], [ 91.857, 24.22 ], [ 91.853, 24.232 ], [ 91.839, 24.235 ], [ 91.828, 24.226 ], [ 91.814, 24.229 ], [ 91.81, 24.241 ], [ 91.796, 24.244 ], [ 91.785, 24.235 ], [ 91.771, 24.238 ], [ 91.767, 24.25 ], [ 91.753, 24.253 ], [ 91.743, 24.244 ], [ 91.728, 24.247 ], [ 91.718, 24.237 ], [ 91.722, 24.225 ], [ 91.736, 24.222 ], [ 91.74, 24.209 ], [ 91.73, 24.2 ], [ 91.734, 24.187 ], [ 91.748, 24.184 ], [ 91.752, 24.172 ], [ 91.742, 24.162 ], [ 91.746, 24.15 ], [ 91.736, 24.14 ], [ 91.739, 24.128 ], [ 91.754, 24.125 ], [ 91.758, 24.112 ], [ 91.747, 24.103 ], [ 91.751, 24.09 ], [ 91.741, 24.081 ], [ 91.745, 24.068 ], [ 91.759, 24.065 ], [ 91.763, 24.053 ], [ 91.753, 24.043 ], [ 91.757, 24.031 ], [ 91.747, 24.021 ], [ 91.75, 24.009 ], [ 91.74, 23.999 ], [ 91.744, 23.987 ], [ 91.758, 23.984 ], [ 91.762, 23.971 ], [ 91.752, 23.962 ], [ 91.756, 23.949 ], [ 91.77, 23.946 ], [ 91.774, 23.934 ], [ 91.764, 23.924 ], [ 91.768, 23.912 ], [ 91.782, 23.909 ], [ 91.786, 23.896 ], [ 91.776, 23.887 ], [ 91.78, 23.874 ], [ 91.769, 23.865 ], [ 91.773, 23.852 ], [ 91.788, 23.849 ], [ 91.791, 23.836 ], [ 91.781, 23.827 ], [ 91.785, 23.814 ], [ 91.775, 23.805 ], [ 91.779, 23.792 ], [ 91.768, 23.783 ], [ 91.772, 23.77 ], [ 91.787, 23.767 ], [ 91.791, 23.755 ], [ 91.78, 23.745 ], [ 91.784, 23.733 ], [ 91.774, 23.723 ], [ 91.778, 23.711 ] ] ] ] } },
{ "type": "Feature", "properties": { "POLYGON.ID": 231.0, "subregion": "India--Tripura--Khowai_CL32293", "FILTER": "Tripura", "POLYGON": "India--Tripura--Khowai_CL32293", "COUNTY": "Khowai", "STATE": "Tripura", "OWNER": null }, "geometry": { "type": "MultiPolygon", "coordinates": [ [ [ [ 91.482, 24.1 ], [ 91.472, 24.091 ], [ 91.476, 24.078 ], [ 91.466, 24.069 ], [ 91.47, 24.056 ], [ 91.484, 24.053 ], [ 91.488, 24.041 ], [ 91.502, 24.038 ], [ 91.506, 24.025 ], [ 91.496, 24.016 ], [ 91.5, 24.003 ], [ 91.514, 24.0 ], [ 91.518, 23.988 ], [ 91.508, 23.978 ], [ 91.512, 23.966 ], [ 91.526, 23.963 ], [ 91.53, 23.95 ], [ 91.52, 23.941 ], [ 91.524, 23.928 ], [ 91.538, 23.925 ], [ 91.542, 23.913 ], [ 91.556, 23.91 ], [ 91.56, 23.897 ], [ 91.55, 23.888 ], [ 91.554, 23.875 ], [ 91.568, 23.872 ], [ 91.572, 23.86 ], [ 91.561, 23.85 ], [ 91.565, 23.838 ], [ 91.555, 23.828 ], [ 91.559, 23.816 ], [ 91.573, 23.813 ], [ 91.577, 23.8 ], [ 91.567, 23.79 ], [ 91.571, 23.778 ], [ 91.561, 23.768 ], [ 91.565, 23.756 ], [ 91.579, 23.753 ], [ 91.589, 23.762 ], [ 91.603, 23.759 ], [ 91.614, 23.769 ], [ 91.628, 23.766 ], [ 91.638, 23.775 ], [ 91.652, 23.772 ], [ 91.656, 23.76 ], [ 91.67, 23.757 ], [ 91.681, 23.766 ], [ 91.695, 23.763 ], [ 91.705, 23.773 ], [ 91.719, 23.77 ], [ 91.723, 23.757 ], [ 91.738, 23.754 ], [ 91.742, 23.742 ], [ 91.731, 23.732 ], [ 91.735, 23.72 ], [ 91.749, 23.717 ], [ 91.753, 23.704 ], [ 91.743, 23.695 ], [ 91.747, 23.682 ], [ 91.761, 23.679 ], [ 91.772, 23.688 ], [ 91.768, 23.701 ], [ 91.778, 23.711 ], [ 91.774, 23.723 ], [ 91.784, 23.733 ], [ 91.78, 23.745 ], [ 91.791, 23.755 ], [ 91.787, 23.767 ], [ 91.772, 23.77 ], [ 91.768, 23.783 ], [ 91.779, 23.792 ], [ 91.775, 23.805 ], [ 91.785, 23.814 ], [ 91.781, 23.827 ], [ 91.791, 23.836 ], [ 91.788, 23.849 ], [ 91.773, 23.852 ], [ 91.769, 23.865 ], [ 91.78, 23.874 ], [ 91.776, 23.887 ], [ 91.786, 23.896 ], [ 91.782, 23.909 ], [ 91.768, 23.912 ], [ 91.764, 23.924 ], [ 91.774, 23.934 ], [ 91.77, 23.946 ], [ 91.756, 23.949 ], [ 91.752, 23.962 ], [ 91.762, 23.971 ], [ 91.758, 23.984 ], [ 91.744, 23.987 ], [ 91.74, 23.999 ], [ 91.75, 24.009 ], [ 91.747, 24.021 ], [ 91.757, 24.031 ], [ 91.753, 24.043 ], [ 91.763, 24.053 ], [ 91.759, 24.065 ], [ 91.745, 24.068 ], [ 91.741, 24.081 ], [ 91.751, 24.09 ], [ 91.747, 24.103 ], [ 91.758, 24.112 ], [ 91.754, 24.125 ], [ 91.739, 24.128 ], [ 91.736, 24.14 ], [ 91.746, 24.15 ], [ 91.742, 24.162 ], [ 91.728, 24.165 ], [ 91.717, 24.156 ], [ 91.703, 24.159 ], [ 91.699, 24.171 ], [ 91.685, 24.174 ], [ 91.681, 24.187 ], [ 91.691, 24.196 ], [ 91.687, 24.209 ], [ 91.673, 24.212 ], [ 91.669, 24.224 ], [ 91.679, 24.234 ], [ 91.675, 24.246 ], [ 91.661, 24.249 ], [ 91.651, 24.24 ], [ 91.655, 24.227 ], [ 91.645, 24.218 ], [ 91.63, 24.221 ], [ 91.62, 24.211 ], [ 91.624, 24.199 ], [ 91.638, 24.196 ], [ 91.642, 24.183 ], [ 91.632, 24.174 ], [ 91.636, 24.161 ], [ 91.626, 24.152 ], [ 91.63, 24.139 ], [ 91.619, 24.13 ], [ 91.623, 24.117 ], [ 91.613, 24.108 ], [ 91.599, 24.111 ], [ 91.588, 24.101 ], [ 91.574, 24.104 ], [ 91.564, 24.095 ], [ 91.55, 24.098 ], [ 91.539, 24.088 ], [ 91.525, 24.091 ], [ 91.521, 24.104 ], [ 91.507, 24.107 ], [ 91.497, 24.097 ], [ 91.482, 24.1 ] ] ] ] } },
{ "type": "Feature", "properties": { "POLYGON.ID": 230.0, "subregion": "India--Tripura--Gomati_CL32292", "FILTER": "Tripura", "POLYGON": "India--Tripura--Gomati_CL32292", "COUNTY": "Gomati", "STATE": "Tripura", "OWNER": null }, "geometry": { "type": "MultiPolygon", "coordinates": [ [ [ [ 91.773, 23.641 ], [ 91.759, 23.644 ], [ 91.755, 23.657 ], [ 91.765, 23.666 ], [ 91.761, 23.679 ], [ 91.747, 23.682 ], [ 91.743, 23.695 ], [ 91.753, 23.704 ], [ 91.749, 23.717 ], [ 91.735, 23.72 ], [ 91.731, 23.732 ], [ 91.742, 23.742 ], [ 91.738, 23.754 ], [ 91.723, 23.757 ], [ 91.719, 23.77 ], [ 91.705, 23.773 ], [ 91.695, 23.763 ], [ 91.681, 23.766 ], [ 91.67, 23.757 ], [ 91.656, 23.76 ], [ 91.652, 23.772 ], [ 91.638, 23.775 ], [ 91.628, 23.766 ], [ 91.614, 23.769 ], [ 91.603, 23.759 ], [ 91.589, 23.762 ], [ 91.579, 23.753 ], [ 91.583, 23.74 ], [ 91.573, 23.731 ], [ 91.558, 23.734 ], [ 91.548, 23.724 ], [ 91.534, 23.727 ], [ 91.524, 23.718 ], [ 91.527, 23.705 ], [ 91.517, 23.696 ], [ 91.503, 23.699 ], [ 91.493, 23.689 ], [ 91.497, 23.677 ], [ 91.486, 23.667 ], [ 91.472, 23.67 ], [ 91.462, 23.661 ], [ 91.466, 23.648 ], [ 91.456, 23.638 ], [ 91.441, 23.641 ], [ 91.431, 23.632 ], [ 91.435, 23.619 ], [ 91.425, 23.61 ], [ 91.429, 23.597 ], [ 91.419, 23.588 ], [ 91.404, 23.591 ], [ 91.394, 23.581 ], [ 91.398, 23.569 ], [ 91.388, 23.559 ], [ 91.392, 23.546 ], [ 91.406, 23.543 ], [ 91.41, 23.531 ], [ 91.4, 23.521 ], [ 91.385, 23.524 ], [ 91.375, 23.515 ], [ 91.379, 23.502 ], [ 91.393, 23.499 ], [ 91.397, 23.487 ], [ 91.387, 23.477 ], [ 91.391, 23.465 ], [ 91.381, 23.455 ], [ 91.385, 23.442 ], [ 91.374, 23.433 ], [ 91.378, 23.42 ], [ 91.393, 23.417 ], [ 91.397, 23.405 ], [ 91.411, 23.402 ], [ 91.415, 23.389 ], [ 91.429, 23.386 ], [ 91.433, 23.374 ], [ 91.447, 23.371 ], [ 91.457, 23.38 ], [ 91.453, 23.393 ], [ 91.464, 23.402 ], [ 91.478, 23.399 ], [ 91.488, 23.409 ], [ 91.502, 23.406 ], [ 91.513, 23.415 ], [ 91.527, 23.412 ], [ 91.531, 23.4 ], [ 91.545, 23.397 ], [ 91.555, 23.406 ], [ 91.569, 23.403 ], [ 91.573, 23.391 ], [ 91.587, 23.388 ], [ 91.598, 23.397 ], [ 91.612, 23.394 ], [ 91.616, 23.382 ], [ 91.63, 23.379 ], [ 91.634, 23.366 ], [ 91.648, 23.363 ], [ 91.652, 23.35 ], [ 91.666, 23.347 ], [ 91.677, 23.357 ], [ 91.691, 23.354 ], [ 91.695, 23.341 ], [ 91.685, 23.332 ], [ 91.688, 23.319 ], [ 91.703, 23.316 ], [ 91.713, 23.326 ], [ 91.727, 23.323 ], [ 91.731, 23.31 ], [ 91.721, 23.3 ], [ 91.725, 23.288 ], [ 91.739, 23.285 ], [ 91.743, 23.272 ], [ 91.757, 23.269 ], [ 91.767, 23.279 ], [ 91.763, 23.291 ], [ 91.774, 23.301 ], [ 91.788, 23.298 ], [ 91.798, 23.307 ], [ 91.794, 23.32 ], [ 91.804, 23.33 ], [ 91.819, 23.326 ], [ 91.829, 23.336 ], [ 91.825, 23.349 ], [ 91.835, 23.358 ], [ 91.849, 23.355 ], [ 91.86, 23.365 ], [ 91.856, 23.377 ], [ 91.866, 23.387 ], [ 91.862, 23.399 ], [ 91.848, 23.402 ], [ 91.844, 23.415 ], [ 91.854, 23.425 ], [ 91.85, 23.437 ], [ 91.836, 23.44 ], [ 91.832, 23.453 ], [ 91.818, 23.456 ], [ 91.814, 23.468 ], [ 91.8, 23.471 ], [ 91.796, 23.484 ], [ 91.806, 23.494 ], [ 91.802, 23.506 ], [ 91.813, 23.516 ], [ 91.809, 23.528 ], [ 91.794, 23.531 ], [ 91.79, 23.544 ], [ 91.776, 23.547 ], [ 91.772, 23.559 ], [ 91.783, 23.569 ], [ 91.779, 23.582 ], [ 91.789, 23.591 ], [ 91.785, 23.604 ], [ 91.771, 23.607 ], [ 91.767, 23.619 ], [ 91.777, 23.629 ], [ 91.773, 23.641 ] ], [ [ 91.449, 23.534 ], [ 91.459, 23.544 ], [ 91.473, 23.541 ], [ 91.483, 23.551 ], [ 91.498, 23.548 ], [ 91.501, 23.535 ], [ 91.516, 23.532 ], [ 91.52, 23.519 ], [ 91.509, 23.51 ], [ 91.513, 23.497 ], [ 91.503, 23.488 ], [ 91.489, 23.491 ], [ 91.479, 23.481 ], [ 91.464, 23.484 ], [ 91.46, 23.497 ], [ 91.446, 23.5 ], [ 91.442, 23.512 ], [ 91.453, 23.522 ], [ 91.449, 23.534 ] ] ] ] } },
{ "type": "Feature", "properties": { "POLYGON.ID": 229.0, "subregion": "India--Tripura--South Tripura_CL32291", "FILTER": "Tripura", "POLYGON": "India--Tripura--South Tripura_CL32291", "COUNTY": "South Tripura", "STATE": "Tripura", "OWNER": null }, "geometry": { "type": "MultiPolygon", "coordinates": [ [ [ [ 91.573, 23.391 ], [ 91.569, 23.403 ], [ 91.555, 23.406 ], [ 91.545, 23.397 ], [ 91.531, 23.4 ], [ 91.527, 23.412 ], [ 91.513, 23.415 ], [ 91.502, 23.406 ], [ 91.488, 23.409 ], [ 91.478, 23.399 ], [ 91.464, 23.402 ], [ 91.453, 23.393 ], [ 91.457, 23.38 ], [ 91.447, 23.371 ], [ 91.433, 23.374 ], [ 91.423, 23.364 ], [ 91.408, 23.367 ], [ 91.398, 23.357 ], [ 91.402, 23.345 ], [ 91.392, 23.335 ], [ 91.396, 23.323 ], [ 91.386, 23.313 ], [ 91.39, 23.301 ], [ 91.404, 23.298 ], [ 91.408, 23.285 ], [ 91.397, 23.275 ], [ 91.401, 23.263 ], [ 91.391, 23.253 ], [ 91.395, 23.241 ], [ 91.385, 23.231 ], [ 91.389, 23.219 ], [ 91.379, 23.209 ], [ 91.364, 23.212 ], [ 91.36, 23.225 ], [ 91.346, 23.228 ], [ 91.342, 23.24 ], [ 91.328, 23.243 ], [ 91.324, 23.256 ], [ 91.334, 23.265 ], [ 91.33, 23.278 ], [ 91.316, 23.281 ], [ 91.306, 23.271 ], [ 91.31, 23.259 ], [ 91.3, 23.249 ], [ 91.304, 23.237 ], [ 91.318, 23.234 ], [ 91.322, 23.221 ], [ 91.312, 23.211 ], [ 91.316, 23.199 ], [ 91.305, 23.189 ], [ 91.309, 23.177 ], [ 91.299, 23.167 ], [ 91.303, 23.155 ], [ 91.317, 23.152 ], [ 91.321, 23.139 ], [ 91.335, 23.136 ], [ 91.339, 23.123 ], [ 91.329, 23.114 ], [ 91.333, 23.101 ], [ 91.347, 23.098 ], [ 91.351, 23.086 ], [ 91.341, 23.076 ], [ 91.345, 23.063 ], [ 91.359, 23.06 ], [ 91.363, 23.048 ], [ 91.377, 23.045 ], [ 91.387, 23.054 ], [ 91.401, 23.051 ], [ 91.412, 23.061 ], [ 91.426, 23.058 ], [ 91.436, 23.067 ], [ 91.432, 23.08 ], [ 91.418, 23.083 ], [ 91.414, 23.096 ], [ 91.424, 23.105 ], [ 91.42, 23.118 ], [ 91.406, 23.121 ], [ 91.402, 23.133 ], [ 91.412, 23.143 ], [ 91.409, 23.156 ], [ 91.394, 23.159 ], [ 91.39, 23.171 ], [ 91.401, 23.181 ], [ 91.397, 23.193 ], [ 91.407, 23.203 ], [ 91.403, 23.216 ], [ 91.413, 23.225 ], [ 91.409, 23.238 ], [ 91.42, 23.247 ], [ 91.434, 23.244 ], [ 91.438, 23.232 ], [ 91.427, 23.222 ], [ 91.431, 23.21 ], [ 91.446, 23.206 ], [ 91.449, 23.194 ], [ 91.464, 23.191 ], [ 91.468, 23.178 ], [ 91.482, 23.175 ], [ 91.486, 23.163 ], [ 91.476, 23.153 ], [ 91.479, 23.14 ], [ 91.494, 23.137 ], [ 91.498, 23.125 ], [ 91.487, 23.115 ], [ 91.491, 23.103 ], [ 91.505, 23.1 ], [ 91.509, 23.087 ], [ 91.524, 23.084 ], [ 91.528, 23.071 ], [ 91.517, 23.062 ], [ 91.521, 23.049 ], [ 91.511, 23.04 ], [ 91.515, 23.027 ], [ 91.529, 23.024 ], [ 91.533, 23.011 ], [ 91.523, 23.002 ], [ 91.527, 22.989 ], [ 91.541, 22.986 ], [ 91.545, 22.974 ], [ 91.559, 22.97 ], [ 91.563, 22.958 ], [ 91.577, 22.955 ], [ 91.581, 22.942 ], [ 91.595, 22.939 ], [ 91.599, 22.926 ], [ 91.613, 22.923 ], [ 91.624, 22.933 ], [ 91.638, 22.93 ], [ 91.648, 22.94 ], [ 91.644, 22.952 ], [ 91.654, 22.962 ], [ 91.669, 22.959 ], [ 91.679, 22.968 ], [ 91.693, 22.965 ], [ 91.703, 22.975 ], [ 91.717, 22.972 ], [ 91.728, 22.981 ], [ 91.742, 22.978 ], [ 91.752, 22.988 ], [ 91.748, 23.0 ], [ 91.758, 23.01 ], [ 91.773, 23.007 ], [ 91.783, 23.017 ], [ 91.797, 23.013 ], [ 91.807, 23.023 ], [ 91.803, 23.036 ], [ 91.789, 23.039 ], [ 91.785, 23.051 ], [ 91.796, 23.061 ], [ 91.81, 23.058 ], [ 91.82, 23.067 ], [ 91.834, 23.064 ], [ 91.844, 23.074 ], [ 91.841, 23.087 ], [ 91.851, 23.096 ], [ 91.847, 23.109 ], [ 91.833, 23.112 ], [ 91.829, 23.124 ], [ 91.839, 23.134 ], [ 91.835, 23.147 ], [ 91.821, 23.15 ], [ 91.817, 23.162 ], [ 91.827, 23.172 ], [ 91.823, 23.184 ], [ 91.809, 23.187 ], [ 91.805, 23.2 ], [ 91.815, 23.21 ], [ 91.811, 23.222 ], [ 91.797, 23.225 ], [ 91.793, 23.238 ], [ 91.804, 23.247 ], [ 91.8, 23.26 ], [ 91.785, 23.263 ], [ 91.782, 23.276 ], [ 91.767, 23.279 ], [ 91.757, 23.269 ], [ 91.743, 23.272 ], [ 91.739, 23.285 ], [ 91.725, 23.288 ], [ 91.721, 23.3 ], [ 91.731, 23.31 ], [ 91.727, 23.323 ], [ 91.713, 23.326 ], [ 91.703, 23.316 ], [ 91.688, 23.319 ], [ 91.685, 23.332 ], [ 91.695, 23.341 ], [ 91.691, 23.354 ], [ 91.677, 23.357 ], [ 91.666, 23.347 ], [ 91.652, 23.35 ], [ 91.648, 23.363 ], [ 91.634, 23.366 ], [ 91.63, 23.379 ], [ 91.616, 23.382 ], [ 91.612, 23.394 ], [ 91.598, 23.397 ], [ 91.587, 23.388 ], [ 91.573, 23.391 ] ] ] ] } },
{ "type": "Feature", "properties": { "POLYGON.ID": 228.0, "subregion": "India--Tripura--West Tripura_CL32290", "FILTER": "Tripura", "POLYGON": "India--Tripura--West Tripura_CL32290", "COUNTY": "West Tripura", "STATE": "Tripura", "OWNER": null }, "geometry": { "type": "MultiPolygon", "coordinates": [ [ [ [ 91.43, 23.761 ], [ 91.445, 23.758 ], [ 91.449, 23.745 ], [ 91.463, 23.742 ], [ 91.473, 23.752 ], [ 91.487, 23.749 ], [ 91.497, 23.758 ], [ 91.512, 23.755 ], [ 91.522, 23.765 ], [ 91.536, 23.762 ], [ 91.546, 23.771 ], [ 91.542, 23.784 ], [ 91.553, 23.793 ], [ 91.567, 23.79 ], [ 91.577, 23.8 ], [ 91.573, 23.813 ], [ 91.559, 23.816 ], [ 91.555, 23.828 ], [ 91.565, 23.838 ], [ 91.561, 23.85 ], [ 91.572, 23.86 ], [ 91.568, 23.872 ], [ 91.554, 23.875 ], [ 91.55, 23.888 ], [ 91.56, 23.897 ], [ 91.556, 23.91 ], [ 91.542, 23.913 ], [ 91.538, 23.925 ], [ 91.524, 23.928 ], [ 91.52, 23.941 ], [ 91.53, 23.95 ], [ 91.526, 23.963 ], [ 91.512, 23.966 ], [ 91.508, 23.978 ], [ 91.518, 23.988 ], [ 91.514, 24.0 ], [ 91.5, 24.003 ], [ 91.496, 24.016 ], [ 91.506, 24.025 ], [ 91.502, 24.038 ], [ 91.488, 24.041 ], [ 91.484, 24.053 ], [ 91.47, 24.056 ], [ 91.466, 24.069 ], [ 91.476, 24.078 ], [ 91.472, 24.091 ], [ 91.482, 24.1 ], [ 91.478, 24.113 ], [ 91.464, 24.116 ], [ 91.454, 24.106 ], [ 91.44, 24.109 ], [ 91.436, 24.122 ], [ 91.422, 24.125 ], [ 91.411, 24.115 ], [ 91.397, 24.118 ], [ 91.387, 24.109 ], [ 91.372, 24.112 ], [ 91.362, 24.102 ], [ 91.366, 24.09 ], [ 91.356, 24.08 ], [ 91.36, 24.068 ], [ 91.374, 24.065 ], [ 91.378, 24.052 ], [ 91.368, 24.043 ], [ 91.372, 24.03 ], [ 91.361, 24.021 ], [ 91.365, 24.008 ], [ 91.355, 23.999 ], [ 91.341, 24.002 ], [ 91.337, 24.014 ], [ 91.323, 24.017 ], [ 91.313, 24.008 ], [ 91.298, 24.01 ], [ 91.288, 24.001 ], [ 91.274, 24.004 ], [ 91.264, 23.994 ], [ 91.267, 23.982 ], [ 91.257, 23.972 ], [ 91.261, 23.96 ], [ 91.251, 23.95 ], [ 91.255, 23.938 ], [ 91.245, 23.928 ], [ 91.23, 23.931 ], [ 91.22, 23.922 ], [ 91.224, 23.909 ], [ 91.214, 23.9 ], [ 91.218, 23.887 ], [ 91.208, 23.878 ], [ 91.212, 23.865 ], [ 91.226, 23.862 ], [ 91.23, 23.85 ], [ 91.219, 23.84 ], [ 91.223, 23.828 ], [ 91.213, 23.818 ], [ 91.217, 23.806 ], [ 91.207, 23.796 ], [ 91.211, 23.783 ], [ 91.225, 23.781 ], [ 91.229, 23.768 ], [ 91.219, 23.758 ], [ 91.223, 23.746 ], [ 91.237, 23.743 ], [ 91.241, 23.73 ], [ 91.255, 23.727 ], [ 91.265, 23.737 ], [ 91.28, 23.734 ], [ 91.29, 23.744 ], [ 91.304, 23.741 ], [ 91.314, 23.75 ], [ 91.329, 23.747 ], [ 91.339, 23.757 ], [ 91.353, 23.754 ], [ 91.357, 23.741 ], [ 91.371, 23.738 ], [ 91.381, 23.748 ], [ 91.377, 23.76 ], [ 91.388, 23.77 ], [ 91.402, 23.767 ], [ 91.412, 23.776 ], [ 91.426, 23.773 ], [ 91.43, 23.761 ] ] ] ] } },
{ "type": "Feature", "properties": { "POLYGON.ID": 227.0, "subregion": "India--Tripura--Sepahijala_CL32289", "FILTER": "Tripura", "POLYGON": "India--Tripura--Sepahijala_CL32289", "COUNTY": "Sepahijala", "STATE": "Tripura", "OWNER": null }, "geometry": { "type": "MultiPolygon", "coordinates": [ [ [ [ 91.329, 23.747 ], [ 91.314, 23.75 ], [ 91.304, 23.741 ], [ 91.29, 23.744 ], [ 91.28, 23.734 ], [ 91.265, 23.737 ], [ 91.255, 23.727 ], [ 91.241, 23.73 ], [ 91.237, 23.743 ], [ 91.223, 23.746 ], [ 91.219, 23.758 ], [ 91.205, 23.761 ], [ 91.201, 23.774 ], [ 91.186, 23.777 ], [ 91.176, 23.767 ], [ 91.162, 23.77 ], [ 91.152, 23.761 ], [ 91.156, 23.748 ], [ 91.145, 23.739 ], [ 91.149, 23.726 ], [ 91.139, 23.717 ], [ 91.143, 23.704 ], [ 91.133, 23.695 ], [ 91.137, 23.682 ], [ 91.151, 23.679 ], [ 91.155, 23.667 ], [ 91.145, 23.657 ], [ 91.149, 23.644 ], [ 91.138, 23.635 ], [ 91.142, 23.622 ], [ 91.132, 23.613 ], [ 91.136, 23.6 ], [ 91.15, 23.597 ], [ 91.154, 23.585 ], [ 91.168, 23.582 ], [ 91.172, 23.569 ], [ 91.187, 23.566 ], [ 91.191, 23.554 ], [ 91.18, 23.544 ], [ 91.184, 23.532 ], [ 91.174, 23.522 ], [ 91.178, 23.509 ], [ 91.192, 23.507 ], [ 91.196, 23.494 ], [ 91.21, 23.491 ], [ 91.214, 23.478 ], [ 91.229, 23.475 ], [ 91.239, 23.485 ], [ 91.253, 23.482 ], [ 91.257, 23.469 ], [ 91.247, 23.46 ], [ 91.251, 23.447 ], [ 91.265, 23.444 ], [ 91.269, 23.432 ], [ 91.259, 23.422 ], [ 91.263, 23.41 ], [ 91.277, 23.407 ], [ 91.281, 23.394 ], [ 91.27, 23.385 ], [ 91.274, 23.372 ], [ 91.264, 23.362 ], [ 91.268, 23.35 ], [ 91.282, 23.347 ], [ 91.286, 23.334 ], [ 91.276, 23.325 ], [ 91.28, 23.312 ], [ 91.294, 23.309 ], [ 91.298, 23.297 ], [ 91.288, 23.287 ], [ 91.292, 23.274 ], [ 91.306, 23.271 ], [ 91.316, 23.281 ], [ 91.33, 23.278 ], [ 91.341, 23.288 ], [ 91.337, 23.3 ], [ 91.347, 23.31 ], [ 91.343, 23.322 ], [ 91.353, 23.332 ], [ 91.367, 23.329 ], [ 91.378, 23.338 ], [ 91.392, 23.335 ], [ 91.402, 23.345 ], [ 91.398, 23.357 ], [ 91.408, 23.367 ], [ 91.423, 23.364 ], [ 91.433, 23.374 ], [ 91.429, 23.386 ], [ 91.415, 23.389 ], [ 91.411, 23.402 ], [ 91.397, 23.405 ], [ 91.393, 23.417 ], [ 91.378, 23.42 ], [ 91.374, 23.433 ], [ 91.385, 23.442 ], [ 91.381, 23.455 ], [ 91.391, 23.465 ], [ 91.387, 23.477 ], [ 91.397, 23.487 ], [ 91.393, 23.499 ], [ 91.379, 23.502 ], [ 91.375, 23.515 ], [ 91.385, 23.524 ], [ 91.4, 23.521 ], [ 91.41, 23.531 ], [ 91.406, 23.543 ], [ 91.392, 23.546 ], [ 91.388, 23.559 ], [ 91.398, 23.569 ], [ 91.394, 23.581 ], [ 91.404, 23.591 ], [ 91.419, 23.588 ], [ 91.429, 23.597 ], [ 91.425, 23.61 ], [ 91.435, 23.619 ], [ 91.431, 23.632 ], [ 91.441, 23.641 ], [ 91.456, 23.638 ], [ 91.466, 23.648 ], [ 91.462, 23.661 ], [ 91.472, 23.67 ], [ 91.486, 23.667 ], [ 91.497, 23.677 ], [ 91.493, 23.689 ], [ 91.503, 23.699 ], [ 91.517, 23.696 ], [ 91.527, 23.705 ], [ 91.524, 23.718 ], [ 91.534, 23.727 ], [ 91.548, 23.724 ], [ 91.558, 23.734 ], [ 91.573, 23.731 ], [ 91.583, 23.74 ], [ 91.579, 23.753 ], [ 91.565, 23.756 ], [ 91.561, 23.768 ], [ 91.571, 23.778 ], [ 91.567, 23.79 ], [ 91.553, 23.793 ], [ 91.542, 23.784 ], [ 91.546, 23.771 ], [ 91.536, 23.762 ], [ 91.522, 23.765 ], [ 91.512, 23.755 ], [ 91.497, 23.758 ], [ 91.487, 23.749 ], [ 91.473, 23.752 ], [ 91.463, 23.742 ], [ 91.449, 23.745 ], [ 91.445, 23.758 ], [ 91.43, 23.761 ], [ 91.426, 23.773 ], [ 91.412, 23.776 ], [ 91.402, 23.767 ], [ 91.388, 23.77 ], [ 91.377, 23.76 ], [ 91.381, 23.748 ], [ 91.371, 23.738 ], [ 91.357, 23.741 ], [ 91.353, 23.754 ], [ 91.339, 23.757 ], [ 91.329, 23.747 ] ], [ [ 91.33, 23.489 ], [ 91.32, 23.48 ], [ 91.306, 23.483 ], [ 91.302, 23.495 ], [ 91.288, 23.498 ], [ 91.284, 23.511 ], [ 91.294, 23.52 ], [ 91.29, 23.533 ], [ 91.3, 23.542 ], [ 91.314, 23.539 ], [ 91.325, 23.549 ], [ 91.339, 23.546 ], [ 91.343, 23.533 ], [ 91.357, 23.53 ], [ 91.361, 23.518 ], [ 91.351, 23.508 ], [ 91.355, 23.496 ], [ 91.344, 23.486 ], [ 91.33, 23.489 ] ], [ [ 91.34, 23.628 ], [ 91.325, 23.631 ], [ 91.315, 23.621 ], [ 91.301, 23.624 ], [ 91.297, 23.637 ], [ 91.283, 23.64 ], [ 91.279, 23.652 ], [ 91.289, 23.662 ], [ 91.285, 23.674 ], [ 91.295, 23.684 ], [ 91.31, 23.681 ], [ 91.32, 23.69 ], [ 91.334, 23.687 ], [ 91.338, 23.675 ], [ 91.352, 23.672 ], [ 91.356, 23.659 ], [ 91.346, 23.65 ], [ 91.35, 23.637 ], [ 91.34, 23.628 ] ] ] ] } },
{ "type": "Feature", "properties": { "POLYGON.ID": 920.0, "subregion": "India--Tripura--Rudrasagar", "FILTER": "Tripura", "POLYGON": "India--Tripura--Rudrasagar", "COUNTY": "Sagar", "STATE": "Tripura", "OWNER": null }, "geometry": { "type": "MultiPolygon", "coordinates": [ [ [ [ 91.306, 23.483 ], [ 91.32, 23.48 ], [ 91.33, 23.489 ], [ 91.344, 23.486 ], [ 91.355, 23.496 ], [ 91.351, 23.508 ], [ 91.361, 23.518 ], [ 91.357, 23.53 ], [ 91.343, 23.533 ], [ 91.339, 23.546 ], [ 91.325, 23.549 ], [ 91.314, 23.539 ], [ 91.3, 23.542 ], [ 91.29, 23.533 ], [ 91.294, 23.52 ], [ 91.284, 23.511 ], [ 91.288, 23.498 ], [ 91.302, 23.495 ], [ 91.306, 23.483 ] ] ] ] } },
{ "type": "Feature", "properties": { "POLYGON.ID": 919.0, "subregion": "India--Tripura--Dumboor Lake", "FILTER": "Tripura", "POLYGON": "India--Tripura--Dumboor Lake", "COUNTY": "spl_region", "STATE": "Tripura", "OWNER": null }, "geometry": { "type": "MultiPolygon", "coordinates": [ [ [ [ 91.851, 23.519 ], [ 91.837, 23.522 ], [ 91.833, 23.535 ], [ 91.819, 23.538 ], [ 91.809, 23.528 ], [ 91.813, 23.516 ], [ 91.802, 23.506 ], [ 91.806, 23.494 ], [ 91.796, 23.484 ], [ 91.8, 23.471 ], [ 91.814, 23.468 ], [ 91.818, 23.456 ], [ 91.832, 23.453 ], [ 91.836, 23.44 ], [ 91.85, 23.437 ], [ 91.861, 23.447 ], [ 91.875, 23.444 ], [ 91.879, 23.431 ], [ 91.893, 23.428 ], [ 91.903, 23.438 ], [ 91.899, 23.45 ], [ 91.91, 23.46 ], [ 91.906, 23.472 ], [ 91.916, 23.482 ], [ 91.912, 23.494 ], [ 91.898, 23.497 ], [ 91.894, 23.51 ], [ 91.88, 23.513 ], [ 91.869, 23.503 ], [ 91.855, 23.507 ], [ 91.851, 23.519 ] ] ] ] } },
{ "type": "Feature", "properties": { "POLYGON.ID": 923.0, "subregion": "India--Tripura--Trishna WLS", "FILTER": "Tripura", "POLYGON": "India--Tripura--Trishna WLS", "COUNTY": "spl_region", "STATE": "Tripura", "OWNER": null }, "geometry": { "type": "MultiPolygon", "coordinates": [ [ [ [ 91.385, 23.231 ], [ 91.395, 23.241 ], [ 91.391, 23.253 ], [ 91.401, 23.263 ], [ 91.397, 23.275 ], [ 91.408, 23.285 ], [ 91.404, 23.298 ], [ 91.39, 23.301 ], [ 91.386, 23.313 ], [ 91.396, 23.323 ], [ 91.392, 23.335 ], [ 91.378, 23.338 ], [ 91.367, 23.329 ], [ 91.353, 23.332 ], [ 91.343, 23.322 ], [ 91.347, 23.31 ], [ 91.337, 23.3 ], [ 91.341, 23.288 ], [ 91.33, 23.278 ], [ 91.334, 23.265 ], [ 91.324, 23.256 ], [ 91.328, 23.243 ], [ 91.342, 23.24 ], [ 91.346, 23.228 ], [ 91.36, 23.225 ], [ 91.364, 23.212 ], [ 91.379, 23.209 ], [ 91.389, 23.219 ], [ 91.385, 23.231 ] ] ] ] } },
{ "type": "Feature", "properties": { "POLYGON.ID": 922.0, "subregion": "India--Tripura--Sepahijala WLS", "FILTER": "Tripura", "POLYGON": "India--Tripura--Sepahijala WLS", "COUNTY": "Sepahijala", "STATE": "Tripura", "OWNER": null }, "geometry": { "type": "MultiPolygon", "coordinates": [ [ [ [ 91.32, 23.69 ], [ 91.31, 23.681 ], [ 91.295, 23.684 ], [ 91.285, 23.674 ], [ 91.289, 23.662 ], [ 91.279, 23.652 ], [ 91.283, 23.64 ], [ 91.297, 23.637 ], [ 91.301, 23.624 ], [ 91.315, 23.621 ], [ 91.325, 23.631 ], [ 91.34, 23.628 ], [ 91.35, 23.637 ], [ 91.346, 23.65 ], [ 91.356, 23.659 ], [ 91.352, 23.672 ], [ 91.338, 23.675 ], [ 91.334, 23.687 ], [ 91.32, 23.69 ] ] ] ] } },
{ "type": "Feature", "properties": { "POLYGON.ID": 921.0, "subregion": "India--Tripura--Sukhsagar", "FILTER": "Tripura", "POLYGON": "India--Tripura--Sukhsagar", "COUNTY": "Sagar", "STATE": "Tripura", "OWNER": null }, "geometry": { "type": "MultiPolygon", "coordinates": [ [ [ [ 91.501, 23.535 ], [ 91.498, 23.548 ], [ 91.483, 23.551 ], [ 91.473, 23.541 ], [ 91.459, 23.544 ], [ 91.449, 23.534 ], [ 91.453, 23.522 ], [ 91.442, 23.512 ], [ 91.446, 23.5 ], [ 91.46, 23.497 ], [ 91.464, 23.484 ], [ 91.479, 23.481 ], [ 91.489, 23.491 ], [ 91.503, 23.488 ], [ 91.513, 23.497 ], [ 91.509, 23.51 ], [ 91.52, 23.519 ], [ 91.516, 23.532 ], [ 91.501, 23.535 ] ] ] ] } }
]
}
